"STATION","DATE","SOURCE","LATITUDE","LONGITUDE","ELEVATION","NAME","REPORT_TYPE","CALL_SIGN","QUALITY_CONTROL","WND","CIG","VIS","TMP","DEW","SLP","AA1","AY1","AY2","ED1","GA1","GA2","GA3","GE1","GF1","KA1","KA2","MA1","MD1","MW1","MW2","OC1","OD1","REM","EQD"
"68816099999","2022-01-01T00:00:00","4","-33.964806","18.601667","46.02","CAPE TOWN INTERNATIONAL, SF","FM-12","99999","V020","360,1,N,0046,1","22000,1,9,N","030000,1,9,9","+0163,1","+0112,1","10160,1",,,,,"03,1,+01250,1,06,1",,,"9,AGL   ,+99999,+99999","03,99,1,03,1,99,9,01250,1,99,9,99,9","120,M,+0255,1",,"99999,9,10105,1","7,1,015,1,+999,9",,,,"4,99,0067,1,999","SYN08068816 32680 30009 10163 20112 30105 40160 57015 83500 333 10255 91013 555 91016=",
"68816099999","2022-01-01T00:00:00","4","-33.964806","18.601667","46.02","CAPE TOWN INTERNATIONAL, SF","FM-15","99999","V020","340,1,N,0031,1","99999,9,9,N","009999,1,9,9","+0150,1","+0110,1","99999,9",,,,,"04,1,+01067,1,99,9",,,"9,AGL   ,+99999,+99999","99,99,9,04,1,99,9,01067,1,99,9,99,9",,,"10160,1,99999,9",,,,,,"MET057METAR FACT 010000Z 34006KT 9999 SCT035 15/11 Q1016 NOSIG=",
"68816099999","2022-01-01T01:00:00","4","-33.964806","18.601667","46.02","CAPE TOWN INTERNATIONAL, SF","FM-15","99999","V020","040,1,N,0057,1","00762,1,C,N","009999,1,9,9","+0160,1","+0110,1","99999,9",,,,,"07,1,+00762,1,99,9",,,"9,AGL   ,+99999,+99999","99,99,9,07,1,99,9,00762,1,99,9,99,9",,,"10150,1,99999,9",,,,,,"MET057METAR FACT 010100Z 04011KT 9999 BKN025 16/11 Q1015 NOSIG=",
"68816099999","2022-01-01T02:00:00","4","-33.964806","18.601667","46.02","CAPE TOWN INTERNATIONAL, SF","FM-15","99999","V020","020,1,N,0057,1","01067,1,9,N","009999,1,9,9","+0160,1","+0120,1","99999,9",,,,,"02,1,+00762,1,99,9","07,1,+01067,1,99,9",,"9,AGL   ,+99999,+99999","99,99,9,02,1,99,9,00762,1,99,9,99,9",,,"10150,1,99999,9",,,,,,"MET064METAR FACT 010200Z 02011KT 9999 FEW025 BKN035 16/12 Q1015 NOSIG=",
"68816099999","2022-01-01T03:00:00","4","-33.964806","18.601667","46.02","CAPE TOWN INTERNATIONAL, SF","FM-12","99999","V020","360,1,N,0057,1","99999,9,9,N","030000,1,9,9","+0164,1","+0118,1","10153,1",,,,,"06,1,+00800,1,06,1",,,"9,AGL   ,+99999,+99999","06,99,1,06,1,99,9,00800,1,99,9,99,9","240,M,+0255,1",,"99999,9,10098,1","7,1,015,1,+999,9",,,,"4,99,0088,1,999","SYN07068816 42580 60011 10164 20118 30098 40153 57015 86500 333 10255 91017=",
"68816099999","2022-01-01T03:00:00","4","-33.964806","18.601667","46.02","CAPE TOWN INTERNATIONAL, SF","FM-15","99999","V020","360,1,N,0057,1","01219,1,9,N","009999,1,9,9","+0160,1","+0120,1","99999,9",,,,,"02,1,+00610,1,99,9","07,1,+01219,1,99,9",,"9,AGL   ,+99999,+99999","99,99,9,02,1,99,9,00610,1,99,9,99,9",,,"10150,1,99999,9",,,,,,"MET064METAR FACT 010300Z 36011KT 9999 FEW020 BKN040 16/12 Q1015 NOSIG=",
"68816099999","2022-01-01T04:00:00","4","-33.964806","18.601667","46.02","CAPE TOWN INTERNATIONAL, SF","FM-15","99999","V020","020,1,N,0062,1","01219,1,9,N","009999,1,9,9","+0160,1","+0120,1","99999,9",,,,,"02,1,+00610,1,99,9","07,1,+01219,1,99,9",,"9,AGL   ,+99999,+99999","99,99,9,02,1,99,9,00610,1,99,9,99,9",,,"10150,1,99999,9",,,,,,"MET064METAR FACT 010400Z 02012KT 9999 FEW020 BKN040 16/12 Q1015 NOSIG=",
"68816099999","2022-01-01T05:00:00","4","-33.964806","18.601667","46.02","CAPE TOWN INTERNATIONAL, SF","FM-15","99999","V020","030,1,N,0062,1","01067,1,9,N","009999,1,9,9","+0160,1","+0120,1","99999,9",,,,,"02,1,+00610,1,99,9","07,1,+01067,1,99,9",,"9,AGL   ,+99999,+99999","99,99,9,02,1,99,9,00610,1,99,9,99,9",,,"10160,1,99999,9",,,,,,"MET064METAR FACT 010500Z 03012KT 9999 FEW020 BKN035 16/12 Q1016 NOSIG=",
"68816099999","2022-01-01T05:26:00","4","-33.964806","18.601667","46.02","CAPE TOWN INTERNATIONAL, SF","FM-16","99999","V020","020,1,N,0067,1","00457,1,C,N","004000,1,9,9","+0160,1","+0130,1","99999,9",,,,,"08,1,+00457,1,99,9",,,"9,AGL   ,+99999,+99999","99,99,9,08,1,99,9,00457,1,99,9,99,9",,,"10160,1,99999,9",,"53,1",,,,"MET060SPECI FACT 010526Z 02013KT 4000 DZ OVC015 16/13 Q1016 NOSIG=",
"68816099999","2022-01-01T06:00:00","4","-33.964806","18.601667","46.02","CAPE TOWN INTERNATIONAL, SF","FM-12","99999","V020","010,1,N,0046,1","99999,9,9,N","004000,1,9,9","+0154,1","+0142,1","10170,1",,"2,1,02,1","2,1,02,1",,"08,1,+00450,1,06,1",,,"9,AGL   ,+99999,+99999","08,99,1,08,1,99,9,00450,1,99,9,99,9","240,N,+0149,1",,"99999,9,10115,1","7,1,015,1,+999,9","50,1",,,"4,99,0051,1,999","SYN09868816 11440 80109 10154 20142 30115 40170 57015 75022 885// 333 20149 91010 555 10255 20001 91016=",
"68816099999","2022-01-01T06:00:00","4","-33.964806","18.601667","46.02","CAPE TOWN INTERNATIONAL, SF","FM-15","99999","V020","010,1,N,0051,1","00457,1,C,N","004000,1,9,9","+0150,1","+0140,1","99999,9",,,,,"08,1,+00457,1,99,9",,,"9,AGL   ,+99999,+99999","99,99,9,08,1,99,9,00457,1,99,9,99,9",,,"10160,1,99999,9",,"53,1",,,,"MET060METAR FACT 010600Z 01010KT 4000 DZ OVC015 15/14 Q1016 NOSIG=",
"68816099999","2022-01-01T06:27:00","4","-33.964806","18.601667","46.02","CAPE TOWN INTERNATIONAL, SF","FM-16","99999","V020","350,1,N,0036,1","00457,1,9,N","002500,1,9,9","+0150,1","+0150,1","99999,9",,,,,"04,1,+00244,1,99,9","08,1,+00457,1,99,9",,"9,AGL   ,+99999,+99999","99,99,9,04,1,99,9,00244,1,99,9,99,9",,,"10170,1,99999,9",,"53,1",,,,"MET072SPECI FACT 010627Z 35007KT 2500 DZ SCT008 OVC015 15/15 Q1017 TEMPO 4500=",
"68816099999","2022-01-01T06:50:00","4","-33.964806","18.601667","46.02","CAPE TOWN INTERNATIONAL, SF","FM-16","99999","V020","350,1,N,0041,1","00457,1,9,N","005000,1,9,9","+0160,1","+0150,1","99999,9",,,,,"04,1,+00244,1,99,9","08,1,+00457,1,99,9",,"9,AGL   ,+99999,+99999","99,99,9,04,1,99,9,00244,1,99,9,99,9",,,"10170,1,99999,9",,"53,1",,,,"MET067SPECI FACT 010650Z 35008KT 5000 DZ SCT008 OVC015 16/15 Q1017 NOSIG=",
"68816099999","2022-01-01T07:00:00","4","-33.964806","18.601667","46.02","CAPE TOWN INTERNATIONAL, SF","FM-15","99999","V020","350,1,N,0046,1","00457,1,9,N","005000,1,9,9","+0150,1","+0150,1","99999,9",,,,,"04,1,+00244,1,99,9","08,1,+00457,1,99,9",,"9,AGL   ,+99999,+99999","99,99,9,04,1,99,9,00244,1,99,9,99,9",,,"10170,1,99999,9",,"53,1",,,,"MET067METAR FACT 010700Z 35009KT 5000 DZ SCT008 OVC015 15/15 Q1017 NOSIG=",
"68816099999","2022-01-01T07:52:00","4","-33.964806","18.601667","46.02","CAPE TOWN INTERNATIONAL, SF","FM-16","99999","V020","330,1,V,0041,1","00457,1,9,N","006000,1,9,9","+0160,1","+0150,1","99999,9",,,,,"04,1,+00183,1,99,9","08,1,+00457,1,99,9",,"9,AGL   ,+99999,+99999","99,99,9,04,1,99,9,00183,1,99,9,99,9",,,"10180,1,99999,9",,"51,1",,,,"MET076SPECI FACT 010752Z 33008KT 300V010 6000 -DZ SCT006 OVC015 16/15 Q1018 NOSIG=",
"68816099999","2022-01-01T08:00:00","4","-33.964806","18.601667","46.02","CAPE TOWN INTERNATIONAL, SF","FM-15","99999","V020","330,1,V,0041,1","00457,1,9,N","006000,1,9,9","+0160,1","+0150,1","99999,9",,,,,"04,1,+00183,1,99,9","08,1,+00457,1,99,9",,"9,AGL   ,+99999,+99999","99,99,9,04,1,99,9,00183,1,99,9,99,9",,,"10180,1,99999,9",,"51,1",,,,"MET076METAR FACT 010800Z 33008KT 300V010 6000 -DZ SCT006 OVC015 16/15 Q1018 NOSIG=",
"68816099999","2022-01-01T08:29:00","4","-33.964806","18.601667","46.02","CAPE TOWN INTERNATIONAL, SF","FM-16","99999","V020","330,1,V,0036,1","00183,1,C,N","004000,1,9,9","+0160,1","+0150,1","99999,9",,,,,"07,1,+00183,1,99,9","08,1,+00488,1,99,9",,"9,AGL   ,+99999,+99999","99,99,9,07,1,99,9,00183,1,99,9,99,9",,,"10180,1,99999,9",,"55,1",,,,"MET092SPECI FACT 010829Z 33007KT 300V360 4000 +DZ BKN006 OVC016 16/15 Q1018 BECMG 6000 -DZ BKN030=",
"68816099999","2022-01-01T08:57:00","4","-33.964806","18.601667","46.02","CAPE TOWN INTERNATIONAL, SF","FM-16","99999","V020","999,9,V,0015,1","00488,1,9,N","009999,1,9,9","+0160,1","+0150,1","99999,9",,,,,"02,1,+00183,1,99,9","07,1,+00488,1,99,9",,"9,AGL   ,+99999,+99999","99,99,9,02,1,99,9,00183,1,99,9,99,9",,,"10180,1,99999,9",,,,,,"MET064SPECI FACT 010857Z VRB03KT 9999 FEW006 BKN016 16/15 Q1018 NOSIG=",
"68816099999","2022-01-01T08:58:00","4","-33.964806","18.601667","46.02","CAPE TOWN INTERNATIONAL, SF","FM-16","99999","V020","999,9,V,0015,1","00488,1,9,N","009999,1,9,9","+0160,1","+0150,1","99999,9",,,,,"04,1,+00183,1,99,9","07,1,+00488,1,99,9",,"9,AGL   ,+99999,+99999","99,99,9,04,1,99,9,00183,1,99,9,99,9",,,"10180,1,99999,9",,,,,,"MET064SPECI FACT 010858Z VRB03KT 9999 SCT006 BKN016 16/15 Q1018 NOSIG=",
"68816099999","2022-01-01T09:00:00","4","-33.964806","18.601667","46.02","CAPE TOWN INTERNATIONAL, SF","FM-15","99999","V020","999,9,V,0015,1","00488,1,9,N","009999,1,9,9","+0160,1","+0150,1","99999,9",,,,,"04,1,+00183,1,99,9","07,1,+00488,1,99,9",,"9,AGL   ,+99999,+99999","99,99,9,04,1,99,9,00183,1,99,9,99,9",,,"10180,1,99999,9",,,,,,"MET068METAR COR FACT 010900Z VRB03KT 9999 SCT006 BKN016 16/15 Q1018 NOSIG=",
"68816099999","2022-01-01T10:00:00","4","-33.964806","18.601667","46.02","CAPE TOWN INTERNATIONAL, SF","FM-15","99999","V020","999,9,V,0015,1","00610,1,9,N","009999,1,9,9","+0180,1","+0150,1","99999,9",,,,,"02,1,+00183,1,99,9","07,1,+00610,1,99,9",,"9,AGL   ,+99999,+99999","99,99,9,02,1,99,9,00183,1,99,9,99,9",,,"10180,1,99999,9",,,,,,"MET064METAR FACT 011000Z VRB03KT 9999 FEW006 BKN020 18/15 Q1018 NOSIG=",
"68816099999","2022-01-01T11:00:00","4","-33.964806","18.601667","46.02","CAPE TOWN INTERNATIONAL, SF","FM-15","99999","V020","230,1,V,0031,1","00914,1,9,N","009999,1,9,9","+0190,1","+0130,1","99999,9",,,,,"02,1,+00610,1,99,9","07,1,+00914,1,99,9",,"9,AGL   ,+99999,+99999","99,99,9,02,1,99,9,00610,1,99,9,99,9",,,"10180,1,99999,9",,,,,,"MET072METAR FACT 011100Z 23006KT 200V270 9999 FEW020 BKN030 19/13 Q1018 NOSIG=",
"68816099999","2022-01-01T11:55:00","4","-33.964806","18.601667","46.02","CAPE TOWN INTERNATIONAL, SF","FM-16","99999","V020","210,1,V,0026,1","00914,1,C,N","009999,1,9,9","+0210,1","+0110,1","99999,9",,,,,"07,1,+00914,1,99,9",,,"9,AGL   ,+99999,+99999","99,99,9,07,1,99,9,00914,1,99,9,99,9",,,"10180,1,99999,9",,,,,,"MET065SPECI FACT 011155Z 21005KT 160V300 9999 BKN030 21/11 Q1018 NOSIG=",
"68816099999","2022-01-01T12:00:00","4","-33.964806","18.601667","46.02","CAPE TOWN INTERNATIONAL, SF","FM-12","99999","V020","190,1,N,0026,1","99999,9,9,N","030000,1,9,9","+0211,1","+0107,1","10180,1","06,0020,3,1",,,,"07,1,+01250,1,06,1",,,"9,AGL   ,+99999,+99999","07,99,1,07,1,99,9,01250,1,99,9,99,9","240,N,+0154,1",,"99999,9,10126,1","7,1,015,1,+999,9",,,,"4,99,0051,1,999","SYN09268816 12680 71905 10211 20107 30126 40180 57015 60021 875// 333 20154 91010 555 20023 91018=",
"68816099999","2022-01-01T12:00:00","4","-33.964806","18.601667","46.02","CAPE TOWN INTERNATIONAL, SF","FM-15","99999","V020","210,1,V,0026,1","00914,1,C,N","009999,1,9,9","+0210,1","+0110,1","99999,9",,,,,"07,1,+00914,1,99,9",,,"9,AGL   ,+99999,+99999","99,99,9,07,1,99,9,00914,1,99,9,99,9",,,"10180,1,99999,9",,,,,,"MET065METAR FACT 011200Z 21005KT 160V300 9999 BKN030 21/11 Q1018 NOSIG=",
"68816099999","2022-01-01T13:00:00","4","-33.964806","18.601667","46.02","CAPE TOWN INTERNATIONAL, SF","FM-15","99999","V020","330,1,V,0046,1","01219,1,9,N","009999,1,9,9","+0230,1","+0110,1","99999,9",,,,,"02,1,+01067,1,99,9","07,1,+01219,1,99,9",,"9,AGL   ,+99999,+99999","99,99,9,02,1,99,9,01067,1,99,9,99,9",,,"10180,1,99999,9",,,,,,"MET072METAR FACT 011300Z 33009KT 290V020 9999 FEW035 BKN040 23/11 Q1018 NOSIG=",
"68816099999","2022-01-01T14:00:00","4","-33.964806","18.601667","46.02","CAPE TOWN INTERNATIONAL, SF","FM-15","99999","V020","160,1,V,0031,1","01219,1,9,N","009999,1,9,9","+0200,1","+0100,1","99999,9",,,,,"02,1,+01067,1,99,9","07,1,+01219,1,99,9",,"9,AGL   ,+99999,+99999","99,99,9,02,1,99,9,01067,1,99,9,99,9",,,"10180,1,99999,9",,,,,,"MET072METAR FACT 011400Z 16006KT 100V240 9999 FEW035 BKN040 20/10 Q1018 NOSIG=",
"68816099999","2022-01-01T15:00:00","4","-33.964806","18.601667","46.02","CAPE TOWN INTERNATIONAL, SF","FM-15","99999","V020","060,1,V,0021,1","99999,9,9,N","009999,1,9,9","+0220,1","+0100,1","99999,9",,,,,"04,1,+01219,1,99,9",,,"9,AGL   ,+99999,+99999","99,99,9,04,1,99,9,01219,1,99,9,99,9",,,"10170,1,99999,9",,,,,,"MET065METAR FACT 011500Z 06004KT 010V120 9999 SCT040 22/10 Q1017 NOSIG=",
"68816099999","2022-01-01T16:00:00","4","-33.964806","18.601667","46.02","CAPE TOWN INTERNATIONAL, SF","FM-15","99999","V020","240,1,N,0057,1","99999,9,9,N","009999,1,9,9","+0200,1","+0070,1","99999,9",,,,,"02,1,+01219,1,99,9",,,"9,AGL   ,+99999,+99999","99,99,9,02,1,99,9,01219,1,99,9,99,9",,,"10170,1,99999,9",,,,,,"MET057METAR FACT 011600Z 24011KT 9999 FEW040 20/07 Q1017 NOSIG=",
"68816099999","2022-01-01T17:00:00","4","-33.964806","18.601667","46.02","CAPE TOWN INTERNATIONAL, SF","FM-15","99999","V020","240,1,V,0057,1","99999,9,9,N","009999,1,9,9","+0190,1","+0080,1","99999,9",,,,,"02,1,+01219,1,99,9",,,"9,AGL   ,+99999,+99999","99,99,9,02,1,99,9,01219,1,99,9,99,9",,,"10180,1,99999,9",,,,,,"MET065METAR FACT 011700Z 24011KT 190V260 9999 FEW040 19/08 Q1018 NOSIG=",
"68816099999","2022-01-01T18:00:00","4","-33.964806","18.601667","46.02","CAPE TOWN INTERNATIONAL, SF","FM-12","99999","V020","240,1,N,0026,1","99999,9,9,N","030000,1,9,9","+0185,1","+0076,1","10191,1","12,0020,3,1",,,,,,,,,"120,M,+0227,1",,"99999,9,10136,1","2,1,012,1,+999,9",,,,"4,99,0036,1,999","SYN08668816 12980 02405 10185 20076 30136 40191 52012 60022 333 10227 91007 555 20023 91019=",
"68816099999","2022-01-01T18:00:00","4","-33.964806","18.601667","46.02","CAPE TOWN INTERNATIONAL, SF","FM-15","99999","V020","240,1,N,0026,1","99999,9,9,Y","009900,5,9,9","+0190,1","+0070,1","99999,9",,,,,,,,,,,,"10190,1,99999,9",,,,,,"MET051METAR FACT 011800Z 24005KT CAVOK 19/07 Q1019 NOSIG=",
"68816099999","2022-01-01T19:00:00","4","-33.964806","18.601667","46.02","CAPE TOWN INTERNATIONAL, SF","FM-15","99999","V020","240,1,N,0026,1","99999,9,9,Y","009900,5,9,9","+0180,1","+0090,1","99999,9",,,,,,,,,,,,"10190,1,99999,9",,,,,,"MET051METAR FACT 011900Z 24005KT CAVOK 18/09 Q1019 NOSIG=",
"68816099999","2022-01-01T20:00:00","4","-33.964806","18.601667","46.02","CAPE TOWN INTERNATIONAL, SF","FM-15","99999","V020","999,9,V,0005,1","99999,9,9,Y","009900,5,9,9","+0150,1","+0090,1","99999,9",,,,,,,,,,,,"10190,1,99999,9",,,,,,"MET051METAR FACT 012000Z VRB01KT CAVOK 15/09 Q1019 NOSIG=",
"68816099999","2022-01-01T21:00:00","4","-33.964806","18.601667","46.02","CAPE TOWN INTERNATIONAL, SF","FM-15","99999","V020","010,1,N,0010,1","99999,9,9,Y","009900,5,9,9","+0150,1","+0090,1","99999,9",,,,,,,,,,,,"10190,1,99999,9",,,,,,"MET051METAR FACT 012100Z 01002KT CAVOK 15/09 Q1019 NOSIG=",
"68816099999","2022-01-01T22:00:00","4","-33.964806","18.601667","46.02","CAPE TOWN INTERNATIONAL, SF","FM-15","99999","V020","060,1,N,0021,1","99999,9,9,Y","009900,5,9,9","+0150,1","+0100,1","99999,9",,,,,,,,,,,,"10190,1,99999,9",,,,,,"MET051METAR FACT 012200Z 06004KT CAVOK 15/10 Q1019 NOSIG=",
"68816099999","2022-01-01T23:00:00","4","-33.964806","18.601667","46.02","CAPE TOWN INTERNATIONAL, SF","FM-15","99999","V020","100,1,N,0010,1","99999,9,9,Y","009900,5,9,9","+0140,1","+0090,1","99999,9",,,,,,,,,,,,"10190,1,99999,9",,,,,,"MET051METAR FACT 012300Z 10002KT CAVOK 14/09 Q1019 NOSIG=",
"68816099999","2022-01-02T00:00:00","4","-33.964806","18.601667","46.02","CAPE TOWN INTERNATIONAL, SF","FM-12","99999","V020","040,1,N,0026,1","99999,9,9,N","020000,1,9,9","+0139,1","+0104,1","10190,1","18,0020,3,1",,,,"06,1,+00800,1,06,1",,,"9,AGL   ,+99999,+99999","06,99,1,06,1,99,9,00800,1,99,9,99,9",,,"99999,9,10134,1","2,1,012,1,+999,9",,,,"4,99,0026,1,999","SYN08668816 12570 60405 10139 20104 30134 40190 52012 60023 86500 333 91005 555 20023 91018=",
"68816099999","2022-01-02T00:00:00","4","-33.964806","18.601667","46.02","CAPE TOWN INTERNATIONAL, SF","FM-15","99999","V020","040,1,N,0026,1","01219,1,9,N","009999,1,9,9","+0140,1","+0100,1","99999,9",,,,,"02,1,+00914,1,99,9","07,1,+01219,1,99,9",,"9,AGL   ,+99999,+99999","99,99,9,02,1,99,9,00914,1,99,9,99,9",,,"10180,1,99999,9",,,,,,"MET064METAR FACT 020000Z 04005KT 9999 FEW030 BKN040 14/10 Q1018 NOSIG=",
"68816099999","2022-01-02T01:00:00","4","-33.964806","18.601667","46.02","CAPE TOWN INTERNATIONAL, SF","FM-15","99999","V020","050,1,N,0021,1","99999,9,9,Y","009900,5,9,9","+0150,1","+0100,1","99999,9",,,,,,,,,,,,"10180,1,99999,9",,,,,,"MET051METAR FACT 020100Z 05004KT CAVOK 15/10 Q1018 NOSIG=",
"68816099999","2022-01-02T02:00:00","4","-33.964806","18.601667","46.02","CAPE TOWN INTERNATIONAL, SF","FM-15","99999","V020","030,1,N,0015,1","01219,1,C,N","009999,1,9,9","+0140,1","+0110,1","99999,9",,,,,"07,1,+01219,1,99,9",,,"9,AGL   ,+99999,+99999","99,99,9,07,1,99,9,01219,1,99,9,99,9",,,"10180,1,99999,9",,,,,,"MET057METAR FACT 020200Z 03003KT 9999 BKN040 14/11 Q1018 NOSIG=",
"68816099999","2022-01-02T03:00:00","4","-33.964806","18.601667","46.02","CAPE TOWN INTERNATIONAL, SF","FM-15","99999","V020","999,9,V,0010,1","01219,1,9,N","009999,1,9,9","+0150,1","+0110,1","99999,9",,,,,"02,1,+00914,1,99,9","07,1,+01219,1,99,9",,"9,AGL   ,+99999,+99999","99,99,9,02,1,99,9,00914,1,99,9,99,9",,,"10180,1,99999,9",,,,,,"MET064METAR FACT 020300Z VRB02KT 9999 FEW030 BKN040 15/11 Q1018 NOSIG=",
"68816099999","2022-01-02T04:00:00","4","-33.964806","18.601667","46.02","CAPE TOWN INTERNATIONAL, SF","FM-15","99999","V020","050,1,N,0015,1","01219,1,9,N","009999,1,9,9","+0140,1","+0110,1","99999,9",,,,,"02,1,+00914,1,99,9","07,1,+01219,1,99,9",,"9,AGL   ,+99999,+99999","99,99,9,02,1,99,9,00914,1,99,9,99,9",,,"10180,1,99999,9",,,,,,"MET064METAR FACT 020400Z 05003KT 9999 FEW030 BKN040 14/11 Q1018 NOSIG=",
"68816099999","2022-01-02T04:25:00","4","-33.964806","18.601667","46.02","CAPE TOWN INTERNATIONAL, SF","FM-16","99999","V020","999,9,V,0010,1","01219,1,9,N","009999,1,9,9","+0160,1","+0120,1","99999,9",,,,,"02,1,+01067,1,99,9","07,1,+01219,1,99,9",,"9,AGL   ,+99999,+99999","99,99,9,02,1,99,9,01067,1,99,9,99,9",,,"10180,1,99999,9",,,,,,"MET064SPECI FACT 020425Z VRB02KT 9999 FEW035 BKN040 16/12 Q1018 NOSIG=",
"68816099999","2022-01-02T05:00:00","4","-33.964806","18.601667","46.02","CAPE TOWN INTERNATIONAL, SF","FM-15","99999","V020","999,9,V,0010,1","01219,1,C,N","009999,1,9,9","+0160,1","+0120,1","99999,9",,,,,"07,1,+01219,1,99,9",,,"9,AGL   ,+99999,+99999","99,99,9,07,1,99,9,01219,1,99,9,99,9",,,"10180,1,99999,9",,,,,,"MET057METAR FACT 020500Z VRB02KT 9999 BKN040 16/12 Q1018 NOSIG=",
"68816099999","2022-01-02T05:30:00","4","-33.964806","18.601667","46.02","CAPE TOWN INTERNATIONAL, SF","FM-16","99999","V020","999,9,V,0015,1","99999,9,9,N","009999,1,9,9","+0180,1","+0120,1","99999,9",,,,,"04,1,+01067,1,99,9",,,"9,AGL   ,+99999,+99999","99,99,9,04,1,99,9,01067,1,99,9,99,9",,,"10180,1,99999,9",,,,,,"MET057SPECI FACT 020530Z VRB03KT 9999 SCT035 18/12 Q1018 NOSIG=",
"68816099999","2022-01-02T05:55:00","4","-33.964806","18.601667","46.02","CAPE TOWN INTERNATIONAL, SF","FM-16","99999","V020","999,9,V,0010,1","99999,9,9,N","009999,1,9,9","+0200,1","+0120,1","99999,9",,,,,"02,1,+01372,1,99,9",,,"9,AGL   ,+99999,+99999","99,99,9,02,1,99,9,01372,1,99,9,99,9",,,"10180,1,99999,9",,,,,,"MET057SPECI FACT 020555Z VRB02KT 9999 FEW045 20/12 Q1018 NOSIG=",
"68816099999","2022-01-02T06:00:00","4","-33.964806","18.601667","46.02","CAPE TOWN INTERNATIONAL, SF","FM-12","99999","V020","010,1,N,0010,1","22000,1,9,N","030000,1,9,9","+0197,1","+0121,1","10186,1","24,0020,3,1",,,,"02,1,+01250,1,06,1",,,"9,AGL   ,+99999,+99999","02,99,1,02,1,99,9,01250,1,99,9,99,9","240,N,+0139,1",,"99999,9,10132,1","2,1,012,1,+999,9",,,,"4,99,0021,1,999","SYN09868816 12680 20102 10197 20121 30132 40186 52012 60024 82500 333 20139 91004 555 10227 20023 91018=",
"68816099999","2022-01-02T06:00:00","4","-33.964806","18.601667","46.02","CAPE TOWN INTERNATIONAL, SF","FM-15","99999","V020","999,9,V,0010,1","99999,9,9,N","009999,1,9,9","+0200,1","+0120,1","99999,9",,,,,"02,1,+01372,1,99,9",,,"9,AGL   ,+99999,+99999","99,99,9,02,1,99,9,01372,1,99,9,99,9",,,"10180,1,99999,9",,,,,,"MET057METAR FACT 020600Z VRB02KT 9999 FEW045 20/12 Q1018 NOSIG=",
"68816099999","2022-01-02T07:00:00","4","-33.964806","18.601667","46.02","CAPE TOWN INTERNATIONAL, SF","FM-15","99999","V020","210,1,V,0031,1","99999,9,9,N","009999,1,9,9","+0200,1","+0120,1","99999,9",,,,,"04,1,+00914,1,99,9",,,"9,AGL   ,+99999,+99999","99,99,9,04,1,99,9,00914,1,99,9,99,9",,,"10180,1,99999,9",,,,,,"MET065METAR FACT 020700Z 21006KT 160V240 9999 SCT030 20/12 Q1018 NOSIG=",
"68816099999","2022-01-02T08:00:00","4","-33.964806","18.601667","46.02","CAPE TOWN INTERNATIONAL, SF","FM-15","99999","V020","170,1,V,0036,1","99999,9,9,N","009999,1,9,9","+0220,1","+0110,1","99999,9",,,,,"04,1,+01067,1,99,9",,,"9,AGL   ,+99999,+99999","99,99,9,04,1,99,9,01067,1,99,9,99,9",,,"10180,1,99999,9",,,,,,"MET065METAR FACT 020800Z 17007KT 130V210 9999 SCT035 22/11 Q1018 NOSIG=",
"68816099999","2022-01-02T09:00:00","4","-33.964806","18.601667","46.02","CAPE TOWN INTERNATIONAL, SF","FM-15","99999","V020","190,1,V,0036,1","99999,9,9,N","009999,1,9,9","+0220,1","+0110,1","99999,9",,,,,"02,1,+01067,1,99,9",,,"9,AGL   ,+99999,+99999","99,99,9,02,1,99,9,01067,1,99,9,99,9",,,"10180,1,99999,9",,,,,,"MET065METAR FACT 020900Z 19007KT 140V240 9999 FEW035 22/11 Q1018 NOSIG=",
"68816099999","2022-01-02T10:00:00","4","-33.964806","18.601667","46.02","CAPE TOWN INTERNATIONAL, SF","FM-15","99999","V020","200,1,V,0057,1","99999,9,9,N","009999,1,9,9","+0230,1","+0110,1","99999,9",,,,,"02,1,+01067,1,99,9",,,"9,AGL   ,+99999,+99999","99,99,9,02,1,99,9,01067,1,99,9,99,9",,,"10180,1,99999,9",,,,,,"MET065METAR FACT 021000Z 20011KT 160V220 9999 FEW035 23/11 Q1018 NOSIG=",
"68816099999","2022-01-02T11:00:00","4","-33.964806","18.601667","46.02","CAPE TOWN INTERNATIONAL, SF","FM-15","99999","V020","190,1,V,0062,1","99999,9,9,N","009999,1,9,9","+0230,1","+0110,1","99999,9",,,,,"02,1,+01219,1,99,9",,,"9,AGL   ,+99999,+99999","99,99,9,02,1,99,9,01219,1,99,9,99,9",,,"10170,1,99999,9",,,,,,"MET065METAR FACT 021100Z 19012KT 160V220 9999 FEW040 23/11 Q1017 NOSIG=",
"68816099999","2022-01-02T12:00:00","4","-33.964806","18.601667","46.02","CAPE TOWN INTERNATIONAL, SF","FM-12","99999","V020","180,1,N,0062,1","22000,1,9,N","030000,1,9,9","+0225,1","+0120,1","10175,1",,,,,"01,1,+01250,1,06,1","99,9,+99999,9,02,1",,"9,AGL   ,+99999,+99999","04,99,1,01,1,99,9,01250,1,99,9,99,9","240,N,+0196,1",,"99999,9,10118,1","7,1,006,1,+999,9",,,,"4,99,0093,1,999","SYN08068816 32680 41812 10225 20120 30118 40175 57006 81508 333 20196 91018 555 91017=",
"68816099999","2022-01-02T12:00:00","4","-33.964806","18.601667","46.02","CAPE TOWN INTERNATIONAL, SF","FM-15","99999","V020","180,1,V,0062,1","99999,9,9,N","009999,1,9,9","+0230,1","+0110,1","99999,9",,,,,"02,1,+01219,1,99,9",,,"9,AGL   ,+99999,+99999","99,99,9,02,1,99,9,01219,1,99,9,99,9",,,"10170,1,99999,9",,,,,,"MET065METAR FACT 021200Z 18012KT 150V220 9999 FEW040 23/11 Q1017 NOSIG=",
"68816099999","2022-01-02T13:00:00","4","-33.964806","18.601667","46.02","CAPE TOWN INTERNATIONAL, SF","FM-15","99999","V020","180,1,V,0082,1","99999,9,9,N","009999,1,9,9","+0230,1","+0120,1","99999,9",,,,,"02,1,+01219,1,99,9",,,"9,AGL   ,+99999,+99999","99,99,9,02,1,99,9,01219,1,99,9,99,9",,,"10160,1,99999,9",,,,,,"MET065METAR FACT 021300Z 18016KT 150V210 9999 FEW040 23/12 Q1016 NOSIG=",
"68816099999","2022-01-02T14:00:00","4","-33.964806","18.601667","46.02","CAPE TOWN INTERNATIONAL, SF","FM-15","99999","V020","170,1,N,0077,1","99999,9,9,N","009999,1,9,9","+0220,1","+0120,1","99999,9",,,,,"02,1,+01219,1,99,9",,,"9,AGL   ,+99999,+99999","99,99,9,02,1,99,9,01219,1,99,9,99,9",,,"10160,1,99999,9",,,,,,"MET057METAR FACT 021400Z 17015KT 9999 FEW040 22/12 Q1016 NOSIG=",
"68816099999","2022-01-02T15:00:00","4","-33.964806","18.601667","46.02","CAPE TOWN INTERNATIONAL, SF","FM-15","99999","V020","170,1,N,0088,1","99999,9,9,N","009999,1,9,9","+0210,1","+0130,1","99999,9",,,,,"02,1,+01219,1,99,9",,,"9,AGL   ,+99999,+99999","99,99,9,02,1,99,9,01219,1,99,9,99,9",,,"10150,1,99999,9",,,,,,"MET057METAR FACT 021500Z 17017KT 9999 FEW040 21/13 Q1015 NOSIG=",
"68816099999","2022-01-02T16:00:00","4","-33.964806","18.601667","46.02","CAPE TOWN INTERNATIONAL, SF","FM-15","99999","V020","180,1,N,0082,1","99999,9,9,N","009999,1,9,9","+0210,1","+0130,1","99999,9",,,,,"02,1,+01219,1,99,9",,,"9,AGL   ,+99999,+99999","99,99,9,02,1,99,9,01219,1,99,9,99,9",,,"10150,1,99999,9",,,,,,"MET057METAR FACT 021600Z 18016KT 9999 FEW040 21/13 Q1015 NOSIG=",
"68816099999","2022-01-02T17:00:00","4","-33.964806","18.601667","46.02","CAPE TOWN INTERNATIONAL, SF","FM-15","99999","V020","190,1,N,0082,1","99999,9,9,N","009999,1,9,9","+0200,1","+0130,1","99999,9",,,,,"02,1,+01219,1,99,9",,,"9,AGL   ,+99999,+99999","99,99,9,02,1,99,9,01219,1,99,9,99,9",,,"10150,1,99999,9",,,,,,"MET057METAR FACT 021700Z 19016KT 9999 FEW040 20/13 Q1015 NOSIG=",
"68816099999","2022-01-02T18:00:00","4","-33.964806","18.601667","46.02","CAPE TOWN INTERNATIONAL, SF","FM-12","99999","V020","180,1,N,0088,1","22000,1,9,N","030000,1,9,9","+0183,1","+0131,1","10158,1",,,,,"04,1,+99999,9,06,1",,,"9,AGL   ,+99999,+99999","04,99,1,04,1,99,9,99999,9,99,9,99,9","120,M,+0240,1",,"99999,9,10103,1","7,1,006,1,+999,9",,,,"4,99,0103,1,999","SYN08068816 32980 41817 10183 20131 30103 40158 57006 84500 333 10240 91020 555 91015=",
"68816099999","2022-01-02T18:00:00","4","-33.964806","18.601667","46.02","CAPE TOWN INTERNATIONAL, SF","FM-15","99999","V020","180,1,N,0088,1","99999,9,9,N","009999,1,9,9","+0180,1","+0130,1","99999,9",,,,,"04,1,+01067,1,99,9",,,"9,AGL   ,+99999,+99999","99,99,9,04,1,99,9,01067,1,99,9,99,9",,,"10150,1,99999,9",,,,,,"MET057METAR FACT 021800Z 18017KT 9999 SCT035 18/13 Q1015 NOSIG=",
"68816099999","2022-01-02T19:00:00","4","-33.964806","18.601667","46.02","CAPE TOWN INTERNATIONAL, SF","FM-15","99999","V020","180,1,N,0077,1","99999,9,9,N","009999,1,9,9","+0180,1","+0130,1","99999,9",,,,,"02,1,+01067,1,99,9",,,"9,AGL   ,+99999,+99999","99,99,9,02,1,99,9,01067,1,99,9,99,9",,,"10160,1,99999,9",,,,,,"MET057METAR FACT 021900Z 18015KT 9999 FEW035 18/13 Q1016 NOSIG=",
"68816099999","2022-01-02T20:00:00","4","-33.964806","18.601667","46.02","CAPE TOWN INTERNATIONAL, SF","FM-15","99999","V020","180,1,N,0077,1","99999,9,9,Y","009900,5,9,9","+0180,1","+0130,1","99999,9",,,,,,,,,,,,"10160,1,99999,9",,,,,,"MET051METAR FACT 022000Z 18015KT CAVOK 18/13 Q1016 NOSIG=",
"68816099999","2022-01-02T21:00:00","4","-33.964806","18.601667","46.02","CAPE TOWN INTERNATIONAL, SF","FM-15","99999","V020","190,1,N,0082,1","99999,9,9,Y","009900,5,9,9","+0170,1","+0130,1","99999,9",,,,,,,,,,,,"10160,1,99999,9",,,,,,"MET051METAR FACT 022100Z 19016KT CAVOK 17/13 Q1016 NOSIG=",
"68816099999","2022-01-02T22:00:00","4","-33.964806","18.601667","46.02","CAPE TOWN INTERNATIONAL, SF","FM-15","99999","V020","190,1,N,0082,1","99999,9,9,Y","009900,5,9,9","+0170,1","+0130,1","99999,9",,,,,,,,,,,,"10150,1,99999,9",,,,,,"MET051METAR FACT 022200Z 19016KT CAVOK 17/13 Q1015 NOSIG=",
"68816099999","2022-01-02T23:00:00","4","-33.964806","18.601667","46.02","CAPE TOWN INTERNATIONAL, SF","FM-15","99999","V020","190,1,N,0077,1","99999,9,9,Y","009900,5,9,9","+0170,1","+0140,1","99999,9",,,,,,,,,,,,"10150,1,99999,9",,,,,,"MET051METAR FACT 022300Z 19015KT CAVOK 17/14 Q1015 NOSIG=",
"68816099999","2022-01-03T00:00:00","4","-33.964806","18.601667","46.02","CAPE TOWN INTERNATIONAL, SF","FM-15","99999","V020","190,1,N,0072,1","99999,9,9,Y","009900,5,9,9","+0170,1","+0140,1","99999,9",,,,,,,,,,,,"10140,1,99999,9",,,,,,"MET051METAR FACT 030000Z 19014KT CAVOK 17/14 Q1014 NOSIG=",
"68816099999","2022-01-03T01:00:00","4","-33.964806","18.601667","46.02","CAPE TOWN INTERNATIONAL, SF","FM-15","99999","V020","190,1,N,0062,1","99999,9,9,Y","009900,5,9,9","+0160,1","+0140,1","99999,9",,,,,,,,,,,,"10130,1,99999,9",,,,,,"MET051METAR FACT 030100Z 19012KT CAVOK 16/14 Q1013 NOSIG=",
"68816099999","2022-01-03T02:00:00","4","-33.964806","18.601667","46.02","CAPE TOWN INTERNATIONAL, SF","FM-15","99999","V020","180,1,N,0057,1","99999,9,9,Y","009900,5,9,9","+0160,1","+0140,1","99999,9",,,,,,,,,,,,"10130,1,99999,9",,,,,,"MET051METAR FACT 030200Z 18011KT CAVOK 16/14 Q1013 NOSIG=",
"68816099999","2022-01-03T03:00:00","4","-33.964806","18.601667","46.02","CAPE TOWN INTERNATIONAL, SF","FM-15","99999","V020","200,1,N,0046,1","99999,9,9,Y","009900,5,9,9","+0170,1","+0130,1","99999,9",,,,,,,,,,,,"10130,1,99999,9",,,,,,"MET051METAR FACT 030300Z 20009KT CAVOK 17/13 Q1013 NOSIG=",
"68816099999","2022-01-03T04:00:00","4","-33.964806","18.601667","46.02","CAPE TOWN INTERNATIONAL, SF","FM-15","99999","V020","210,1,N,0051,1","99999,9,9,N","009999,1,9,9","+0160,1","+0140,1","99999,9",,,,,"02,1,+00914,1,99,9",,,"9,AGL   ,+99999,+99999","99,99,9,02,1,99,9,00914,1,99,9,99,9",,,"10130,1,99999,9",,,,,,"MET057METAR FACT 030400Z 21010KT 9999 FEW030 16/14 Q1013 NOSIG=",
"68816099999","2022-01-03T04:54:00","4","-33.964806","18.601667","46.02","CAPE TOWN INTERNATIONAL, SF","FM-16","99999","V020","180,1,N,0046,1","99999,9,9,Y","009900,5,9,9","+0180,1","+0130,1","99999,9",,,,,,,,,,,,"10130,1,99999,9",,,,,,"MET051SPECI FACT 030454Z 18009KT CAVOK 18/13 Q1013 NOSIG=",
"68816099999","2022-01-03T05:00:00","4","-33.964806","18.601667","46.02","CAPE TOWN INTERNATIONAL, SF","FM-15","99999","V020","180,1,N,0046,1","99999,9,9,Y","009900,5,9,9","+0180,1","+0130,1","99999,9",,,,,,,,,,,,"10130,1,99999,9",,,,,,"MET051METAR FACT 030500Z 18009KT CAVOK 18/13 Q1013 NOSIG=",
"68816099999","2022-01-03T06:00:00","4","-33.964806","18.601667","46.02","CAPE TOWN INTERNATIONAL, SF","FM-15","99999","V020","200,1,N,0051,1","99999,9,9,Y","009900,5,9,9","+0190,1","+0130,1","99999,9",,,,,,,,,,,,"10130,1,99999,9",,,,,,"MET051METAR FACT 030600Z 20010KT CAVOK 19/13 Q1013 NOSIG=",
"68816099999","2022-01-03T07:00:00","4","-33.964806","18.601667","46.02","CAPE TOWN INTERNATIONAL, SF","FM-15","99999","V020","180,1,N,0062,1","99999,9,9,Y","009900,5,9,9","+0200,1","+0130,1","99999,9",,,,,,,,,,,,"10130,1,99999,9",,,,,,"MET051METAR FACT 030700Z 18012KT CAVOK 20/13 Q1013 NOSIG=",
"68816099999","2022-01-03T08:00:00","4","-33.964806","18.601667","46.02","CAPE TOWN INTERNATIONAL, SF","FM-15","99999","V020","200,1,N,0062,1","99999,9,9,Y","009900,5,9,9","+0210,1","+0140,1","99999,9",,,,,,,,,,,,"10130,1,99999,9",,,,,,"MET051METAR FACT 030800Z 20012KT CAVOK 21/14 Q1013 NOSIG=",
"68816099999","2022-01-03T09:00:00","4","-33.964806","18.601667","46.02","CAPE TOWN INTERNATIONAL, SF","FM-15","99999","V020","190,1,N,0062,1","99999,9,9,Y","009900,5,9,9","+0220,1","+0130,1","99999,9",,,,,,,,,,,,"10130,1,99999,9",,,,,,"MET051METAR FACT 030900Z 19012KT CAVOK 22/13 Q1013 NOSIG=",
"68816099999","2022-01-03T10:00:00","4","-33.964806","18.601667","46.02","CAPE TOWN INTERNATIONAL, SF","FM-15","99999","V020","180,1,N,0098,1","99999,9,9,Y","009900,5,9,9","+0220,1","+0130,1","99999,9",,,,,,,,,,,,"10130,1,99999,9",,,,,,"MET051METAR FACT 031000Z 18019KT CAVOK 22/13 Q1013 NOSIG=",
"68816099999","2022-01-03T11:00:00","4","-33.964806","18.601667","46.02","CAPE TOWN INTERNATIONAL, SF","FM-15","99999","V020","190,1,N,0118,1","99999,9,9,Y","009900,5,9,9","+0220,1","+0140,1","99999,9",,,,,,,,,,,,"10130,1,99999,9",,,,,,"MET051METAR FACT 031100Z 19023KT CAVOK 22/14 Q1013 NOSIG=",
"68816099999","2022-01-03T12:00:00","4","-33.964806","18.601667","46.02","CAPE TOWN INTERNATIONAL, SF","FM-12","99999","V020","190,1,N,0113,1","99999,9,9,N","020000,1,9,9","+0225,1","+0123,1","10130,1",,,,,"99,9,+99999,9,02,1",,,"9,AGL   ,+99999,+99999","06,99,1,00,1,99,9,99999,9,99,9,99,9","240,N,+0192,1",,"99999,9,10076,1","7,1,006,1,+999,9",,,,"4,99,0144,1,999","SYN08668816 32970 61922 10225 20123 30076 40130 57006 80008 333 10219 20192 91028 555 91013=","Q0121.9  2EATMX Q02    003SCCGA1"
"68816099999","2022-01-03T12:00:00","4","-33.964806","18.601667","46.02","CAPE TOWN INTERNATIONAL, SF","FM-15","99999","V020","180,1,N,0118,1","99999,9,9,Y","009900,5,9,9","+0220,1","+0120,1","99999,9",,,,,,,,,,,,"10130,1,99999,9",,,,,,"MET051METAR FACT 031200Z 18023KT CAVOK 22/12 Q1013 NOSIG=",
"68816099999","2022-01-03T13:00:00","4","-33.964806","18.601667","46.02","CAPE TOWN INTERNATIONAL, SF","FM-15","99999","V020","180,1,N,0129,1","99999,9,9,Y","009900,5,9,9","+0220,1","+0120,1","99999,9",,,,,,,,,,,,"10120,1,99999,9",,,,,,"MET051METAR FACT 031300Z 18025KT CAVOK 22/12 Q1012 NOSIG=",
"68816099999","2022-01-03T14:00:00","4","-33.964806","18.601667","46.02","CAPE TOWN INTERNATIONAL, SF","FM-15","99999","V020","180,1,N,0113,1","99999,9,9,Y","009900,5,9,9","+0220,1","+0120,1","99999,9",,,,,,,,,,,,"10120,1,99999,9",,,,,,"MET051METAR FACT 031400Z 18022KT CAVOK 22/12 Q1012 NOSIG=",
"68816099999","2022-01-03T15:00:00","4","-33.964806","18.601667","46.02","CAPE TOWN INTERNATIONAL, SF","FM-15","99999","V020","190,1,N,0124,1","99999,9,9,Y","009900,5,9,9","+0210,1","+0120,1","99999,9",,,,,,,,,,,,"10120,1,99999,9",,,,,,"MET051METAR FACT 031500Z 19024KT CAVOK 21/12 Q1012 NOSIG=",
"68816099999","2022-01-03T16:00:00","4","-33.964806","18.601667","46.02","CAPE TOWN INTERNATIONAL, SF","FM-15","99999","V020","190,1,N,0118,1","99999,9,9,Y","009900,5,9,9","+0200,1","+0120,1","99999,9",,,,,,,,,,,,"10120,1,99999,9",,,,,,"MET051METAR FACT 031600Z 19023KT CAVOK 20/12 Q1012 NOSIG=",
"68816099999","2022-01-03T17:00:00","4","-33.964806","18.601667","46.02","CAPE TOWN INTERNATIONAL, SF","FM-15","99999","V020","190,1,N,0108,1","99999,9,9,Y","009900,5,9,9","+0200,1","+0120,1","99999,9",,,,,,,,,,,,"10120,1,99999,9",,,,,,"MET051METAR FACT 031700Z 19021KT CAVOK 20/12 Q1012 NOSIG=",
"68816099999","2022-01-03T18:00:00","4","-33.964806","18.601667","46.02","CAPE TOWN INTERNATIONAL, SF","FM-12","99999","V020","190,1,N,0098,1","22000,1,9,N","020000,1,9,9","+0186,1","+0128,1","10127,1",,,,,"99,9,+99999,9,02,1",,,"9,AGL   ,+99999,+99999","04,99,1,00,1,99,9,99999,9,99,9,99,9","120,M,+0229,1","120,N,+0186,1","99999,9,10073,1","2,1,002,1,+999,9",,,,"4,99,0129,1,999","SYN08668816 32970 41919 10186 20128 30073 40127 52002 80008 333 10229 20186 91025 555 91012=","Q01    003SCCGA1"
"68816099999","2022-01-03T18:00:00","4","-33.964806","18.601667","46.02","CAPE TOWN INTERNATIONAL, SF","FM-15","99999","V020","190,1,N,0093,1","99999,9,9,Y","009900,5,9,9","+0190,1","+0130,1","99999,9",,,,,,,,,,,,"10120,1,99999,9",,,,,,"MET051METAR FACT 031800Z 19018KT CAVOK 19/13 Q1012 NOSIG=",
"68816099999","2022-01-03T19:00:00","4","-33.964806","18.601667","46.02","CAPE TOWN INTERNATIONAL, SF","FM-15","99999","V020","190,1,N,0088,1","99999,9,9,Y","009900,5,9,9","+0180,1","+0130,1","99999,9",,,,,,,,,,,,"10130,1,99999,9",,,,,,"MET051METAR FACT 031900Z 19017KT CAVOK 18/13 Q1013 NOSIG=",
"68816099999","2022-01-03T20:00:00","4","-33.964806","18.601667","46.02","CAPE TOWN INTERNATIONAL, SF","FM-15","99999","V020","200,1,N,0082,1","99999,9,9,Y","009900,5,9,9","+0180,1","+0130,1","99999,9",,,,,,,,,,,,"10130,1,99999,9",,,,,,"MET051METAR FACT 032000Z 20016KT CAVOK 18/13 Q1013 NOSIG=",
"68816099999","2022-01-03T21:00:00","4","-33.964806","18.601667","46.02","CAPE TOWN INTERNATIONAL, SF","FM-15","99999","V020","190,1,N,0077,1","99999,9,9,Y","009900,5,9,9","+0180,1","+0140,1","99999,9",,,,,,,,,,,,"10130,1,99999,9",,,,,,"MET051METAR FACT 032100Z 19015KT CAVOK 18/14 Q1013 NOSIG=",
"68816099999","2022-01-03T22:00:00","4","-33.964806","18.601667","46.02","CAPE TOWN INTERNATIONAL, SF","FM-15","99999","V020","180,1,N,0072,1","99999,9,9,Y","009900,5,9,9","+0170,1","+0130,1","99999,9",,,,,,,,,,,,"10130,1,99999,9",,,,,,"MET051METAR FACT 032200Z 18014KT CAVOK 17/13 Q1013 NOSIG=",
"68816099999","2022-01-03T23:00:00","4","-33.964806","18.601667","46.02","CAPE TOWN INTERNATIONAL, SF","FM-15","99999","V020","190,1,N,0062,1","99999,9,9,Y","009900,5,9,9","+0170,1","+0140,1","99999,9",,,,,,,,,,,,"10130,1,99999,9",,,,,,"MET051METAR FACT 032300Z 19012KT CAVOK 17/14 Q1013 NOSIG=",
"68816099999","2022-01-04T00:00:00","4","-33.964806","18.601667","46.02","CAPE TOWN INTERNATIONAL, SF","FM-12","99999","V020","200,1,N,0046,1","99999,9,9,N","020000,1,9,9","+0167,1","+0140,1","10127,1",,,,,,,,,,"120,M,+0229,1","120,N,+0167,1","99999,9,10072,1","7,1,005,1,+999,9",,,,"4,99,0062,1,999","SYN08068816 32970 02009 10167 20140 30072 40127 57005 333 10229 20167 91012 555 91012=",
"68816099999","2022-01-04T00:00:00","4","-33.964806","18.601667","46.02","CAPE TOWN INTERNATIONAL, SF","FM-15","99999","V020","200,1,N,0057,1","99999,9,9,Y","009900,5,9,9","+0170,1","+0140,1","99999,9",,,,,,,,,,,,"10120,1,99999,9",,,,,,"MET051METAR FACT 040000Z 20011KT CAVOK 17/14 Q1012 NOSIG=",
"68816099999","2022-01-04T01:00:00","4","-33.964806","18.601667","46.02","CAPE TOWN INTERNATIONAL, SF","FM-15","99999","V020","210,1,N,0041,1","99999,9,9,Y","009900,5,9,9","+0160,1","+0140,1","99999,9",,,,,,,,,,,,"10120,1,99999,9",,,,,,"MET051METAR FACT 040100Z 21008KT CAVOK 16/14 Q1012 NOSIG=",
"68816099999","2022-01-04T02:00:00","4","-33.964806","18.601667","46.02","CAPE TOWN INTERNATIONAL, SF","FM-15","99999","V020","230,1,N,0036,1","99999,9,9,Y","009900,5,9,9","+0160,1","+0140,1","99999,9",,,,,,,,,,,,"10120,1,99999,9",,,,,,"MET051METAR FACT 040200Z 23007KT CAVOK 16/14 Q1012 NOSIG=",
"68816099999","2022-01-04T03:00:00","4","-33.964806","18.601667","46.02","CAPE TOWN INTERNATIONAL, SF","FM-15","99999","V020","230,1,N,0036,1","99999,9,9,Y","009900,5,9,9","+0160,1","+0140,1","99999,9",,,,,,,,,,,,"10120,1,99999,9",,,,,,"MET051METAR FACT 040300Z 23007KT CAVOK 16/14 Q1012 NOSIG=",
"68816099999","2022-01-04T04:00:00","4","-33.964806","18.601667","46.02","CAPE TOWN INTERNATIONAL, SF","FM-15","99999","V020","240,1,N,0041,1","99999,9,9,Y","009900,5,9,9","+0160,1","+0140,1","99999,9",,,,,,,,,,,,"10120,1,99999,9",,,,,,"MET051METAR FACT 040400Z 24008KT CAVOK 16/14 Q1012 NOSIG=",
"68816099999","2022-01-04T05:00:00","4","-33.964806","18.601667","46.02","CAPE TOWN INTERNATIONAL, SF","FM-15","99999","V020","220,1,N,0026,1","99999,9,9,Y","009900,5,9,9","+0170,1","+0140,1","99999,9",,,,,,,,,,,,"10120,1,99999,9",,,,,,"MET051METAR FACT 040500Z 22005KT CAVOK 17/14 Q1012 NOSIG=",
"68816099999","2022-01-04T05:56:00","4","-33.964806","18.601667","46.02","CAPE TOWN INTERNATIONAL, SF","FM-16","99999","V020","240,1,V,0021,1","99999,9,9,Y","009900,5,9,9","+0190,1","+0140,1","99999,9",,,,,,,,,,,,"10120,1,99999,9",,,,,,"MET059SPECI FACT 040556Z 24004KT 200V270 CAVOK 19/14 Q1012 NOSIG=",
"68816099999","2022-01-04T06:00:00","4","-33.964806","18.601667","46.02","CAPE TOWN INTERNATIONAL, SF","FM-12","99999","V020","240,1,N,0021,1","22000,1,9,N","030000,1,9,9","+0187,1","+0137,1","10129,1",,,,,"99,9,+99999,9,00,1",,,"9,AGL   ,+99999,+99999","03,99,1,00,1,99,9,99999,9,99,9,99,9","240,N,+0157,1",,"99999,9,10074,1","2,1,006,1,+999,9",,,,"4,99,0031,1,999","SYN08668816 32980 32404 10187 20137 30074 40129 52006 80001 333 20157 91006 555 10229 91012=","Q01    003SCCGA1"
"68816099999","2022-01-04T06:00:00","4","-33.964806","18.601667","46.02","CAPE TOWN INTERNATIONAL, SF","FM-15","99999","V020","240,1,V,0021,1","99999,9,9,Y","009900,5,9,9","+0190,1","+0140,1","99999,9",,,,,,,,,,,,"10120,1,99999,9",,,,,,"MET059METAR FACT 040600Z 24004KT 200V270 CAVOK 19/14 Q1012 NOSIG=",
"68816099999","2022-01-04T07:00:00","4","-33.964806","18.601667","46.02","CAPE TOWN INTERNATIONAL, SF","FM-15","99999","V020","240,1,V,0031,1","99999,9,9,Y","009900,5,9,9","+0200,1","+0130,1","99999,9",,,,,,,,,,,,"10120,1,99999,9",,,,,,"MET059METAR FACT 040700Z 24006KT 210V280 CAVOK 20/13 Q1012 NOSIG=",
"68816099999","2022-01-04T08:00:00","4","-33.964806","18.601667","46.02","CAPE TOWN INTERNATIONAL, SF","FM-15","99999","V020","999,9,V,0026,1","99999,9,9,Y","009900,5,9,9","+0210,1","+0130,1","99999,9",,,,,,,,,,,,"10120,1,99999,9",,,,,,"MET051METAR FACT 040800Z VRB05KT CAVOK 21/13 Q1012 NOSIG=",
"68816099999","2022-01-04T08:25:00","4","-33.964806","18.601667","46.02","CAPE TOWN INTERNATIONAL, SF","FM-16","99999","V020","999,9,V,0026,1","99999,9,9,Y","009900,5,9,9","+0230,1","+0130,1","99999,9",,,,,,,,,,,,"10120,1,99999,9",,,,,,"MET051SPECI FACT 040825Z VRB05KT CAVOK 23/13 Q1012 NOSIG=",
"68816099999","2022-01-04T09:00:00","4","-33.964806","18.601667","46.02","CAPE TOWN INTERNATIONAL, SF","FM-15","99999","V020","300,1,V,0031,1","99999,9,9,Y","009900,5,9,9","+0230,1","+0130,1","99999,9",,,,,,,,,,,,"10120,1,99999,9",,,,,,"MET059METAR FACT 040900Z 30006KT 240V040 CAVOK 23/13 Q1012 NOSIG=",
"68816099999","2022-01-04T10:00:00","4","-33.964806","18.601667","46.02","CAPE TOWN INTERNATIONAL, SF","FM-15","99999","V020","290,1,V,0046,1","99999,9,9,Y","009900,5,9,9","+0240,1","+0110,1","99999,9",,,,,,,,,,,,"10120,1,99999,9",,,,,,"MET059METAR FACT 041000Z 29009KT 270V330 CAVOK 24/11 Q1012 NOSIG=",
"68816099999","2022-01-04T11:00:00","4","-33.964806","18.601667","46.02","CAPE TOWN INTERNATIONAL, SF","FM-15","99999","V020","300,1,V,0041,1","99999,9,9,Y","009900,5,9,9","+0250,1","+0100,1","99999,9",,,,,,,,,,,,"10110,1,99999,9",,,,,,"MET059METAR FACT 041100Z 30008KT 240V330 CAVOK 25/10 Q1011 NOSIG=",
"68816099999","2022-01-04T12:00:00","4","-33.964806","18.601667","46.02","CAPE TOWN INTERNATIONAL, SF","FM-12","99999","V020","220,1,N,0031,1","22000,1,9,N","030000,1,9,9","+0261,1","+0136,1","10114,1",,,,,"99,9,+99999,9,00,1",,,"9,AGL   ,+99999,+99999","02,99,1,00,1,99,9,99999,9,99,9,99,9","240,N,+0187,1",,"99999,9,10061,1","8,1,008,1,+999,9",,,,"4,99,0062,1,999","SYN08068816 32980 22206 10261 20136 30061 40114 58008 80004 333 20187 91012 555 91011=","Q01    003SCCGA1"
"68816099999","2022-01-04T12:00:00","4","-33.964806","18.601667","46.02","CAPE TOWN INTERNATIONAL, SF","FM-15","99999","V020","210,1,V,0026,1","99999,9,9,Y","009900,5,9,9","+0250,1","+0130,1","99999,9",,,,,,,,,,,,"10110,1,99999,9",,,,,,"MET059METAR FACT 041200Z 21005KT 170V250 CAVOK 25/13 Q1011 NOSIG=",
"68816099999","2022-01-04T13:00:00","4","-33.964806","18.601667","46.02","CAPE TOWN INTERNATIONAL, SF","FM-15","99999","V020","180,1,V,0067,1","99999,9,9,Y","009900,5,9,9","+0240,1","+0140,1","99999,9",,,,,,,,,,,,"10110,1,99999,9",,,,,,"MET059METAR FACT 041300Z 18013KT 140V210 CAVOK 24/14 Q1011 NOSIG=",
"68816099999","2022-01-04T14:00:00","4","-33.964806","18.601667","46.02","CAPE TOWN INTERNATIONAL, SF","FM-15","99999","V020","170,1,N,0067,1","99999,9,9,N","009999,1,9,9","+0240,1","+0140,1","99999,9",,,,,"02,1,+01067,1,99,9",,,"9,AGL   ,+99999,+99999","99,99,9,02,1,99,9,01067,1,99,9,99,9",,,"10110,1,99999,9",,,,,,"MET057METAR FACT 041400Z 17013KT 9999 FEW035 24/14 Q1011 NOSIG=",
"68816099999","2022-01-04T15:00:00","4","-33.964806","18.601667","46.02","CAPE TOWN INTERNATIONAL, SF","FM-15","99999","V020","180,1,V,0057,1","99999,9,9,N","009999,1,9,9","+0250,1","+0130,1","99999,9",,,,,"02,1,+01036,1,99,9",,,"9,AGL   ,+99999,+99999","99,99,9,02,1,99,9,01036,1,99,9,99,9",,,"10110,1,99999,9",,,,,,"MET065METAR FACT 041500Z 18011KT 140V220 9999 FEW034 25/13 Q1011 NOSIG=",
"68816099999","2022-01-04T16:00:00","4","-33.964806","18.601667","46.02","CAPE TOWN INTERNATIONAL, SF","FM-15","99999","V020","200,1,N,0046,1","99999,9,9,N","009999,1,9,9","+0230,1","+0120,1","99999,9",,,,,"02,1,+01158,1,99,9",,,"9,AGL   ,+99999,+99999","99,99,9,02,1,99,9,01158,1,99,9,99,9",,,"10110,1,99999,9",,,,,,"MET057METAR FACT 041600Z 20009KT 9999 FEW038 23/12 Q1011 NOSIG=",
"68816099999","2022-01-04T17:00:00","4","-33.964806","18.601667","46.02","CAPE TOWN INTERNATIONAL, SF","FM-15","99999","V020","220,1,V,0067,1","99999,9,9,N","009999,1,9,9","+0210,1","+0120,1","99999,9",,,,,"02,1,+01128,1,99,9",,,"9,AGL   ,+99999,+99999","99,99,9,02,1,99,9,01128,1,99,9,99,9",,,"10130,1,99999,9",,,,,,"MET065METAR FACT 041700Z 22013KT 200V260 9999 FEW037 21/12 Q1013 NOSIG=",
"68816099999","2022-01-04T18:00:00","4","-33.964806","18.601667","46.02","CAPE TOWN INTERNATIONAL, SF","FM-12","99999","V020","190,1,N,0046,1","22000,1,9,N","030000,1,9,9","+0197,1","+0122,1","10138,1",,,,,"01,1,+01250,1,06,1",,,"9,AGL   ,+99999,+99999","01,99,1,01,1,99,9,01250,1,99,9,99,9","120,M,+0265,1",,"99999,9,10084,1","3,1,024,1,+999,9",,,,"4,99,0072,1,999","SYN08068816 32680 11909 10197 20122 30084 40138 53024 81500 333 10265 91014 555 91013=",
"68816099999","2022-01-04T18:00:00","4","-33.964806","18.601667","46.02","CAPE TOWN INTERNATIONAL, SF","FM-15","99999","V020","200,1,N,0046,1","99999,9,9,N","009999,1,9,9","+0200,1","+0120,1","99999,9",,,,,"02,1,+01219,1,99,9",,,"9,AGL   ,+99999,+99999","99,99,9,02,1,99,9,01219,1,99,9,99,9",,,"10140,1,99999,9",,,,,,"MET057METAR FACT 041800Z 20009KT 9999 FEW040 20/12 Q1014 NOSIG=",
"68816099999","2022-01-04T19:00:00","4","-33.964806","18.601667","46.02","CAPE TOWN INTERNATIONAL, SF","FM-15","99999","V020","190,1,N,0041,1","99999,9,9,N","009999,1,9,9","+0190,1","+0120,1","99999,9",,,,,"02,1,+01219,1,99,9",,,"9,AGL   ,+99999,+99999","99,99,9,02,1,99,9,01219,1,99,9,99,9",,,"10140,1,99999,9",,,,,,"MET057METAR FACT 041900Z 19008KT 9999 FEW040 19/12 Q1014 NOSIG=",
"68816099999","2022-01-04T20:00:00","4","-33.964806","18.601667","46.02","CAPE TOWN INTERNATIONAL, SF","FM-15","99999","V020","999,9,V,0015,1","99999,9,9,N","009999,1,9,9","+0170,1","+0120,1","99999,9",,,,,"02,1,+01219,1,99,9",,,"9,AGL   ,+99999,+99999","99,99,9,02,1,99,9,01219,1,99,9,99,9",,,"10150,1,99999,9",,,,,,"MET057METAR FACT 042000Z VRB03KT 9999 FEW040 17/12 Q1015 NOSIG=",
"68816099999","2022-01-04T21:00:00","4","-33.964806","18.601667","46.02","CAPE TOWN INTERNATIONAL, SF","FM-15","99999","V020","150,1,N,0015,1","99999,9,9,N","009999,1,9,9","+0170,1","+0130,1","99999,9",,,,,"02,1,+01219,1,99,9",,,"9,AGL   ,+99999,+99999","99,99,9,02,1,99,9,01219,1,99,9,99,9",,,"10150,1,99999,9",,,,,,"MET057METAR FACT 042100Z 15003KT 9999 FEW040 17/13 Q1015 NOSIG=",
"68816099999","2022-01-04T22:00:00","4","-33.964806","18.601667","46.02","CAPE TOWN INTERNATIONAL, SF","FM-15","99999","V020","999,9,V,0010,1","99999,9,9,N","009999,1,9,9","+0170,1","+0120,1","99999,9",,,,,"02,1,+01219,1,99,9",,,"9,AGL   ,+99999,+99999","99,99,9,02,1,99,9,01219,1,99,9,99,9",,,"10160,1,99999,9",,,,,,"MET057METAR FACT 042200Z VRB02KT 9999 FEW040 17/12 Q1016 NOSIG=",
"68816099999","2022-01-04T23:00:00","4","-33.964806","18.601667","46.02","CAPE TOWN INTERNATIONAL, SF","FM-15","99999","V020","010,1,N,0026,1","99999,9,9,N","009999,1,9,9","+0160,1","+0130,1","99999,9",,,,,"02,1,+01219,1,99,9",,,"9,AGL   ,+99999,+99999","99,99,9,02,1,99,9,01219,1,99,9,99,9",,,"10160,1,99999,9",,,,,,"MET057METAR FACT 042300Z 01005KT 9999 FEW040 16/13 Q1016 NOSIG=",
"68816099999","2022-01-05T00:00:00","4","-33.964806","18.601667","46.02","CAPE TOWN INTERNATIONAL, SF","FM-12","99999","V020","050,1,N,0026,1","22000,1,9,N","020000,1,9,9","+0155,1","+0126,1","10157,1",,,,,"01,1,+01250,1,06,1",,,"9,AGL   ,+99999,+99999","01,99,1,01,1,99,9,01250,1,99,9,99,9","120,M,+0265,1",,"99999,9,10101,1","7,1,003,1,+999,9",,,,"4,99,0031,1,999","SYN08068816 32670 10505 10155 20126 30101 40157 57003 81500 333 10265 91006 555 91015=",
"68816099999","2022-01-05T00:00:00","4","-33.964806","18.601667","46.02","CAPE TOWN INTERNATIONAL, SF","FM-15","99999","V020","050,1,N,0026,1","99999,9,9,N","009999,1,9,9","+0160,1","+0130,1","99999,9",,,,,"02,1,+01219,1,99,9",,,"9,AGL   ,+99999,+99999","99,99,9,02,1,99,9,01219,1,99,9,99,9",,,"10150,1,99999,9",,,,,,"MET057METAR FACT 050000Z 05005KT 9999 FEW040 16/13 Q1015 NOSIG=",
"68816099999","2022-01-05T01:00:00","4","-33.964806","18.601667","46.02","CAPE TOWN INTERNATIONAL, SF","FM-15","99999","V020","030,1,N,0021,1","99999,9,9,N","009999,1,9,9","+0160,1","+0130,1","99999,9",,,,,"02,1,+01219,1,99,9",,,"9,AGL   ,+99999,+99999","99,99,9,02,1,99,9,01219,1,99,9,99,9",,,"10150,1,99999,9",,,,,,"MET057METAR FACT 050100Z 03004KT 9999 FEW040 16/13 Q1015 NOSIG=",
"68816099999","2022-01-05T02:00:00","4","-33.964806","18.601667","46.02","CAPE TOWN INTERNATIONAL, SF","FM-15","99999","V020","040,1,N,0026,1","01372,1,C,N","009999,1,9,9","+0160,1","+0130,1","99999,9",,,,,"02,1,+01067,1,99,9","04,1,+01372,1,99,9",,"9,AGL   ,+99999,+99999","99,99,9,02,1,99,9,01067,1,99,9,99,9",,,"10150,1,99999,9",,,,,,"MET064METAR FACT 050200Z 04005KT 9999 FEW035 SCT045 16/13 Q1015 NOSIG=",
"68816099999","2022-01-05T03:00:00","4","-33.964806","18.601667","46.02","CAPE TOWN INTERNATIONAL, SF","FM-15","99999","V020","030,1,N,0026,1","01372,1,C,N","009999,1,9,9","+0160,1","+0130,1","99999,9",,,,,"02,1,+00914,1,99,9","04,1,+01372,1,99,9",,"9,AGL   ,+99999,+99999","99,99,9,02,1,99,9,00914,1,99,9,99,9",,,"10150,1,99999,9",,,,,,"MET064METAR FACT 050300Z 03005KT 9999 FEW030 SCT045 16/13 Q1015 NOSIG=",
"68816099999","2022-01-05T04:00:00","4","-33.964806","18.601667","46.02","CAPE TOWN INTERNATIONAL, SF","FM-15","99999","V020","060,1,N,0021,1","01372,1,C,N","009999,1,9,9","+0160,1","+0130,1","99999,9",,,,,"02,1,+00914,1,99,9","04,1,+01372,1,99,9",,"9,AGL   ,+99999,+99999","99,99,9,02,1,99,9,00914,1,99,9,99,9",,,"10160,1,99999,9",,,,,,"MET064METAR FACT 050400Z 06004KT 9999 FEW030 SCT045 16/13 Q1016 NOSIG=",
"68816099999","2022-01-05T05:00:00","4","-33.964806","18.601667","46.02","CAPE TOWN INTERNATIONAL, SF","FM-15","99999","V020","050,1,N,0015,1","99999,9,9,N","009999,1,9,9","+0170,1","+0140,1","99999,9",,,,,"04,1,+01219,1,99,9",,,"9,AGL   ,+99999,+99999","99,99,9,04,1,99,9,01219,1,99,9,99,9",,,"10160,1,99999,9",,,,,,"MET057METAR FACT 050500Z 05003KT 9999 SCT040 17/14 Q1016 NOSIG=",
"68816099999","2022-01-05T05:28:00","4","-33.964806","18.601667","46.02","CAPE TOWN INTERNATIONAL, SF","FM-16","99999","V020","999,9,V,0010,1","99999,9,9,N","009999,1,9,9","+0190,1","+0140,1","99999,9",,,,,"02,1,+01219,1,99,9",,,"9,AGL   ,+99999,+99999","99,99,9,02,1,99,9,01219,1,99,9,99,9",,,"10160,1,99999,9",,,,,,"MET057SPECI FACT 050528Z VRB02KT 9999 FEW040 19/14 Q1016 NOSIG=",
"68816099999","2022-01-05T06:00:00","4","-33.964806","18.601667","46.02","CAPE TOWN INTERNATIONAL, SF","FM-12","99999","V020","330,1,N,0015,1","22000,1,9,N","020000,1,9,9","+0204,1","+0139,1","10165,1",,,,,"04,1,+01250,1,06,1",,,"9,AGL   ,+99999,+99999","04,99,1,04,1,99,9,01250,1,99,9,99,9","240,N,+0145,1",,"99999,9,10111,1","1,1,004,1,+999,9",,,,"4,99,0026,1,999","SYN08668816 32670 43303 10204 20139 30111 40165 51004 84500 333 20145 91005 555 10265 91016=",
"68816099999","2022-01-05T06:00:00","4","-33.964806","18.601667","46.02","CAPE TOWN INTERNATIONAL, SF","FM-15","99999","V020","360,1,V,0021,1","99999,9,9,N","009999,1,9,9","+0200,1","+0140,1","99999,9",,,,,"04,1,+01219,1,99,9",,,"9,AGL   ,+99999,+99999","99,99,9,04,1,99,9,01219,1,99,9,99,9",,,"10160,1,99999,9",,,,,,"MET065METAR FACT 050600Z 36004KT 330V040 9999 SCT040 20/14 Q1016 NOSIG=",
"68816099999","2022-01-05T07:00:00","4","-33.964806","18.601667","46.02","CAPE TOWN INTERNATIONAL, SF","FM-15","99999","V020","330,1,V,0026,1","99999,9,9,N","009999,1,9,9","+0210,1","+0130,1","99999,9",,,,,"02,1,+01219,1,99,9",,,"9,AGL   ,+99999,+99999","99,99,9,02,1,99,9,01219,1,99,9,99,9",,,"10160,1,99999,9",,,,,,"MET065METAR FACT 050700Z 33005KT 280V080 9999 FEW040 21/13 Q1016 NOSIG=",
"68816099999","2022-01-05T07:25:00","4","-33.964806","18.601667","46.02","CAPE TOWN INTERNATIONAL, SF","FM-16","99999","V020","999,9,V,0021,1","99999,9,9,N","009999,1,9,9","+0230,1","+0140,1","99999,9",,,,,"02,1,+01219,1,99,9",,,"9,AGL   ,+99999,+99999","99,99,9,02,1,99,9,01219,1,99,9,99,9",,,"10160,1,99999,9",,,,,,"MET057SPECI FACT 050725Z VRB04KT 9999 FEW040 23/14 Q1016 NOSIG=",
"68816099999","2022-01-05T08:00:00","4","-33.964806","18.601667","46.02","CAPE TOWN INTERNATIONAL, SF","FM-15","99999","V020","999,9,V,0015,1","99999,9,9,N","009999,1,9,9","+0220,1","+0140,1","99999,9",,,,,"04,1,+00914,1,99,9",,,"9,AGL   ,+99999,+99999","99,99,9,04,1,99,9,00914,1,99,9,99,9",,,"10160,1,99999,9",,,,,,"MET057METAR FACT 050800Z VRB03KT 9999 SCT030 22/14 Q1016 NOSIG=",
"68816099999","2022-01-05T08:29:00","4","-33.964806","18.601667","46.02","CAPE TOWN INTERNATIONAL, SF","FM-16","99999","V020","200,1,V,0031,1","99999,9,9,N","009999,1,9,9","+0240,1","+0140,1","99999,9",,,,,"04,1,+01067,1,99,9",,,"9,AGL   ,+99999,+99999","99,99,9,04,1,99,9,01067,1,99,9,99,9",,,"10160,1,99999,9",,,,,,"MET065SPECI FACT 050829Z 20006KT 160V300 9999 SCT035 24/14 Q1016 NOSIG=",
"68816099999","2022-01-05T09:00:00","4","-33.964806","18.601667","46.02","CAPE TOWN INTERNATIONAL, SF","FM-15","99999","V020","210,1,V,0031,1","99999,9,9,N","009999,1,9,9","+0240,1","+0140,1","99999,9",,,,,"02,1,+00914,1,99,9",,,"9,AGL   ,+99999,+99999","99,99,9,02,1,99,9,00914,1,99,9,99,9",,,"10160,1,99999,9",,,,,,"MET065METAR FACT 050900Z 21006KT 080V250 9999 FEW030 24/14 Q1016 NOSIG=",
"68816099999","2022-01-05T10:00:00","4","-33.964806","18.601667","46.02","CAPE TOWN INTERNATIONAL, SF","FM-15","99999","V020","190,1,V,0046,1","99999,9,9,N","009999,1,9,9","+0250,1","+0140,1","99999,9",,,,,"02,1,+01067,1,99,9",,,"9,AGL   ,+99999,+99999","99,99,9,02,1,99,9,01067,1,99,9,99,9",,,"10160,1,99999,9",,,,,,"MET065METAR FACT 051000Z 19009KT 140V230 9999 FEW035 25/14 Q1016 NOSIG=",
"68816099999","2022-01-05T11:00:00","4","-33.964806","18.601667","46.02","CAPE TOWN INTERNATIONAL, SF","FM-15","99999","V020","190,1,N,0082,1","99999,9,9,N","009999,1,9,9","+0240,1","+0160,1","99999,9",,,,,"02,1,+00914,1,99,9",,,"9,AGL   ,+99999,+99999","99,99,9,02,1,99,9,00914,1,99,9,99,9",,,"10160,1,99999,9",,,,,,"MET057METAR FACT 051100Z 19016KT 9999 FEW030 24/16 Q1016 NOSIG=",
"68816099999","2022-01-05T12:00:00","4","-33.964806","18.601667","46.02","CAPE TOWN INTERNATIONAL, SF","FM-12","99999","V020","180,1,N,0098,1","22000,1,9,N","030000,1,9,9","+0226,1","+0153,1","10163,1",,,,,"02,1,+00450,1,06,1",,,"9,AGL   ,+99999,+99999","02,99,1,02,1,99,9,00450,1,99,9,99,9","240,N,+0201,1",,"99999,9,10109,1","4,1,000,1,+999,9",,,,"4,99,0124,1,999","SYN08068816 32480 21819 10226 20153 30109 40163 54000 82500 333 20201 91024 555 91016=",
"68816099999","2022-01-05T12:00:00","4","-33.964806","18.601667","46.02","CAPE TOWN INTERNATIONAL, SF","FM-15","99999","V020","180,1,N,0098,1","99999,9,9,N","009999,1,9,9","+0220,1","+0150,1","99999,9",,,,,"02,1,+00518,1,99,9",,,"9,AGL   ,+99999,+99999","99,99,9,02,1,99,9,00518,1,99,9,99,9",,,"10160,1,99999,9",,,,,,"MET057METAR FACT 051200Z 18019KT 9999 FEW017 22/15 Q1016 NOSIG=",
"68816099999","2022-01-05T13:00:00","4","-33.964806","18.601667","46.02","CAPE TOWN INTERNATIONAL, SF","FM-15","99999","V020","180,1,N,0118,1","99999,9,9,N","009999,1,9,9","+0220,1","+0140,1","99999,9",,,,,"02,1,+00762,1,99,9",,,"9,AGL   ,+99999,+99999","99,99,9,02,1,99,9,00762,1,99,9,99,9",,,"10160,1,99999,9",,,,,,"MET057METAR FACT 051300Z 18023KT 9999 FEW025 22/14 Q1016 NOSIG=",
"68816099999","2022-01-05T14:00:00","4","-33.964806","18.601667","46.02","CAPE TOWN INTERNATIONAL, SF","FM-15","99999","V020","180,1,N,0113,1","99999,9,9,N","009999,1,9,9","+0230,1","+0130,1","99999,9",,,,,"02,1,+00914,1,99,9",,,"9,AGL   ,+99999,+99999","99,99,9,02,1,99,9,00914,1,99,9,99,9",,,"10150,1,99999,9",,,,,,"MET057METAR FACT 051400Z 18022KT 9999 FEW030 23/13 Q1015 NOSIG=",
"68816099999","2022-01-05T15:00:00","4","-33.964806","18.601667","46.02","CAPE TOWN INTERNATIONAL, SF","FM-15","99999","V020","190,1,N,0113,1","99999,9,9,Y","009900,5,9,9","+0220,1","+0140,1","99999,9",,,,,,,,,,,,"10150,1,99999,9",,,,,,"MET051METAR FACT 051500Z 19022KT CAVOK 22/14 Q1015 NOSIG=",
"68816099999","2022-01-05T16:00:00","4","-33.964806","18.601667","46.02","CAPE TOWN INTERNATIONAL, SF","FM-15","99999","V020","180,1,N,0103,1","99999,9,9,Y","009900,5,9,9","+0210,1","+0130,1","99999,9",,,,,,,,,,,,"10150,1,99999,9",,,,,,"MET051METAR FACT 051600Z 18020KT CAVOK 21/13 Q1015 NOSIG=",
"68816099999","2022-01-05T17:00:00","4","-33.964806","18.601667","46.02","CAPE TOWN INTERNATIONAL, SF","FM-15","99999","V020","180,1,N,0082,1","99999,9,9,Y","009900,5,9,9","+0210,1","+0130,1","99999,9",,,,,,,,,,,,"10150,1,99999,9",,,,,,"MET051METAR FACT 051700Z 18016KT CAVOK 21/13 Q1015 NOSIG=",
"68816099999","2022-01-05T18:00:00","4","-33.964806","18.601667","46.02","CAPE TOWN INTERNATIONAL, SF","FM-12","99999","V020","190,1,N,0082,1","22000,1,9,N","030000,1,9,9","+0207,1","+0135,1","10148,1",,,,,"99,9,+99999,9,00,1",,,"9,AGL   ,+99999,+99999","02,99,1,00,1,99,9,99999,9,99,9,99,9","120,M,+0259,1",,"99999,9,10094,1","7,1,002,1,+999,9",,,,"4,99,0103,1,999","SYN08068816 32980 21916 10207 20135 30094 40148 57002 80004 333 10259 91020 555 91014=","Q01    003SCCGA1"
"68816099999","2022-01-05T18:00:00","4","-33.964806","18.601667","46.02","CAPE TOWN INTERNATIONAL, SF","FM-15","99999","V020","190,1,N,0077,1","99999,9,9,Y","009900,5,9,9","+0200,1","+0130,1","99999,9",,,,,,,,,,,,"10150,1,99999,9",,,,,,"MET051METAR FACT 051800Z 19015KT CAVOK 20/13 Q1015 NOSIG=",
"68816099999","2022-01-05T19:00:00","4","-33.964806","18.601667","46.02","CAPE TOWN INTERNATIONAL, SF","FM-15","99999","V020","170,1,N,0072,1","99999,9,9,Y","009900,5,9,9","+0210,1","+0130,1","99999,9",,,,,,,,,,,,"10150,1,99999,9",,,,,,"MET051METAR FACT 051900Z 17014KT CAVOK 21/13 Q1015 NOSIG=",
"68816099999","2022-01-05T20:00:00","4","-33.964806","18.601667","46.02","CAPE TOWN INTERNATIONAL, SF","FM-15","99999","V020","160,1,N,0062,1","99999,9,9,Y","009900,5,9,9","+0200,1","+0130,1","99999,9",,,,,,,,,,,,"10150,1,99999,9",,,,,,"MET051METAR FACT 052000Z 16012KT CAVOK 20/13 Q1015 NOSIG=",
"68816099999","2022-01-05T21:00:00","4","-33.964806","18.601667","46.02","CAPE TOWN INTERNATIONAL, SF","FM-15","99999","V020","180,1,N,0072,1","99999,9,9,Y","009900,5,9,9","+0190,1","+0130,1","99999,9",,,,,,,,,,,,"10140,1,99999,9",,,,,,"MET051METAR FACT 052100Z 18014KT CAVOK 19/13 Q1014 NOSIG=",
"68816099999","2022-01-05T22:00:00","4","-33.964806","18.601667","46.02","CAPE TOWN INTERNATIONAL, SF","FM-15","99999","V020","180,1,N,0036,1","99999,9,9,Y","009900,5,9,9","+0190,1","+0130,1","99999,9",,,,,,,,,,,,"10140,1,99999,9",,,,,,"MET051METAR FACT 052200Z 18007KT CAVOK 19/13 Q1014 NOSIG=",
"68816099999","2022-01-05T23:00:00","4","-33.964806","18.601667","46.02","CAPE TOWN INTERNATIONAL, SF","FM-15","99999","V020","180,1,N,0057,1","99999,9,9,Y","009900,5,9,9","+0180,1","+0130,1","99999,9",,,,,,,,,,,,"10130,1,99999,9",,,,,,"MET051METAR FACT 052300Z 18011KT CAVOK 18/13 Q1013 NOSIG=",
"68816099999","2022-01-06T00:00:00","4","-33.964806","18.601667","46.02","CAPE TOWN INTERNATIONAL, SF","FM-12","99999","V020","200,1,N,0031,1","22000,1,9,N","030000,1,9,9","+0192,1","+0136,1","10129,1",,,,,"99,9,+99999,9,00,1",,,"9,AGL   ,+99999,+99999","01,99,1,00,1,99,9,99999,9,99,9,99,9","120,M,+0259,1","120,N,+0189,1","99999,9,10075,1","7,1,012,1,+999,9",,,,"4,99,0046,1,999","SYN08668816 32980 12006 10192 20136 30075 40129 57012 80001 333 10259 20189 91009 555 91012=","Q01    003SCCGA1"
"68816099999","2022-01-06T00:00:00","4","-33.964806","18.601667","46.02","CAPE TOWN INTERNATIONAL, SF","FM-15","99999","V020","210,1,N,0041,1","99999,9,9,Y","009900,5,9,9","+0190,1","+0140,1","99999,9",,,,,,,,,,,,"10130,1,99999,9",,,,,,"MET051METAR FACT 060000Z 21008KT CAVOK 19/14 Q1013 NOSIG=",
"68816099999","2022-01-06T01:00:00","4","-33.964806","18.601667","46.02","CAPE TOWN INTERNATIONAL, SF","FM-15","99999","V020","240,1,N,0041,1","99999,9,9,Y","009900,5,9,9","+0180,1","+0140,1","99999,9",,,,,,,,,,,,"10120,1,99999,9",,,,,,"MET051METAR FACT 060100Z 24008KT CAVOK 18/14 Q1012 NOSIG=",
"68816099999","2022-01-06T02:00:00","4","-33.964806","18.601667","46.02","CAPE TOWN INTERNATIONAL, SF","FM-15","99999","V020","210,1,V,0021,1","99999,9,9,Y","009900,5,9,9","+0180,1","+0140,1","99999,9",,,,,,,,,,,,"10120,1,99999,9",,,,,,"MET059METAR FACT 060200Z 21004KT 180V240 CAVOK 18/14 Q1012 NOSIG=",
"68816099999","2022-01-06T03:00:00","4","-33.964806","18.601667","46.02","CAPE TOWN INTERNATIONAL, SF","FM-15","99999","V020","270,1,N,0036,1","99999,9,9,Y","009900,5,9,9","+0180,1","+0130,1","99999,9",,,,,,,,,,,,"10120,1,99999,9",,,,,,"MET051METAR FACT 060300Z 27007KT CAVOK 18/13 Q1012 NOSIG=",
"68816099999","2022-01-06T04:00:00","4","-33.964806","18.601667","46.02","CAPE TOWN INTERNATIONAL, SF","FM-15","99999","V020","320,1,N,0026,1","99999,9,9,Y","009900,5,9,9","+0160,1","+0130,1","99999,9",,,,,,,,,,,,"10130,1,99999,9",,,,,,"MET051METAR FACT 060400Z 32005KT CAVOK 16/13 Q1013 NOSIG=",
"68816099999","2022-01-06T04:28:00","4","-33.964806","18.601667","46.02","CAPE TOWN INTERNATIONAL, SF","FM-16","99999","V020","999,9,V,0015,1","99999,9,9,Y","009900,5,9,9","+0180,1","+0130,1","99999,9",,,,,,,,,,,,"10130,1,99999,9",,,,,,"MET051SPECI FACT 060428Z VRB03KT CAVOK 18/13 Q1013 NOSIG=",
"68816099999","2022-01-06T05:00:00","4","-33.964806","18.601667","46.02","CAPE TOWN INTERNATIONAL, SF","FM-15","99999","V020","999,9,V,0010,1","99999,9,9,Y","009900,5,9,9","+0190,1","+0130,1","99999,9",,,,,,,,,,,,"10130,1,99999,9",,,,,,"MET051METAR FACT 060500Z VRB02KT CAVOK 19/13 Q1013 NOSIG=",
"68816099999","2022-01-06T05:54:00","4","-33.964806","18.601667","46.02","CAPE TOWN INTERNATIONAL, SF","FM-16","99999","V020","999,9,V,0015,1","99999,9,9,Y","009900,5,9,9","+0210,1","+0140,1","99999,9",,,,,,,,,,,,"10130,1,99999,9",,,,,,"MET051SPECI FACT 060554Z VRB03KT CAVOK 21/14 Q1013 NOSIG=",
"68816099999","2022-01-06T06:00:00","4","-33.964806","18.601667","46.02","CAPE TOWN INTERNATIONAL, SF","FM-12","99999","V020","260,1,N,0015,1","22000,1,9,N","030000,1,9,9","+0206,1","+0145,1","10137,1",,"0,1,02,1","0,1,02,1",,"99,9,+99999,9,00,1",,,"9,AGL   ,+99999,+99999","03,99,1,00,1,99,9,99999,9,99,9,99,9","240,N,+0160,1",,"99999,9,10083,1","4,1,000,1,+999,9","00,1",,,"4,99,0021,1,999","SYN09268816 32980 32603 10206 20145 30083 40137 54000 70000 80002 333 20160 91004 555 10259 91013=","Q01    003SCCGA1"
"68816099999","2022-01-06T06:00:00","4","-33.964806","18.601667","46.02","CAPE TOWN INTERNATIONAL, SF","FM-15","99999","V020","999,9,V,0015,1","99999,9,9,Y","009900,5,9,9","+0210,1","+0140,1","99999,9",,,,,,,,,,,,"10130,1,99999,9",,,,,,"MET051METAR FACT 060600Z VRB03KT CAVOK 21/14 Q1013 NOSIG=",
"68816099999","2022-01-06T06:25:00","4","-33.964806","18.601667","46.02","CAPE TOWN INTERNATIONAL, SF","FM-16","99999","V020","230,1,V,0021,1","99999,9,9,Y","009900,5,9,9","+0230,1","+0150,1","99999,9",,,,,,,,,,,,"10130,1,99999,9",,,,,,"MET059SPECI FACT 060625Z 23004KT 160V290 CAVOK 23/15 Q1013 NOSIG=",
"68816099999","2022-01-06T07:00:00","4","-33.964806","18.601667","46.02","CAPE TOWN INTERNATIONAL, SF","FM-15","99999","V020","220,1,V,0021,1","99999,9,9,Y","009900,5,9,9","+0220,1","+0150,1","99999,9",,,,,,,,,,,,"10140,1,99999,9",,,,,,"MET059METAR FACT 060700Z 22004KT 190V260 CAVOK 22/15 Q1014 NOSIG=",
"68816099999","2022-01-06T08:00:00","4","-33.964806","18.601667","46.02","CAPE TOWN INTERNATIONAL, SF","FM-15","99999","V020","190,1,V,0036,1","99999,9,9,Y","009900,5,9,9","+0240,1","+0140,1","99999,9",,,,,,,,,,,,"10140,1,99999,9",,,,,,"MET059METAR FACT 060800Z 19007KT 160V260 CAVOK 24/14 Q1014 NOSIG=",
"68816099999","2022-01-06T09:00:00","4","-33.964806","18.601667","46.02","CAPE TOWN INTERNATIONAL, SF","FM-15","99999","V020","230,1,V,0036,1","99999,9,9,Y","009900,5,9,9","+0250,1","+0140,1","99999,9",,,,,,,,,,,,"10140,1,99999,9",,,,,,"MET059METAR FACT 060900Z 23007KT 200V290 CAVOK 25/14 Q1014 NOSIG=",
"68816099999","2022-01-06T10:00:00","4","-33.964806","18.601667","46.02","CAPE TOWN INTERNATIONAL, SF","FM-15","99999","V020","200,1,V,0046,1","99999,9,9,Y","009900,5,9,9","+0270,1","+0140,1","99999,9",,,,,,,,,,,,"10140,1,99999,9",,,,,,"MET059METAR FACT 061000Z 20009KT 150V240 CAVOK 27/14 Q1014 NOSIG=",
"68816099999","2022-01-06T11:00:00","4","-33.964806","18.601667","46.02","CAPE TOWN INTERNATIONAL, SF","FM-15","99999","V020","180,1,V,0067,1","99999,9,9,Y","009900,5,9,9","+0270,1","+0140,1","99999,9",,,,,,,,,,,,"10140,1,99999,9",,,,,,"MET059METAR FACT 061100Z 18013KT 150V210 CAVOK 27/14 Q1014 NOSIG=",
"68816099999","2022-01-06T12:00:00","4","-33.964806","18.601667","46.02","CAPE TOWN INTERNATIONAL, SF","FM-12","99999","V020","200,1,N,0072,1","22000,1,9,N","030000,1,9,9","+0266,1","+0145,1","10137,1",,,,,"99,9,+99999,9,00,1",,,"9,AGL   ,+99999,+99999","02,99,1,00,1,99,9,99999,9,99,9,99,9","240,M,+0277,1","240,N,+0208,1","99999,9,10084,1","7,1,006,1,+999,9",,,,"4,99,0077,1,999","SYN08668816 32980 22014 10266 20145 30084 40137 57006 80001 333 10277 20208 91015 555 91013=","Q01    003SCCGA1"
"68816099999","2022-01-06T12:00:00","4","-33.964806","18.601667","46.02","CAPE TOWN INTERNATIONAL, SF","FM-15","99999","V020","200,1,N,0072,1","99999,9,9,Y","009900,5,9,9","+0270,1","+0140,1","99999,9",,,,,,,,,,,,"10130,1,99999,9",,,,,,"MET051METAR FACT 061200Z 20014KT CAVOK 27/14 Q1013 NOSIG=",
"68816099999","2022-01-06T13:00:00","4","-33.964806","18.601667","46.02","CAPE TOWN INTERNATIONAL, SF","FM-15","99999","V020","190,1,N,0082,1","99999,9,9,Y","009900,5,9,9","+0270,1","+0150,1","99999,9",,,,,,,,,,,,"10130,1,99999,9",,,,,,"MET051METAR FACT 061300Z 19016KT CAVOK 27/15 Q1013 NOSIG=",
"68816099999","2022-01-06T14:00:00","4","-33.964806","18.601667","46.02","CAPE TOWN INTERNATIONAL, SF","FM-15","99999","V020","190,1,N,0098,1","99999,9,9,Y","009900,5,9,9","+0250,1","+0160,1","99999,9",,,,,,,,,,,,"10130,1,99999,9",,,,,,"MET051METAR FACT 061400Z 19019KT CAVOK 25/16 Q1013 NOSIG=",
"68816099999","2022-01-06T15:00:00","4","-33.964806","18.601667","46.02","CAPE TOWN INTERNATIONAL, SF","FM-15","99999","V020","180,1,N,0088,1","99999,9,9,N","009999,1,9,9","+0250,1","+0160,1","99999,9",,,,,"02,1,+01067,1,99,9",,,"9,AGL   ,+99999,+99999","99,99,9,02,1,99,9,01067,1,99,9,99,9",,,"10120,1,99999,9",,,,,,"MET061METAR COR FACT 061500Z 18017KT 9999 FEW035 25/16 Q1012 NOSIG=",
"68816099999","2022-01-06T16:00:00","4","-33.964806","18.601667","46.02","CAPE TOWN INTERNATIONAL, SF","FM-15","99999","V020","180,1,N,0088,1","99999,9,9,N","009999,1,9,9","+0250,1","+0150,1","99999,9",,,,,"02,1,+01067,1,99,9",,,"9,AGL   ,+99999,+99999","99,99,9,02,1,99,9,01067,1,99,9,99,9",,,"10120,1,99999,9",,,,,,"MET057METAR FACT 061600Z 18017KT 9999 FEW035 25/15 Q1012 NOSIG=",
"68816099999","2022-01-06T17:00:00","4","-33.964806","18.601667","46.02","CAPE TOWN INTERNATIONAL, SF","FM-15","99999","V020","180,1,N,0093,1","99999,9,9,N","009999,1,9,9","+0250,1","+0150,1","99999,9",,,,,"02,1,+01067,1,99,9",,,"9,AGL   ,+99999,+99999","99,99,9,02,1,99,9,01067,1,99,9,99,9",,,"10120,1,99999,9",,,,,,"MET057METAR FACT 061700Z 18018KT 9999 FEW035 25/15 Q1012 NOSIG=",
"68816099999","2022-01-06T18:00:00","4","-33.964806","18.601667","46.02","CAPE TOWN INTERNATIONAL, SF","FM-15","99999","V020","150,1,N,0088,1","99999,9,9,Y","009900,5,9,9","+0230,1","+0150,1","99999,9",,,,,,,,,,,,"10130,1,99999,9",,,,,,"MET051METAR FACT 061800Z 15017KT CAVOK 23/15 Q1013 NOSIG=",
"68816099999","2022-01-06T19:00:00","4","-33.964806","18.601667","46.02","CAPE TOWN INTERNATIONAL, SF","FM-15","99999","V020","150,1,N,0067,1","99999,9,9,Y","009900,5,9,9","+0220,1","+0150,1","99999,9",,,,,,,,,,,,"10130,1,99999,9",,,,,,"MET051METAR FACT 061900Z 15013KT CAVOK 22/15 Q1013 NOSIG=",
"68816099999","2022-01-06T20:00:00","4","-33.964806","18.601667","46.02","CAPE TOWN INTERNATIONAL, SF","FM-15","99999","V020","150,1,N,0062,1","99999,9,9,Y","009900,5,9,9","+0210,1","+0140,1","99999,9",,,,,,,,,,,,"10140,1,99999,9",,,,,,"MET051METAR FACT 062000Z 15012KT CAVOK 21/14 Q1014 NOSIG=",
"68816099999","2022-01-06T21:00:00","4","-33.964806","18.601667","46.02","CAPE TOWN INTERNATIONAL, SF","FM-15","99999","V020","140,1,N,0051,1","99999,9,9,Y","009900,5,9,9","+0210,1","+0140,1","99999,9",,,,,,,,,,,,"10140,1,99999,9",,,,,,"MET051METAR FACT 062100Z 14010KT CAVOK 21/14 Q1014 NOSIG=",
"68816099999","2022-01-06T22:00:00","4","-33.964806","18.601667","46.02","CAPE TOWN INTERNATIONAL, SF","FM-15","99999","V020","140,1,N,0036,1","99999,9,9,Y","009900,5,9,9","+0200,1","+0140,1","99999,9",,,,,,,,,,,,"10130,1,99999,9",,,,,,"MET051METAR FACT 062200Z 14007KT CAVOK 20/14 Q1013 NOSIG=",
"68816099999","2022-01-06T23:00:00","4","-33.964806","18.601667","46.02","CAPE TOWN INTERNATIONAL, SF","FM-15","99999","V020","140,1,N,0036,1","99999,9,9,Y","009900,5,9,9","+0190,1","+0140,1","99999,9",,,,,,,,,,,,"10130,1,99999,9",,,,,,"MET051METAR FACT 062300Z 14007KT CAVOK 19/14 Q1013 NOSIG=",
"68816099999","2022-01-07T00:00:00","4","-33.964806","18.601667","46.02","CAPE TOWN INTERNATIONAL, SF","FM-12","99999","V020","170,1,N,0031,1","22000,1,9,N","055000,1,9,9","+0189,1","+0138,1","10130,1",,,,,,,,"9,AGL   ,+99999,+99999","01,99,1,99,9,99,9,99999,9,99,9,99,9","120,M,+0227,1","120,N,+0189,1","99999,9,10076,1","2,1,060,1,+999,9",,,,"4,99,0036,1,999","SYN08068816 32985 11706 10189 20138 30076 40130 52060 333 10227 20189 91007 555 91013=",
"68816099999","2022-01-07T00:00:00","4","-33.964806","18.601667","46.02","CAPE TOWN INTERNATIONAL, SF","FM-15","99999","V020","170,1,N,0031,1","99999,9,9,Y","009900,5,9,9","+0190,1","+0140,1","99999,9",,,,,,,,,,,,"10130,1,99999,9",,,,,,"MET051METAR FACT 070000Z 17006KT CAVOK 19/14 Q1013 NOSIG=",
"68816099999","2022-01-07T01:00:00","4","-33.964806","18.601667","46.02","CAPE TOWN INTERNATIONAL, SF","FM-15","99999","V020","180,1,N,0015,1","99999,9,9,Y","009900,5,9,9","+0190,1","+0140,1","99999,9",,,,,,,,,,,,"10120,1,99999,9",,,,,,"MET051METAR FACT 070100Z 18003KT CAVOK 19/14 Q1012 NOSIG=",
"68816099999","2022-01-07T02:00:00","4","-33.964806","18.601667","46.02","CAPE TOWN INTERNATIONAL, SF","FM-15","99999","V020","240,1,N,0021,1","99999,9,9,Y","009900,5,9,9","+0190,1","+0140,1","99999,9",,,,,,,,,,,,"10120,1,99999,9",,,,,,"MET051METAR FACT 070200Z 24004KT CAVOK 19/14 Q1012 NOSIG=",
"68816099999","2022-01-07T03:00:00","4","-33.964806","18.601667","46.02","CAPE TOWN INTERNATIONAL, SF","FM-15","99999","V020","999,9,V,0010,1","99999,9,9,Y","009900,5,9,9","+0170,1","+0130,1","99999,9",,,,,,,,,,,,"10130,1,99999,9",,,,,,"MET051METAR FACT 070300Z VRB02KT CAVOK 17/13 Q1013 NOSIG=",
"68816099999","2022-01-07T04:00:00","4","-33.964806","18.601667","46.02","CAPE TOWN INTERNATIONAL, SF","FM-15","99999","V020","999,9,V,0005,1","99999,9,9,Y","009900,5,9,9","+0150,1","+0130,1","99999,9",,,,,,,,,,,,"10130,1,99999,9",,,,,,"MET051METAR FACT 070400Z VRB01KT CAVOK 15/13 Q1013 NOSIG=",
"68816099999","2022-01-07T04:30:00","4","-33.964806","18.601667","46.02","CAPE TOWN INTERNATIONAL, SF","FM-16","99999","V020","999,9,V,0005,1","99999,9,9,Y","009900,5,9,9","+0180,1","+0140,1","99999,9",,,,,,,,,,,,"10130,1,99999,9",,,,,,"MET051SPECI FACT 070430Z VRB01KT CAVOK 18/14 Q1013 NOSIG=",
"68816099999","2022-01-07T05:00:00","4","-33.964806","18.601667","46.02","CAPE TOWN INTERNATIONAL, SF","FM-15","99999","V020","190,1,N,0031,1","99999,9,9,Y","009900,5,9,9","+0210,1","+0140,1","99999,9",,,,,,,,,,,,"10130,1,99999,9",,,,,,"MET051METAR FACT 070500Z 19006KT CAVOK 21/14 Q1013 NOSIG=",
"68816099999","2022-01-07T05:01:00","4","-33.964806","18.601667","46.02","CAPE TOWN INTERNATIONAL, SF","FM-16","99999","V020","190,1,N,0031,1","99999,9,9,Y","009900,5,9,9","+0210,1","+0140,1","99999,9",,,,,,,,,,,,"10130,1,99999,9",,,,,,"MET051SPECI FACT 070501Z 19006KT CAVOK 21/14 Q1013 NOSIG=",
"68816099999","2022-01-07T06:00:00","4","-33.964806","18.601667","46.02","CAPE TOWN INTERNATIONAL, SF","FM-12","99999","V020","120,1,N,0010,1","99999,9,9,N","030000,1,9,9","+0234,1","+0146,1","10138,1",,,,,,,,,,"240,N,+0151,1",,"99999,9,10084,1","1,1,009,1,+999,9",,,,"4,99,0031,1,999","SYN08068816 32980 01202 10234 20146 30084 40138 51009 333 20151 91006 555 10277 91013=",
"68816099999","2022-01-07T06:00:00","4","-33.964806","18.601667","46.02","CAPE TOWN INTERNATIONAL, SF","FM-15","99999","V020","110,1,V,0021,1","99999,9,9,Y","009900,5,9,9","+0230,1","+0150,1","99999,9",,,,,,,,,,,,"10140,1,99999,9",,,,,,"MET059METAR FACT 070600Z 11004KT 080V160 CAVOK 23/15 Q1014 NOSIG=",
"68816099999","2022-01-07T06:28:00","4","-33.964806","18.601667","46.02","CAPE TOWN INTERNATIONAL, SF","FM-16","99999","V020","150,1,V,0026,1","99999,9,9,Y","009900,5,9,9","+0250,1","+0150,1","99999,9",,,,,,,,,,,,"10140,1,99999,9",,,,,,"MET059SPECI FACT 070628Z 15005KT 050V180 CAVOK 25/15 Q1014 NOSIG=",
"68816099999","2022-01-07T07:00:00","4","-33.964806","18.601667","46.02","CAPE TOWN INTERNATIONAL, SF","FM-15","99999","V020","999,9,V,0010,1","99999,9,9,Y","009900,5,9,9","+0260,1","+0150,1","99999,9",,,,,,,,,,,,"10130,1,99999,9",,,,,,"MET051METAR FACT 070700Z VRB02KT CAVOK 26/15 Q1013 NOSIG=",
"68816099999","2022-01-07T08:00:00","4","-33.964806","18.601667","46.02","CAPE TOWN INTERNATIONAL, SF","FM-15","99999","V020","160,1,V,0046,1","99999,9,9,Y","009900,5,9,9","+0280,1","+0160,1","99999,9",,,,,,,,,,,,"10130,1,99999,9",,,,,,"MET059METAR FACT 070800Z 16009KT 130V190 CAVOK 28/16 Q1013 NOSIG=",
"68816099999","2022-01-07T09:00:00","4","-33.964806","18.601667","46.02","CAPE TOWN INTERNATIONAL, SF","FM-15","99999","V020","180,1,V,0031,1","99999,9,9,Y","009900,5,9,9","+0290,1","+0160,1","99999,9",,,,,,,,,,,,"10130,1,99999,9",,,,,,"MET059METAR FACT 070900Z 18006KT 130V240 CAVOK 29/16 Q1013 NOSIG=",
"68816099999","2022-01-07T10:00:00","4","-33.964806","18.601667","46.02","CAPE TOWN INTERNATIONAL, SF","FM-15","99999","V020","150,1,V,0046,1","99999,9,9,Y","009900,5,9,9","+0300,1","+0160,1","99999,9",,,,,,,,,,,,"10130,1,99999,9",,,,,,"MET059METAR FACT 071000Z 15009KT 110V190 CAVOK 30/16 Q1013 NOSIG=",
"68816099999","2022-01-07T11:00:00","4","-33.964806","18.601667","46.02","CAPE TOWN INTERNATIONAL, SF","FM-15","99999","V020","180,1,V,0057,1","99999,9,9,Y","009900,5,9,9","+0310,1","+0160,1","99999,9",,,,,,,,,,,,"10120,1,99999,9",,,,,,"MET059METAR FACT 071100Z 18011KT 140V220 CAVOK 31/16 Q1012 NOSIG=",
"68816099999","2022-01-07T12:00:00","4","-33.964806","18.601667","46.02","CAPE TOWN INTERNATIONAL, SF","FM-12","99999","V020","190,1,N,0077,1","99999,9,9,N","030000,1,9,9","+0317,1","+0174,1","10124,1",,,,,,,,,,"240,N,+0234,1",,"99999,9,10069,1","2,1,011,1,+999,9",,,,"4,99,0103,1,999","SYN07468816 32980 01915 10317 20174 30069 40124 52011 333 20234 91020 555 91012=",
"68816099999","2022-01-07T12:00:00","4","-33.964806","18.601667","46.02","CAPE TOWN INTERNATIONAL, SF","FM-15","99999","V020","190,1,N,0072,1","99999,9,9,Y","009900,5,9,9","+0320,1","+0170,1","99999,9",,,,,,,,,,,,"10120,1,99999,9",,,,,,"MET051METAR FACT 071200Z 19014KT CAVOK 32/17 Q1012 NOSIG=",
"68816099999","2022-01-07T13:00:00","4","-33.964806","18.601667","46.02","CAPE TOWN INTERNATIONAL, SF","FM-15","99999","V020","140,1,V,0072,1","99999,9,9,Y","009900,5,9,9","+0310,1","+0180,1","99999,9",,,,,,,,,,,,"10120,1,99999,9",,,,,,"MET059METAR FACT 071300Z 14014KT 110V180 CAVOK 31/18 Q1012 NOSIG=",
"68816099999","2022-01-07T14:00:00","4","-33.964806","18.601667","46.02","CAPE TOWN INTERNATIONAL, SF","FM-15","99999","V020","150,1,N,0077,1","99999,9,9,Y","009900,5,9,9","+0320,1","+0180,1","99999,9",,,,,,,,,,,,"10110,1,99999,9",,,,,,"MET051METAR FACT 071400Z 15015KT CAVOK 32/18 Q1011 NOSIG=",
"68816099999","2022-01-07T15:00:00","4","-33.964806","18.601667","46.02","CAPE TOWN INTERNATIONAL, SF","FM-15","99999","V020","150,1,N,0077,1","99999,9,9,Y","009900,5,9,9","+0310,1","+0180,1","99999,9",,,,,,,,,,,,"10110,1,99999,9",,,,,,"MET051METAR FACT 071500Z 15015KT CAVOK 31/18 Q1011 NOSIG=",
"68816099999","2022-01-07T16:00:00","4","-33.964806","18.601667","46.02","CAPE TOWN INTERNATIONAL, SF","FM-15","99999","V020","160,1,N,0077,1","99999,9,9,Y","009900,5,9,9","+0300,1","+0180,1","99999,9",,,,,,,,,,,,"10110,1,99999,9",,,,,,"MET051METAR FACT 071600Z 16015KT CAVOK 30/18 Q1011 NOSIG=",
"68816099999","2022-01-07T17:00:00","4","-33.964806","18.601667","46.02","CAPE TOWN INTERNATIONAL, SF","FM-15","99999","V020","150,1,N,0072,1","99999,9,9,Y","009900,5,9,9","+0280,1","+0180,1","99999,9",,,,,,,,,,,,"10110,1,99999,9",,,,,,"MET051METAR FACT 071700Z 15014KT CAVOK 28/18 Q1011 NOSIG=",
"68816099999","2022-01-07T18:00:00","4","-33.964806","18.601667","46.02","CAPE TOWN INTERNATIONAL, SF","FM-12","99999","V020","160,1,N,0067,1","99999,9,9,N","030000,1,9,9","+0258,1","+0176,1","10116,1",,,,,,,,,,"120,M,+0325,1",,"99999,9,10061,1","2,1,006,1,+999,9",,,,"4,99,0077,1,999","SYN07468816 32980 01613 10258 20176 30061 40116 52006 333 10325 91015 555 91011=",
"68816099999","2022-01-07T18:00:00","4","-33.964806","18.601667","46.02","CAPE TOWN INTERNATIONAL, SF","FM-15","99999","V020","160,1,N,0067,1","99999,9,9,Y","009900,5,9,9","+0260,1","+0180,1","99999,9",,,,,,,,,,,,"10110,1,99999,9",,,,,,"MET051METAR FACT 071800Z 16013KT CAVOK 26/18 Q1011 NOSIG=",
"68816099999","2022-01-07T19:00:00","4","-33.964806","18.601667","46.02","CAPE TOWN INTERNATIONAL, SF","FM-15","99999","V020","140,1,N,0067,1","99999,9,9,Y","009900,5,9,9","+0240,1","+0170,1","99999,9",,,,,,,,,,,,"10120,1,99999,9",,,,,,"MET051METAR FACT 071900Z 14013KT CAVOK 24/17 Q1012 NOSIG=",
"68816099999","2022-01-07T20:00:00","4","-33.964806","18.601667","46.02","CAPE TOWN INTERNATIONAL, SF","FM-15","99999","V020","140,1,N,0041,1","99999,9,9,Y","009900,5,9,9","+0230,1","+0170,1","99999,9",,,,,,,,,,,,"10120,1,99999,9",,,,,,"MET051METAR FACT 072000Z 14008KT CAVOK 23/17 Q1012 NOSIG=",
"68816099999","2022-01-07T21:00:00","4","-33.964806","18.601667","46.02","CAPE TOWN INTERNATIONAL, SF","FM-15","99999","V020","140,1,N,0026,1","99999,9,9,Y","009900,5,9,9","+0230,1","+0170,1","99999,9",,,,,,,,,,,,"10120,1,99999,9",,,,,,"MET051METAR FACT 072100Z 14005KT CAVOK 23/17 Q1012 NOSIG=",
"68816099999","2022-01-07T22:00:00","4","-33.964806","18.601667","46.02","CAPE TOWN INTERNATIONAL, SF","FM-15","99999","V020","220,1,N,0031,1","99999,9,9,Y","009900,5,9,9","+0230,1","+0170,1","99999,9",,,,,,,,,,,,"10120,1,99999,9",,,,,,"MET051METAR FACT 072200Z 22006KT CAVOK 23/17 Q1012 NOSIG=",
"68816099999","2022-01-07T23:00:00","4","-33.964806","18.601667","46.02","CAPE TOWN INTERNATIONAL, SF","FM-15","99999","V020","190,1,N,0026,1","99999,9,9,Y","009900,5,9,9","+0220,1","+0170,1","99999,9",,,,,,,,,,,,"10120,1,99999,9",,,,,,"MET051METAR FACT 072300Z 19005KT CAVOK 22/17 Q1012 NOSIG=",
"68816099999","2022-01-08T00:00:00","4","-33.964806","18.601667","46.02","CAPE TOWN INTERNATIONAL, SF","FM-12","99999","V020","210,1,N,0036,1","99999,9,9,N","030000,1,9,9","+0221,1","+0170,1","10113,1",,,,,,,,,,,,"99999,9,10059,1","8,1,011,1,+999,9",,,,"4,99,0062,1,999","SYN06868816 32980 02107 10221 20170 30059 40113 58011 333 91012 555 91011=",
"68816099999","2022-01-08T00:00:00","4","-33.964806","18.601667","46.02","CAPE TOWN INTERNATIONAL, SF","FM-15","99999","V020","210,1,N,0036,1","99999,9,9,Y","009900,5,9,9","+0220,1","+0170,1","99999,9",,,,,,,,,,,,"10110,1,99999,9",,,,,,"MET051METAR FACT 080000Z 21007KT CAVOK 22/17 Q1011 NOSIG=",
"68816099999","2022-01-08T01:00:00","4","-33.964806","18.601667","46.02","CAPE TOWN INTERNATIONAL, SF","FM-15","99999","V020","180,1,N,0067,1","99999,9,9,Y","009900,5,9,9","+0220,1","+0170,1","99999,9",,,,,,,,,,,,"10100,1,99999,9",,,,,,"MET051METAR FACT 080100Z 18013KT CAVOK 22/17 Q1010 NOSIG=",
"68816099999","2022-01-08T02:00:00","4","-33.964806","18.601667","46.02","CAPE TOWN INTERNATIONAL, SF","FM-15","99999","V020","210,1,N,0031,1","99999,9,9,Y","009900,5,9,9","+0220,1","+0170,1","99999,9",,,,,,,,,,,,"10100,1,99999,9",,,,,,"MET051METAR FACT 080200Z 21006KT CAVOK 22/17 Q1010 NOSIG=",
"68816099999","2022-01-08T03:00:00","4","-33.964806","18.601667","46.02","CAPE TOWN INTERNATIONAL, SF","FM-15","99999","V020","210,1,N,0041,1","99999,9,9,Y","009900,5,9,9","+0220,1","+0170,1","99999,9",,,,,,,,,,,,"10100,1,99999,9",,,,,,"MET051METAR FACT 080300Z 21008KT CAVOK 22/17 Q1010 NOSIG=",
"68816099999","2022-01-08T04:00:00","4","-33.964806","18.601667","46.02","CAPE TOWN INTERNATIONAL, SF","FM-15","99999","V020","230,1,N,0051,1","99999,9,9,Y","009900,5,9,9","+0210,1","+0170,1","99999,9",,,,,,,,,,,,"10100,1,99999,9",,,,,,"MET051METAR FACT 080400Z 23010KT CAVOK 21/17 Q1010 NOSIG=",
"68816099999","2022-01-08T04:55:00","4","-33.964806","18.601667","46.02","CAPE TOWN INTERNATIONAL, SF","FM-16","99999","V020","210,1,N,0041,1","99999,9,9,Y","009900,5,9,9","+0230,1","+0170,1","99999,9",,,,,,,,,,,,"10100,1,99999,9",,,,,,"MET051SPECI FACT 080455Z 21008KT CAVOK 23/17 Q1010 NOSIG=",
"68816099999","2022-01-08T05:00:00","4","-33.964806","18.601667","46.02","CAPE TOWN INTERNATIONAL, SF","FM-15","99999","V020","210,1,N,0041,1","99999,9,9,Y","009900,5,9,9","+0230,1","+0170,1","99999,9",,,,,,,,,,,,"10100,1,99999,9",,,,,,"MET051METAR FACT 080500Z 21008KT CAVOK 23/17 Q1010 NOSIG=",
"68816099999","2022-01-08T06:00:00","4","-33.964806","18.601667","46.02","CAPE TOWN INTERNATIONAL, SF","FM-12","99999","V020","220,1,N,0036,1","99999,9,9,N","030000,1,9,9","+0243,1","+0173,1","10107,1",,,,,,,,,,"240,N,+0206,1",,"99999,9,10054,1","2,1,010,1,+999,9",,,,"4,99,0036,1,999","SYN08068816 32980 02207 10243 20173 30054 40107 52010 333 20206 91007 555 10325 91010=",
"68816099999","2022-01-08T06:00:00","4","-33.964806","18.601667","46.02","CAPE TOWN INTERNATIONAL, SF","FM-15","99999","V020","220,1,N,0036,1","99999,9,9,Y","009900,5,9,9","+0240,1","+0170,1","99999,9",,,,,,,,,,,,"10100,1,99999,9",,,,,,"MET051METAR FACT 080600Z 22007KT CAVOK 24/17 Q1010 NOSIG=",
"68816099999","2022-01-08T07:00:00","4","-33.964806","18.601667","46.02","CAPE TOWN INTERNATIONAL, SF","FM-15","99999","V020","210,1,N,0041,1","99999,9,9,Y","009900,5,9,9","+0260,1","+0180,1","99999,9",,,,,,,,,,,,"10100,1,99999,9",,,,,,"MET051METAR FACT 080700Z 21008KT CAVOK 26/18 Q1010 NOSIG=",
"68816099999","2022-01-08T07:52:00","4","-33.964806","18.601667","46.02","CAPE TOWN INTERNATIONAL, SF","FM-16","99999","V020","220,1,N,0036,1","99999,9,9,Y","009900,5,9,9","+0290,1","+0180,1","99999,9",,,,,,,,,,,,"10100,1,99999,9",,,,,,"MET051SPECI FACT 080752Z 22007KT CAVOK 29/18 Q1010 NOSIG=",
"68816099999","2022-01-08T08:00:00","4","-33.964806","18.601667","46.02","CAPE TOWN INTERNATIONAL, SF","FM-15","99999","V020","220,1,N,0036,1","99999,9,9,Y","009900,5,9,9","+0290,1","+0180,1","99999,9",,,,,,,,,,,,"10100,1,99999,9",,,,,,"MET051METAR FACT 080800Z 22007KT CAVOK 29/18 Q1010 NOSIG=",
"68816099999","2022-01-08T08:26:00","4","-33.964806","18.601667","46.02","CAPE TOWN INTERNATIONAL, SF","FM-16","99999","V020","200,1,V,0036,1","99999,9,9,Y","009900,5,9,9","+0310,1","+0170,1","99999,9",,,,,,,,,,,,"10100,1,99999,9",,,,,,"MET059SPECI FACT 080826Z 20007KT 170V240 CAVOK 31/17 Q1010 NOSIG=",
"68816099999","2022-01-08T09:00:00","4","-33.964806","18.601667","46.02","CAPE TOWN INTERNATIONAL, SF","FM-15","99999","V020","200,1,V,0041,1","99999,9,9,Y","009900,5,9,9","+0320,1","+0170,1","99999,9",,,,,,,,,,,,"10100,1,99999,9",,,,,,"MET059METAR FACT 080900Z 20008KT 150V230 CAVOK 32/17 Q1010 NOSIG=",
"68816099999","2022-01-08T10:00:00","4","-33.964806","18.601667","46.02","CAPE TOWN INTERNATIONAL, SF","FM-15","99999","V020","200,1,V,0036,1","99999,9,9,Y","009900,5,9,9","+0320,1","+0170,1","99999,9",,,,,,,,,,,,"10100,1,99999,9",,,,,,"MET059METAR FACT 081000Z 20007KT 150V240 CAVOK 32/17 Q1010 NOSIG=",
"68816099999","2022-01-08T11:00:00","4","-33.964806","18.601667","46.02","CAPE TOWN INTERNATIONAL, SF","FM-15","99999","V020","210,1,V,0051,1","99999,9,9,Y","009900,5,9,9","+0330,1","+0170,1","99999,9",,,,,,,,,,,,"10090,1,99999,9",,,,,,"MET059METAR FACT 081100Z 21010KT 170V230 CAVOK 33/17 Q1009 NOSIG=",
"68816099999","2022-01-08T12:00:00","4","-33.964806","18.601667","46.02","CAPE TOWN INTERNATIONAL, SF","FM-12","99999","V020","210,1,N,0051,1","99999,9,9,N","030000,1,9,9","+0334,1","+0171,1","10093,1",,,,,,,,,,"240,M,+0336,1","240,N,+0247,1","99999,9,10041,1","7,1,006,1,+999,9",,,,"4,99,0077,1,999","SYN08068816 32980 02110 10334 20171 30041 40093 57006 333 10336 20247 91015 555 91009=",
"68816099999","2022-01-08T12:00:00","4","-33.964806","18.601667","46.02","CAPE TOWN INTERNATIONAL, SF","FM-15","99999","V020","200,1,N,0051,1","99999,9,9,Y","009900,5,9,9","+0330,1","+0170,1","99999,9",,,,,,,,,,,,"10090,1,99999,9",,,,,,"MET051METAR FACT 081200Z 20010KT CAVOK 33/17 Q1009 NOSIG=",
"68816099999","2022-01-08T13:00:00","4","-33.964806","18.601667","46.02","CAPE TOWN INTERNATIONAL, SF","FM-15","99999","V020","200,1,N,0062,1","99999,9,9,Y","009900,5,9,9","+0330,1","+0170,1","99999,9",,,,,,,,,,,,"10090,1,99999,9",,,,,,"MET051METAR FACT 081300Z 20012KT CAVOK 33/17 Q1009 NOSIG=",
"68816099999","2022-01-08T14:00:00","4","-33.964806","18.601667","46.02","CAPE TOWN INTERNATIONAL, SF","FM-15","99999","V020","210,1,N,0057,1","99999,9,9,Y","009900,5,9,9","+0320,1","+0180,1","99999,9",,,,,,,,,,,,"10080,1,99999,9",,,,,,"MET051METAR FACT 081400Z 21011KT CAVOK 32/18 Q1008 NOSIG=",
"68816099999","2022-01-08T15:00:00","4","-33.964806","18.601667","46.02","CAPE TOWN INTERNATIONAL, SF","FM-15","99999","V020","200,1,N,0062,1","99999,9,9,Y","009900,5,9,9","+0310,1","+0180,1","99999,9",,,,,,,,,,,,"10080,1,99999,9",,,,,,"MET051METAR FACT 081500Z 20012KT CAVOK 31/18 Q1008 NOSIG=",
"68816099999","2022-01-08T16:00:00","4","-33.964806","18.601667","46.02","CAPE TOWN INTERNATIONAL, SF","FM-15","99999","V020","220,1,N,0051,1","99999,9,9,Y","009900,5,9,9","+0280,1","+0180,1","99999,9",,,,,,,,,,,,"10070,1,99999,9",,,,,,"MET051METAR FACT 081600Z 22010KT CAVOK 28/18 Q1007 NOSIG=",
"68816099999","2022-01-08T17:00:00","4","-33.964806","18.601667","46.02","CAPE TOWN INTERNATIONAL, SF","FM-15","99999","V020","210,1,N,0046,1","99999,9,9,Y","009900,5,9,9","+0260,1","+0180,1","99999,9",,,,,,,,,,,,"10070,1,99999,9",,,,,,"MET051METAR FACT 081700Z 21009KT CAVOK 26/18 Q1007 NOSIG=",
"68816099999","2022-01-08T18:00:00","4","-33.964806","18.601667","46.02","CAPE TOWN INTERNATIONAL, SF","FM-12","99999","V020","220,1,N,0041,1","99999,9,9,N","030000,1,9,9","+0236,1","+0177,1","10078,1",,,,,,,,,,"120,M,+0337,1","120,N,+0236,1","99999,9,10024,1","7,1,002,1,+999,9",,,,"4,99,0062,1,999","SYN08068816 32980 02208 10236 20177 30024 40078 57002 333 10337 20236 91012 555 91007=",
"68816099999","2022-01-08T18:00:00","4","-33.964806","18.601667","46.02","CAPE TOWN INTERNATIONAL, SF","FM-15","99999","V020","220,1,N,0046,1","99999,9,9,Y","009900,5,9,9","+0240,1","+0180,1","99999,9",,,,,,,,,,,,"10070,1,99999,9",,,,,,"MET051METAR FACT 081800Z 22009KT CAVOK 24/18 Q1007 NOSIG=",
"68816099999","2022-01-08T19:00:00","4","-33.964806","18.601667","46.02","CAPE TOWN INTERNATIONAL, SF","FM-15","99999","V020","220,1,N,0041,1","99999,9,9,Y","009900,5,9,9","+0230,1","+0180,1","99999,9",,,,,,,,,,,,"10080,1,99999,9",,,,,,"MET051METAR FACT 081900Z 22008KT CAVOK 23/18 Q1008 NOSIG=",
"68816099999","2022-01-08T20:00:00","4","-33.964806","18.601667","46.02","CAPE TOWN INTERNATIONAL, SF","FM-15","99999","V020","250,1,V,0026,1","99999,9,9,Y","009900,5,9,9","+0240,1","+0180,1","99999,9",,,,,,,,,,,,"10080,1,99999,9",,,,,,"MET059METAR FACT 082000Z 25005KT 220V280 CAVOK 24/18 Q1008 NOSIG=",
"68816099999","2022-01-08T21:00:00","4","-33.964806","18.601667","46.02","CAPE TOWN INTERNATIONAL, SF","FM-15","99999","V020","999,9,V,0005,1","99999,9,9,Y","009900,5,9,9","+0230,1","+0180,1","99999,9",,,,,,,,,,,,"10080,1,99999,9",,,,,,"MET051METAR FACT 082100Z VRB01KT CAVOK 23/18 Q1008 NOSIG=",
"68816099999","2022-01-08T22:00:00","4","-33.964806","18.601667","46.02","CAPE TOWN INTERNATIONAL, SF","FM-15","99999","V020","180,1,N,0015,1","99999,9,9,Y","009900,5,9,9","+0230,1","+0180,1","99999,9",,,,,,,,,,,,"10070,1,99999,9",,,,,,"MET051METAR FACT 082200Z 18003KT CAVOK 23/18 Q1007 NOSIG=",
"68816099999","2022-01-08T23:00:00","4","-33.964806","18.601667","46.02","CAPE TOWN INTERNATIONAL, SF","FM-15","99999","V020","999,9,V,0005,1","99999,9,9,Y","009900,5,9,9","+0220,1","+0180,1","99999,9",,,,,,,,,,,,"10070,1,99999,9",,,,,,"MET051METAR FACT 082300Z VRB01KT CAVOK 22/18 Q1007 NOSIG=",
"68816099999","2022-01-09T00:00:00","4","-33.964806","18.601667","46.02","CAPE TOWN INTERNATIONAL, SF","FM-15","99999","V020","999,9,V,0015,1","99999,9,9,Y","009900,5,9,9","+0220,1","+0180,1","99999,9",,,,,,,,,,,,"10070,1,99999,9",,,,,,"MET051METAR FACT 090000Z VRB03KT CAVOK 22/18 Q1007 NOSIG=",
"68816099999","2022-01-09T01:00:00","4","-33.964806","18.601667","46.02","CAPE TOWN INTERNATIONAL, SF","FM-15","99999","V020","340,1,N,0036,1","99999,9,9,Y","009900,5,9,9","+0210,1","+0170,1","99999,9",,,,,,,,,,,,"10070,1,99999,9",,,,,,"MET051METAR FACT 090100Z 34007KT CAVOK 21/17 Q1007 NOSIG=",
"68816099999","2022-01-09T02:00:00","4","-33.964806","18.601667","46.02","CAPE TOWN INTERNATIONAL, SF","FM-15","99999","V020","320,1,N,0077,1","99999,9,9,Y","009900,5,9,9","+0210,1","+0170,1","99999,9",,,,,,,,,,,,"10070,1,99999,9",,,,,,"MET051METAR FACT 090200Z 32015KT CAVOK 21/17 Q1007 NOSIG=",
"68816099999","2022-01-09T03:00:00","4","-33.964806","18.601667","46.02","CAPE TOWN INTERNATIONAL, SF","FM-15","99999","V020","350,1,N,0046,1","99999,9,9,Y","009900,5,9,9","+0190,1","+0160,1","99999,9",,,,,,,,,,,,"10080,1,99999,9",,,,,,"MET051METAR FACT 090300Z 35009KT CAVOK 19/16 Q1008 NOSIG=",
"68816099999","2022-01-09T04:00:00","4","-33.964806","18.601667","46.02","CAPE TOWN INTERNATIONAL, SF","FM-15","99999","V020","350,1,N,0057,1","99999,9,9,Y","009900,5,9,9","+0210,1","+0170,1","99999,9",,,,,,,,,,,,"10080,1,99999,9",,,,,,"MET051METAR FACT 090400Z 35011KT CAVOK 21/17 Q1008 NOSIG=",
"68816099999","2022-01-09T05:00:00","4","-33.964806","18.601667","46.02","CAPE TOWN INTERNATIONAL, SF","FM-15","99999","V020","020,1,N,0067,1","99999,9,9,Y","009900,5,9,9","+0210,1","+0170,1","99999,9",,,,,,,,,,,,"10090,1,99999,9",,,,,,"MET051METAR FACT 090500Z 02013KT CAVOK 21/17 Q1009 NOSIG=",
"68816099999","2022-01-09T06:00:00","4","-33.964806","18.601667","46.02","CAPE TOWN INTERNATIONAL, SF","FM-15","99999","V020","020,1,N,0067,1","99999,9,9,Y","009900,5,9,9","+0230,1","+0180,1","99999,9",,,,,,,,,,,,"10100,1,99999,9",,,,,,"MET051METAR FACT 090600Z 02013KT CAVOK 23/18 Q1010 NOSIG=",
"68816099999","2022-01-09T07:00:00","4","-33.964806","18.601667","46.02","CAPE TOWN INTERNATIONAL, SF","FM-15","99999","V020","320,1,N,0072,1","99999,9,9,Y","009900,5,9,9","+0240,1","+0170,1","99999,9",,,,,,,,,,,,"10090,1,99999,9",,,,,,"MET051METAR FACT 090700Z 32014KT CAVOK 24/17 Q1009 NOSIG=",
"68816099999","2022-01-09T08:00:00","4","-33.964806","18.601667","46.02","CAPE TOWN INTERNATIONAL, SF","FM-15","99999","V020","320,1,N,0067,1","99999,9,9,Y","009900,5,9,9","+0230,1","+0170,1","99999,9",,,,,,,,,,,,"10090,1,99999,9",,,,,,"MET051METAR FACT 090800Z 32013KT CAVOK 23/17 Q1009 NOSIG=",
"68816099999","2022-01-09T09:00:00","4","-33.964806","18.601667","46.02","CAPE TOWN INTERNATIONAL, SF","FM-15","99999","V020","320,1,N,0062,1","99999,9,9,Y","009900,5,9,9","+0230,1","+0170,1","99999,9",,,,,,,,,,,,"10090,1,99999,9",,,,,,"MET051METAR FACT 090900Z 32012KT CAVOK 23/17 Q1009 NOSIG=",
"68816099999","2022-01-09T09:33:00","4","-33.964806","18.601667","46.02","CAPE TOWN INTERNATIONAL, SF","FM-16","99999","V020","340,1,N,0077,1","99999,9,9,Y","009900,5,9,9","+0250,1","+0180,1","99999,9",,,,,,,,,,,,"10090,1,99999,9",,,,,,"MET051SPECI FACT 090933Z 34015KT CAVOK 25/18 Q1009 NOSIG=",
"68816099999","2022-01-09T10:00:00","4","-33.964806","18.601667","46.02","CAPE TOWN INTERNATIONAL, SF","FM-15","99999","V020","320,1,N,0072,1","99999,9,9,Y","009900,5,9,9","+0250,1","+0170,1","99999,9",,,,,,,,,,,,"10090,1,99999,9",,,,,,"MET051METAR FACT 091000Z 32014KT CAVOK 25/17 Q1009 NOSIG=",
"68816099999","2022-01-09T11:00:00","4","-33.964806","18.601667","46.02","CAPE TOWN INTERNATIONAL, SF","FM-15","99999","V020","330,1,N,0077,1","99999,9,9,Y","009900,5,9,9","+0250,1","+0170,1","99999,9",,,,,,,,,,,,"10090,1,99999,9",,,,,,"MET051METAR FACT 091100Z 33015KT CAVOK 25/17 Q1009 NOSIG=",
"68816099999","2022-01-09T12:00:00","4","-33.964806","18.601667","46.02","CAPE TOWN INTERNATIONAL, SF","FM-12","99999","V020","320,1,N,0072,1","99999,9,9,N","020000,1,9,9","+0243,1","+0177,1","10095,1",,,,,"01,1,+99999,9,03,1","99,9,+99999,9,02,1",,"9,AGL   ,+99999,+99999","06,99,1,01,1,99,9,99999,9,99,9,99,9","240,M,+0256,1","240,N,+0230,1","99999,9,10042,1","7,1,003,1,+999,9",,,,"4,99,0103,1,999","SYN08668816 32970 63214 10243 20177 30042 40095 57003 81078 333 10256 20230 91020 555 91009=",
"68816099999","2022-01-09T12:00:00","4","-33.964806","18.601667","46.02","CAPE TOWN INTERNATIONAL, SF","FM-15","99999","V020","330,1,N,0067,1","99999,9,9,Y","009900,5,9,9","+0240,1","+0180,1","99999,9",,,,,,,,,,,,"10090,1,99999,9",,,,,,"MET051METAR FACT 091200Z 33013KT CAVOK 24/18 Q1009 NOSIG=",
"68816099999","2022-01-09T13:00:00","4","-33.964806","18.601667","46.02","CAPE TOWN INTERNATIONAL, SF","FM-15","99999","V020","320,1,N,0072,1","99999,9,9,Y","009900,5,9,9","+0220,1","+0180,1","99999,9",,,,,,,,,,,,"10090,1,99999,9",,,,,,"MET051METAR FACT 091300Z 32014KT CAVOK 22/18 Q1009 NOSIG=",
"68816099999","2022-01-09T14:00:00","4","-33.964806","18.601667","46.02","CAPE TOWN INTERNATIONAL, SF","FM-15","99999","V020","320,1,N,0093,1","01524,1,C,N","009999,1,9,9","+0210,1","+0180,1","99999,9",,,,,"07,1,+01524,1,99,9",,,"9,AGL   ,+99999,+99999","99,99,9,07,1,99,9,01524,1,99,9,99,9",,,"10100,1,99999,9",,"80,1",,,,"MET063METAR FACT 091400Z 32018KT 9999 -SHRA BKN050 21/18 Q1010 NOSIG=",
"68816099999","2022-01-09T15:00:00","4","-33.964806","18.601667","46.02","CAPE TOWN INTERNATIONAL, SF","FM-15","99999","V020","340,1,N,0051,1","99999,9,9,Y","009900,5,9,9","+0210,1","+0190,1","99999,9",,,,,,,,,,,,"10090,1,99999,9",,,,,,"MET051METAR FACT 091500Z 34010KT CAVOK 21/19 Q1009 NOSIG=",
"68816099999","2022-01-09T15:29:00","4","-33.964806","18.601667","46.02","CAPE TOWN INTERNATIONAL, SF","FM-16","99999","V020","010,1,V,0021,1","99999,9,9,Y","009900,5,9,9","+0240,1","+0190,1","99999,9",,,,,,,,,,,,"10080,1,99999,9",,,,,,"MET059SPECI FACT 091529Z 01004KT 340V040 CAVOK 24/19 Q1008 NOSIG=",
"68816099999","2022-01-09T16:00:00","4","-33.964806","18.601667","46.02","CAPE TOWN INTERNATIONAL, SF","FM-15","99999","V020","030,1,N,0036,1","99999,9,9,Y","009900,5,9,9","+0260,1","+0180,1","99999,9",,,,,,,,,,,,"10080,1,99999,9",,,,,,"MET051METAR FACT 091600Z 03007KT CAVOK 26/18 Q1008 NOSIG=",
"68816099999","2022-01-09T17:00:00","4","-33.964806","18.601667","46.02","CAPE TOWN INTERNATIONAL, SF","FM-15","99999","V020","070,1,N,0057,1","99999,9,9,Y","009900,5,9,9","+0260,1","+0180,1","99999,9",,,,,,,,,,,,"10070,1,99999,9",,,,,,"MET051METAR FACT 091700Z 07011KT CAVOK 26/18 Q1007 NOSIG=",
"68816099999","2022-01-09T18:00:00","4","-33.964806","18.601667","46.02","CAPE TOWN INTERNATIONAL, SF","FM-12","99999","V020","240,1,N,0046,1","99999,9,9,N","030000,1,9,9","+0257,1","+0184,1","10076,1",,,,,"07,1,+99999,9,03,1",,,"9,AGL   ,+99999,+99999","07,99,1,07,1,99,9,99999,9,99,9,99,9","120,M,+0262,1",,"99999,9,10023,1","7,1,003,1,+999,9",,,,"4,99,0103,1,999","SYN08068816 32980 72409 10257 20184 30023 40076 57003 8709/ 333 10262 91020 555 91007=",
"68816099999","2022-01-09T18:00:00","4","-33.964806","18.601667","46.02","CAPE TOWN INTERNATIONAL, SF","FM-15","99999","V020","280,1,V,0026,1","99999,9,9,Y","009900,5,9,9","+0260,1","+0180,1","99999,9",,,,,,,,,,,,"10070,1,99999,9",,,,,,"MET059METAR FACT 091800Z 28005KT 230V030 CAVOK 26/18 Q1007 NOSIG=",
"68816099999","2022-01-09T19:00:00","4","-33.964806","18.601667","46.02","CAPE TOWN INTERNATIONAL, SF","FM-15","99999","V020","350,1,N,0046,1","99999,9,9,Y","009900,5,9,9","+0230,1","+0170,1","99999,9",,,,,,,,,,,,"10080,1,99999,9",,,,,,"MET051METAR FACT 091900Z 35009KT CAVOK 23/17 Q1008 NOSIG=",
"68816099999","2022-01-09T20:00:00","4","-33.964806","18.601667","46.02","CAPE TOWN INTERNATIONAL, SF","FM-15","99999","V020","999,9,V,0015,1","99999,9,9,Y","009900,5,9,9","+0230,1","+0170,1","99999,9",,,,,,,,,,,,"10070,1,99999,9",,,,,,"MET051METAR FACT 092000Z VRB03KT CAVOK 23/17 Q1007 NOSIG=",
"68816099999","2022-01-09T21:00:00","4","-33.964806","18.601667","46.02","CAPE TOWN INTERNATIONAL, SF","FM-15","99999","V020","320,1,N,0077,1","99999,9,9,Y","009900,5,9,9","+0200,1","+0170,1","99999,9",,,,,,,,,,,,"10080,1,99999,9",,,,,,"MET051METAR FACT 092100Z 32015KT CAVOK 20/17 Q1008 NOSIG=",
"68816099999","2022-01-09T22:00:00","4","-33.964806","18.601667","46.02","CAPE TOWN INTERNATIONAL, SF","FM-15","99999","V020","320,1,N,0093,1","99999,9,9,Y","009900,5,9,9","+0190,1","+0170,1","99999,9",,,,,,,,,,,,"10080,1,99999,9",,,,,,"MET051METAR FACT 092200Z 32018KT CAVOK 19/17 Q1008 NOSIG=",
"68816099999","2022-01-09T23:00:00","4","-33.964806","18.601667","46.02","CAPE TOWN INTERNATIONAL, SF","FM-15","99999","V020","330,1,N,0088,1","99999,9,9,N","009999,1,9,9","+0190,1","+0170,1","99999,9",,,,,"02,1,+00305,1,99,9",,,"9,AGL   ,+99999,+99999","99,99,9,02,1,99,9,00305,1,99,9,99,9",,,"10090,1,99999,9",,,,,,"MET064METAR FACT 092300Z 33017KT 9999 FEW010 19/17 Q1009 TEMPO BKN010=",
"68816099999","2022-01-10T00:00:00","4","-33.964806","18.601667","46.02","CAPE TOWN INTERNATIONAL, SF","FM-12","99999","V020","350,1,N,0057,1","22000,1,9,N","020000,1,9,9","+0186,1","+0173,1","10098,1",,,,,"04,1,+00450,1,06,1",,,"9,AGL   ,+99999,+99999","04,99,1,04,1,99,9,00450,1,99,9,99,9","120,M,+0262,1",,"99999,9,10044,1","2,1,015,1,+999,9",,,,"4,99,0088,1,999","SYN08068816 32470 43511 10186 20173 30044 40098 52015 84500 333 10262 91017 555 91009=",
"68816099999","2022-01-10T00:00:00","4","-33.964806","18.601667","46.02","CAPE TOWN INTERNATIONAL, SF","FM-15","99999","V020","350,1,N,0057,1","01067,1,C,N","009999,1,9,9","+0190,1","+0170,1","99999,9",,,,,"02,1,+00305,1,99,9","04,1,+01067,1,99,9",,"9,AGL   ,+99999,+99999","99,99,9,02,1,99,9,00305,1,99,9,99,9",,,"10090,1,99999,9",,,,,,"MET071METAR FACT 100000Z 35011KT 9999 FEW010 SCT035 19/17 Q1009 TEMPO BKN010=",
"68816099999","2022-01-10T01:00:00","4","-33.964806","18.601667","46.02","CAPE TOWN INTERNATIONAL, SF","FM-15","99999","V020","020,1,N,0036,1","00914,1,9,N","009999,1,9,9","+0190,1","+0170,1","99999,9",,,,,"02,1,+00305,1,99,9","07,1,+00914,1,99,9",,"9,AGL   ,+99999,+99999","99,99,9,02,1,99,9,00305,1,99,9,99,9",,,"10080,1,99999,9",,,,,,"MET071METAR FACT 100100Z 02007KT 9999 FEW010 BKN030 19/17 Q1008 TEMPO BKN010=",
"68816099999","2022-01-10T02:00:00","4","-33.964806","18.601667","46.02","CAPE TOWN INTERNATIONAL, SF","FM-15","99999","V020","010,1,N,0041,1","00914,1,9,N","009999,1,9,9","+0200,1","+0170,1","99999,9",,,,,"02,1,+00457,1,99,9","07,1,+00914,1,99,9",,"9,AGL   ,+99999,+99999","99,99,9,02,1,99,9,00457,1,99,9,99,9",,,"10080,1,99999,9",,,,,,"MET064METAR FACT 100200Z 01008KT 9999 FEW015 BKN030 20/17 Q1008 NOSIG=",
"68816099999","2022-01-10T03:00:00","4","-33.964806","18.601667","46.02","CAPE TOWN INTERNATIONAL, SF","FM-15","99999","V020","350,1,V,0051,1","00914,1,9,N","009999,1,9,9","+0200,1","+0160,1","99999,9",,,,,"02,1,+00457,1,99,9","07,1,+00914,1,99,9",,"9,AGL   ,+99999,+99999","99,99,9,02,1,99,9,00457,1,99,9,99,9",,,"10080,1,99999,9",,,,,,"MET072METAR FACT 100300Z 35010KT 320V020 9999 FEW015 BKN030 20/16 Q1008 NOSIG=",
"68816099999","2022-01-10T04:00:00","4","-33.964806","18.601667","46.02","CAPE TOWN INTERNATIONAL, SF","FM-15","99999","V020","360,1,N,0046,1","99999,9,9,N","009999,1,9,9","+0190,1","+0160,1","99999,9",,,,,"02,1,+00610,1,99,9",,,"9,AGL   ,+99999,+99999","99,99,9,02,1,99,9,00610,1,99,9,99,9",,,"10070,1,99999,9",,,,,,"MET057METAR FACT 100400Z 36009KT 9999 FEW020 19/16 Q1007 NOSIG=",
"68816099999","2022-01-10T05:00:00","4","-33.964806","18.601667","46.02","CAPE TOWN INTERNATIONAL, SF","FM-15","99999","V020","340,1,N,0067,1","01067,1,C,N","009999,1,9,9","+0200,1","+0160,1","99999,9",,,,,"07,1,+01067,1,99,9",,,"9,AGL   ,+99999,+99999","99,99,9,07,1,99,9,01067,1,99,9,99,9",,,"10080,1,99999,9",,,,,,"MET057METAR FACT 100500Z 34013KT 9999 BKN035 20/16 Q1008 NOSIG=",
"68816099999","2022-01-10T06:00:00","4","-33.964806","18.601667","46.02","CAPE TOWN INTERNATIONAL, SF","FM-12","99999","V020","340,1,N,0077,1","99999,9,9,N","030000,1,9,9","+0204,1","+0164,1","10089,1","24,0000,2,1",,,,"07,1,+01250,1,06,1",,,"9,AGL   ,+99999,+99999","07,99,1,07,1,99,9,01250,1,99,9,99,9","240,N,+0185,1",,"99999,9,10035,1","2,1,003,1,+999,9",,,,"4,99,0051,1,999","SYN09868816 32680 73415 10204 20164 30035 40089 52003 69904 875// 333 20185 91010 555 10262 20000 91008=",
"68816099999","2022-01-10T06:00:00","4","-33.964806","18.601667","46.02","CAPE TOWN INTERNATIONAL, SF","FM-15","99999","V020","340,1,N,0077,1","01067,1,C,N","009999,1,9,9","+0200,1","+0160,1","99999,9",,,,,"07,1,+01067,1,99,9",,,"9,AGL   ,+99999,+99999","99,99,9,07,1,99,9,01067,1,99,9,99,9",,,"10090,1,99999,9",,,,,,"MET057METAR FACT 100600Z 34015KT 9999 BKN035 20/16 Q1009 NOSIG=",
"68816099999","2022-01-10T07:00:00","4","-33.964806","18.601667","46.02","CAPE TOWN INTERNATIONAL, SF","FM-15","99999","V020","340,1,N,0077,1","01067,1,C,N","009999,1,9,9","+0210,1","+0160,1","99999,9",,,,,"07,1,+01067,1,99,9",,,"9,AGL   ,+99999,+99999","99,99,9,07,1,99,9,01067,1,99,9,99,9",,,"10090,1,99999,9",,,,,,"MET057METAR FACT 100700Z 34015KT 9999 BKN035 21/16 Q1009 NOSIG=",
"68816099999","2022-01-10T08:00:00","4","-33.964806","18.601667","46.02","CAPE TOWN INTERNATIONAL, SF","FM-15","99999","V020","320,1,N,0077,1","00610,1,C,N","009999,1,9,9","+0200,1","+0160,1","99999,9",,,,,"07,1,+00610,1,99,9","08,1,+01067,1,99,9",,"9,AGL   ,+99999,+99999","99,99,9,07,1,99,9,00610,1,99,9,99,9",,,"10090,1,99999,9",,"51,1",,,,"MET068METAR FACT 100800Z 32015KT 9999 -DZ BKN020 OVC035 20/16 Q1009 NOSIG=",
"68816099999","2022-01-10T09:00:00","4","-33.964806","18.601667","46.02","CAPE TOWN INTERNATIONAL, SF","FM-15","99999","V020","350,1,N,0057,1","01219,1,9,N","009999,1,9,9","+0210,1","+0160,1","99999,9",,,,,"02,1,+00610,1,99,9","07,1,+01219,1,99,9",,"9,AGL   ,+99999,+99999","99,99,9,02,1,99,9,00610,1,99,9,99,9",,,"10090,1,99999,9",,,,,,"MET064METAR FACT 100900Z 35011KT 9999 FEW020 BKN040 21/16 Q1009 NOSIG=",
"68816099999","2022-01-10T10:00:00","4","-33.964806","18.601667","46.02","CAPE TOWN INTERNATIONAL, SF","FM-15","99999","V020","330,1,N,0082,1","01219,1,9,N","009999,1,9,9","+0230,1","+0140,1","99999,9",,,,,"02,1,+00914,1,99,9","07,1,+01219,1,99,9",,"9,AGL   ,+99999,+99999","99,99,9,02,1,99,9,00914,1,99,9,99,9",,,"10090,1,99999,9",,,,,,"MET064METAR FACT 101000Z 33016KT 9999 FEW030 BKN040 23/14 Q1009 NOSIG=",
"68816099999","2022-01-10T11:00:00","4","-33.964806","18.601667","46.02","CAPE TOWN INTERNATIONAL, SF","FM-15","99999","V020","310,1,V,0082,1","01524,1,9,N","009999,1,9,9","+0240,1","+0150,1","99999,9",,,,,"02,1,+01067,1,99,9","07,1,+01524,1,99,9",,"9,AGL   ,+99999,+99999","99,99,9,02,1,99,9,01067,1,99,9,99,9",,,"10080,1,99999,9",,,,,,"MET072METAR FACT 101100Z 31016KT 290V350 9999 FEW035 BKN050 24/15 Q1008 NOSIG=",
"68816099999","2022-01-10T12:00:00","4","-33.964806","18.601667","46.02","CAPE TOWN INTERNATIONAL, SF","FM-12","99999","V020","320,1,N,0093,1","22000,1,9,N","030000,1,9,9","+0250,1","+0140,1","10080,1","06,0000,2,1",,,,"01,1,+01250,1,06,1",,,"9,AGL   ,+99999,+99999","01,99,1,01,1,99,9,01250,1,99,9,99,9","240,M,+0250,1","240,N,+0205,1","99999,9,10027,1","7,1,009,1,+999,9",,,,"4,99,0124,1,999","SYN09868816 12680 13218 10250 20140 30027 40080 57009 69901 81500 333 10250 20205 91024 555 20000 91008=",
"68816099999","2022-01-10T12:00:00","4","-33.964806","18.601667","46.02","CAPE TOWN INTERNATIONAL, SF","FM-15","99999","V020","310,1,N,0093,1","99999,9,9,N","009999,1,9,9","+0250,1","+0140,1","99999,9",,,,,"02,1,+01219,1,99,9",,,"9,AGL   ,+99999,+99999","99,99,9,02,1,99,9,01219,1,99,9,99,9",,,"10080,1,99999,9",,,,,,"MET057METAR FACT 101200Z 31018KT 9999 FEW040 25/14 Q1008 NOSIG=",
"68816099999","2022-01-10T13:00:00","4","-33.964806","18.601667","46.02","CAPE TOWN INTERNATIONAL, SF","FM-15","99999","V020","310,1,N,0103,1","99999,9,9,N","009999,1,9,9","+0240,1","+0150,1","99999,9",,,,,"02,1,+01219,1,99,9",,,"9,AGL   ,+99999,+99999","99,99,9,02,1,99,9,01219,1,99,9,99,9",,,"10080,1,99999,9",,,,,,"MET057METAR FACT 101300Z 31020KT 9999 FEW040 24/15 Q1008 NOSIG=",
"68816099999","2022-01-10T14:00:00","4","-33.964806","18.601667","46.02","CAPE TOWN INTERNATIONAL, SF","FM-15","99999","V020","310,1,N,0118,1","99999,9,9,N","009999,1,9,9","+0240,1","+0160,1","99999,9",,,,,"02,1,+00914,1,99,9",,,"9,AGL   ,+99999,+99999","99,99,9,02,1,99,9,00914,1,99,9,99,9",,,"10080,1,99999,9",,,,,,"MET057METAR FACT 101400Z 31023KT 9999 FEW030 24/16 Q1008 NOSIG=",
"68816099999","2022-01-10T15:00:00","4","-33.964806","18.601667","46.02","CAPE TOWN INTERNATIONAL, SF","FM-15","99999","V020","310,1,N,0108,1","99999,9,9,N","009999,1,9,9","+0230,1","+0170,1","99999,9",,,,,"02,1,+00914,1,99,9",,,"9,AGL   ,+99999,+99999","99,99,9,02,1,99,9,00914,1,99,9,99,9",,,"10080,1,99999,9",,,,,,"MET057METAR FACT 101500Z 31021KT 9999 FEW030 23/17 Q1008 NOSIG=",
"68816099999","2022-01-10T16:00:00","4","-33.964806","18.601667","46.02","CAPE TOWN INTERNATIONAL, SF","FM-15","99999","V020","310,1,N,0082,1","99999,9,9,N","009999,1,9,9","+0230,1","+0170,1","99999,9",,,,,"02,1,+00610,1,99,9",,,"9,AGL   ,+99999,+99999","99,99,9,02,1,99,9,00610,1,99,9,99,9",,,"10080,1,99999,9",,,,,,"MET057METAR FACT 101600Z 31016KT 9999 FEW020 23/17 Q1008 NOSIG=",
"68816099999","2022-01-10T17:00:00","4","-33.964806","18.601667","46.02","CAPE TOWN INTERNATIONAL, SF","FM-15","99999","V020","310,1,N,0072,1","99999,9,9,N","009999,1,9,9","+0210,1","+0180,1","99999,9",,,,,"02,1,+00610,1,99,9",,,"9,AGL   ,+99999,+99999","99,99,9,02,1,99,9,00610,1,99,9,99,9",,,"10090,1,99999,9",,,,,,"MET057METAR FACT 101700Z 31014KT 9999 FEW020 21/18 Q1009 NOSIG=",
"68816099999","2022-01-10T18:00:00","4","-33.964806","18.601667","46.02","CAPE TOWN INTERNATIONAL, SF","FM-12","99999","V020","320,1,N,0062,1","99999,9,9,N","020000,1,9,9","+0203,1","+0178,1","10100,1","12,0000,2,1",,,,"06,1,+00450,1,06,1",,,"9,AGL   ,+99999,+99999","06,99,1,06,1,99,9,00450,1,99,9,99,9","120,M,+0260,1","120,N,+0203,1","99999,9,10046,1","2,1,012,1,+999,9",,,,"4,99,0082,1,999","SYN09868816 12470 63212 10203 20178 30046 40100 52012 69902 86500 333 10260 20203 91016 555 20000 91010=",
"68816099999","2022-01-10T18:00:00","4","-33.964806","18.601667","46.02","CAPE TOWN INTERNATIONAL, SF","FM-15","99999","V020","320,1,N,0067,1","00762,1,9,N","009999,1,9,9","+0200,1","+0180,1","99999,9",,,,,"04,1,+00366,1,99,9","07,1,+00762,1,99,9",,"9,AGL   ,+99999,+99999","99,99,9,04,1,99,9,00366,1,99,9,99,9",,,"10100,1,99999,9",,,,,,"MET064METAR FACT 101800Z 32013KT 9999 SCT012 BKN025 20/18 Q1010 NOSIG=",
"68816099999","2022-01-10T19:00:00","4","-33.964806","18.601667","46.02","CAPE TOWN INTERNATIONAL, SF","FM-15","99999","V020","320,1,N,0057,1","01067,1,9,N","009999,1,9,9","+0200,1","+0180,1","99999,9",,,,,"02,1,+00305,1,99,9","07,1,+01067,1,99,9",,"9,AGL   ,+99999,+99999","99,99,9,02,1,99,9,00305,1,99,9,99,9",,,"10100,1,99999,9",,,,,,"MET064METAR FACT 101900Z 32011KT 9999 FEW010 BKN035 20/18 Q1010 NOSIG=",
"68816099999","2022-01-10T20:00:00","4","-33.964806","18.601667","46.02","CAPE TOWN INTERNATIONAL, SF","FM-15","99999","V020","320,1,N,0062,1","01219,1,9,N","009999,1,9,9","+0200,1","+0180,1","99999,9",,,,,"02,1,+00305,1,99,9","07,1,+01219,1,99,9",,"9,AGL   ,+99999,+99999","99,99,9,02,1,99,9,00305,1,99,9,99,9",,,"10110,1,99999,9",,,,,,"MET064METAR FACT 102000Z 32012KT 9999 FEW010 BKN040 20/18 Q1011 NOSIG=",
"68816099999","2022-01-10T21:00:00","4","-33.964806","18.601667","46.02","CAPE TOWN INTERNATIONAL, SF","FM-15","99999","V020","310,1,N,0051,1","00610,1,9,N","009999,1,9,9","+0200,1","+0180,1","99999,9",,,,,"04,1,+00213,1,99,9","07,1,+00610,1,99,9",,"9,AGL   ,+99999,+99999","99,99,9,04,1,99,9,00213,1,99,9,99,9",,,"10110,1,99999,9",,,,,,"MET064METAR FACT 102100Z 31010KT 9999 SCT007 BKN020 20/18 Q1011 NOSIG=",
"68816099999","2022-01-10T22:00:00","4","-33.964806","18.601667","46.02","CAPE TOWN INTERNATIONAL, SF","FM-15","99999","V020","310,1,N,0051,1","00610,1,9,N","009999,1,9,9","+0190,1","+0180,1","99999,9",,,,,"04,1,+00152,1,99,9","07,1,+00610,1,99,9",,"9,AGL   ,+99999,+99999","99,99,9,04,1,99,9,00152,1,99,9,99,9",,,"10110,1,99999,9",,,,,,"MET064METAR FACT 102200Z 31010KT 9999 SCT005 BKN020 19/18 Q1011 NOSIG=",
"68816099999","2022-01-10T23:00:00","4","-33.964806","18.601667","46.02","CAPE TOWN INTERNATIONAL, SF","FM-15","99999","V020","320,1,N,0051,1","00610,1,9,N","009999,1,9,9","+0190,1","+0180,1","99999,9",,,,,"04,1,+00183,1,99,9","07,1,+00610,1,99,9",,"9,AGL   ,+99999,+99999","99,99,9,04,1,99,9,00183,1,99,9,99,9",,,"10110,1,99999,9",,,,,,"MET064METAR FACT 102300Z 32010KT 9999 SCT006 BKN020 19/18 Q1011 NOSIG=",
"68816099999","2022-01-11T00:00:00","4","-33.964806","18.601667","46.02","CAPE TOWN INTERNATIONAL, SF","FM-12","99999","V020","320,1,N,0051,1","99999,9,9,N","030000,1,9,9","+0183,1","+0176,1","10123,1",,,,,"07,1,+00450,1,06,1",,,"9,AGL   ,+99999,+99999","07,99,1,07,1,99,9,00450,1,99,9,99,9","120,M,+0260,1",,"99999,9,10069,1","2,1,012,1,+999,9",,,,"4,99,0077,1,999","SYN08668816 12480 73210 10183 20176 30069 40123 52012 875// 333 10260 91015 555 20000 91012=",
"68816099999","2022-01-11T00:00:00","4","-33.964806","18.601667","46.02","CAPE TOWN INTERNATIONAL, SF","FM-15","99999","V020","320,1,N,0051,1","00488,1,9,N","009999,1,9,9","+0180,1","+0180,1","99999,9",,,,,"04,1,+00152,1,99,9","07,1,+00488,1,99,9",,"9,AGL   ,+99999,+99999","99,99,9,04,1,99,9,00152,1,99,9,99,9",,,"10120,1,99999,9",,,,,,"MET064METAR FACT 110000Z 32010KT 9999 SCT005 BKN016 18/18 Q1012 NOSIG=",
"68816099999","2022-01-11T01:00:00","4","-33.964806","18.601667","46.02","CAPE TOWN INTERNATIONAL, SF","FM-15","99999","V020","330,1,N,0057,1","00610,1,9,N","009999,1,9,9","+0190,1","+0180,1","99999,9",,,,,"04,1,+00183,1,99,9","07,1,+00610,1,99,9",,"9,AGL   ,+99999,+99999","99,99,9,04,1,99,9,00183,1,99,9,99,9",,,"10120,1,99999,9",,,,,,"MET064METAR FACT 110100Z 33011KT 9999 SCT006 BKN020 19/18 Q1012 NOSIG=",
"68816099999","2022-01-11T02:00:00","4","-33.964806","18.601667","46.02","CAPE TOWN INTERNATIONAL, SF","FM-15","99999","V020","320,1,N,0051,1","00914,1,9,N","009999,1,9,9","+0190,1","+0180,1","99999,9",,,,,"02,1,+00244,1,99,9","07,1,+00914,1,99,9",,"9,AGL   ,+99999,+99999","99,99,9,02,1,99,9,00244,1,99,9,99,9",,,"10110,1,99999,9",,,,,,"MET064METAR FACT 110200Z 32010KT 9999 FEW008 BKN030 19/18 Q1011 NOSIG=",
"68816099999","2022-01-11T03:00:00","4","-33.964806","18.601667","46.02","CAPE TOWN INTERNATIONAL, SF","FM-15","99999","V020","320,1,N,0046,1","00914,1,9,N","009999,1,9,9","+0190,1","+0170,1","99999,9",,,,,"04,1,+00305,1,99,9","07,1,+00914,1,99,9",,"9,AGL   ,+99999,+99999","99,99,9,04,1,99,9,00305,1,99,9,99,9",,,"10120,1,99999,9",,,,,,"MET064METAR FACT 110300Z 32009KT 9999 SCT010 BKN030 19/17 Q1012 NOSIG=",
"68816099999","2022-01-11T04:00:00","4","-33.964806","18.601667","46.02","CAPE TOWN INTERNATIONAL, SF","FM-15","99999","V020","360,1,N,0036,1","00914,1,9,N","009999,1,9,9","+0190,1","+0180,1","99999,9",,,,,"02,1,+00305,1,99,9","07,1,+00914,1,99,9",,"9,AGL   ,+99999,+99999","99,99,9,02,1,99,9,00305,1,99,9,99,9",,,"10130,1,99999,9",,,,,,"MET064METAR FACT 110400Z 36007KT 9999 FEW010 BKN030 19/18 Q1013 NOSIG=",
"68816099999","2022-01-11T04:44:00","4","-33.964806","18.601667","46.02","CAPE TOWN INTERNATIONAL, SF","FM-16","99999","V020","340,1,V,0051,1","00366,1,C,N","009999,1,9,9","+0190,1","+0170,1","99999,9",,,,,"07,1,+00366,1,99,9","07,1,+00762,1,99,9",,"9,AGL   ,+99999,+99999","99,99,9,07,1,99,9,00366,1,99,9,99,9",,,"10130,1,99999,9",,,,,,"MET079SPECI FACT 110444Z 34010KT 300V360 9999 BKN012 BKN025 19/17 Q1013 BECMG BKN025=",
"68816099999","2022-01-11T05:00:00","4","-33.964806","18.601667","46.02","CAPE TOWN INTERNATIONAL, SF","FM-15","99999","V020","320,1,N,0051,1","00366,1,C,N","009999,1,9,9","+0190,1","+0180,1","99999,9",,,,,"07,1,+00366,1,99,9","07,1,+00762,1,99,9",,"9,AGL   ,+99999,+99999","99,99,9,07,1,99,9,00366,1,99,9,99,9",,,"10130,1,99999,9",,,,,,"MET071METAR FACT 110500Z 32010KT 9999 BKN012 BKN025 19/18 Q1013 BECMG BKN025=",
"68816099999","2022-01-11T05:27:00","4","-33.964806","18.601667","46.02","CAPE TOWN INTERNATIONAL, SF","FM-16","99999","V020","320,1,N,0051,1","00366,1,C,N","009999,1,9,9","+0190,1","+0170,1","99999,9",,,,,"02,1,+00244,1,99,9","04,1,+00366,1,99,9",,"9,AGL   ,+99999,+99999","99,99,9,02,1,99,9,00244,1,99,9,99,9",,,"10140,1,99999,9",,,,,,"MET064SPECI FACT 110527Z 32010KT 9999 FEW008 SCT012 19/17 Q1014 NOSIG=",
"68816099999","2022-01-11T06:00:00","4","-33.964806","18.601667","46.02","CAPE TOWN INTERNATIONAL, SF","FM-12","99999","V020","340,1,N,0051,1","99999,9,9,N","050000,1,9,9","+0200,1","+0173,1","10143,1","24,0000,2,1",,,,"07,1,+00800,1,06,1",,,"9,AGL   ,+99999,+99999","07,99,1,07,1,99,9,00800,1,99,9,99,9","240,N,+0182,1",,"99999,9,10089,1","2,1,012,1,+999,9",,,,"4,99,0051,1,999","SYN09868816 12584 73410 10200 20173 30089 40143 52012 69904 875// 333 20182 91010 555 10260 20000 91014=",
"68816099999","2022-01-11T06:00:00","4","-33.964806","18.601667","46.02","CAPE TOWN INTERNATIONAL, SF","FM-15","99999","V020","350,1,N,0041,1","00610,1,9,N","009999,1,9,9","+0200,1","+0170,1","99999,9",,,,,"02,1,+00244,1,99,9","07,1,+00610,1,99,9",,"9,AGL   ,+99999,+99999","99,99,9,02,1,99,9,00244,1,99,9,99,9",,,"10140,1,99999,9",,,,,,"MET064METAR FACT 110600Z 35008KT 9999 FEW008 BKN020 20/17 Q1014 NOSIG=",
"68816099999","2022-01-11T07:00:00","4","-33.964806","18.601667","46.02","CAPE TOWN INTERNATIONAL, SF","FM-15","99999","V020","310,1,N,0057,1","01067,1,9,N","009999,1,9,9","+0210,1","+0170,1","99999,9",,,,,"02,1,+00610,1,99,9","07,1,+01067,1,99,9",,"9,AGL   ,+99999,+99999","99,99,9,02,1,99,9,00610,1,99,9,99,9",,,"10150,1,99999,9",,,,,,"MET064METAR FACT 110700Z 31011KT 9999 FEW020 BKN035 21/17 Q1015 NOSIG=",
"68816099999","2022-01-11T08:00:00","4","-33.964806","18.601667","46.02","CAPE TOWN INTERNATIONAL, SF","FM-15","99999","V020","300,1,N,0062,1","01219,1,9,N","009999,1,9,9","+0220,1","+0170,1","99999,9",,,,,"02,1,+00610,1,99,9","07,1,+01219,1,99,9",,"9,AGL   ,+99999,+99999","99,99,9,02,1,99,9,00610,1,99,9,99,9",,,"10150,1,99999,9",,,,,,"MET064METAR FACT 110800Z 30012KT 9999 FEW020 BKN040 22/17 Q1015 NOSIG=",
"68816099999","2022-01-11T09:00:00","4","-33.964806","18.601667","46.02","CAPE TOWN INTERNATIONAL, SF","FM-15","99999","V020","310,1,N,0057,1","01524,1,9,N","009999,1,9,9","+0230,1","+0170,1","99999,9",,,,,"02,1,+00762,1,99,9","07,1,+01524,1,99,9",,"9,AGL   ,+99999,+99999","99,99,9,02,1,99,9,00762,1,99,9,99,9",,,"10150,1,99999,9",,,,,,"MET064METAR FACT 110900Z 31011KT 9999 FEW025 BKN050 23/17 Q1015 NOSIG=",
"68816099999","2022-01-11T10:00:00","4","-33.964806","18.601667","46.02","CAPE TOWN INTERNATIONAL, SF","FM-15","99999","V020","230,1,N,0051,1","00914,1,C,N","009999,1,9,9","+0220,1","+0160,1","99999,9",,,,,"07,1,+00914,1,99,9",,,"9,AGL   ,+99999,+99999","99,99,9,07,1,99,9,00914,1,99,9,99,9",,,"10150,1,99999,9",,,,,,"MET057METAR FACT 111000Z 23010KT 9999 BKN030 22/16 Q1015 NOSIG=",
"68816099999","2022-01-11T11:00:00","4","-33.964806","18.601667","46.02","CAPE TOWN INTERNATIONAL, SF","FM-15","99999","V020","170,1,N,0072,1","01067,1,C,N","009999,1,9,9","+0210,1","+0150,1","99999,9",,,,,"07,1,+01067,1,99,9",,,"9,AGL   ,+99999,+99999","99,99,9,07,1,99,9,01067,1,99,9,99,9",,,"10150,1,99999,9",,,,,,"MET057METAR FACT 111100Z 17014KT 9999 BKN035 21/15 Q1015 NOSIG=",
"68816099999","2022-01-11T12:00:00","4","-33.964806","18.601667","46.02","CAPE TOWN INTERNATIONAL, SF","FM-12","99999","V020","180,1,N,0082,1","99999,9,9,N","030000,1,9,9","+0216,1","+0137,1","10158,1",,,,,"07,1,+00800,1,06,1",,,"9,AGL   ,+99999,+99999","07,99,1,07,1,99,9,00800,1,99,9,99,9","240,M,+0244,1","240,N,+0199,1","99999,9,10104,1","9,9,001,1,+999,9",,,,"4,99,0098,1,999","SYN08668816 32580 71816 10216 20137 30104 40158 50001 875// 333 10244 20199 91019 555 91015=",
"68816099999","2022-01-11T12:00:00","4","-33.964806","18.601667","46.02","CAPE TOWN INTERNATIONAL, SF","FM-15","99999","V020","180,1,N,0082,1","00914,1,C,N","009999,1,9,9","+0220,1","+0140,1","99999,9",,,,,"07,1,+00914,1,99,9",,,"9,AGL   ,+99999,+99999","99,99,9,07,1,99,9,00914,1,99,9,99,9",,,"10160,1,99999,9",,,,,,"MET057METAR FACT 111200Z 18016KT 9999 BKN030 22/14 Q1016 NOSIG=",
"68816099999","2022-01-11T13:00:00","4","-33.964806","18.601667","46.02","CAPE TOWN INTERNATIONAL, SF","FM-15","99999","V020","170,1,V,0062,1","99999,9,9,N","009999,1,9,9","+0230,1","+0140,1","99999,9",,,,,"04,1,+00914,1,99,9",,,"9,AGL   ,+99999,+99999","99,99,9,04,1,99,9,00914,1,99,9,99,9",,,"10160,1,99999,9",,,,,,"MET065METAR FACT 111300Z 17012KT 140V200 9999 SCT030 23/14 Q1016 NOSIG=",
"68816099999","2022-01-11T14:00:00","4","-33.964806","18.601667","46.02","CAPE TOWN INTERNATIONAL, SF","FM-15","99999","V020","170,1,N,0077,1","99999,9,9,N","009999,1,9,9","+0220,1","+0130,1","99999,9",,,,,"02,1,+01067,1,99,9",,,"9,AGL   ,+99999,+99999","99,99,9,02,1,99,9,01067,1,99,9,99,9",,,"10150,1,99999,9",,,,,,"MET057METAR FACT 111400Z 17015KT 9999 FEW035 22/13 Q1015 NOSIG=",
"68816099999","2022-01-11T15:00:00","4","-33.964806","18.601667","46.02","CAPE TOWN INTERNATIONAL, SF","FM-15","99999","V020","180,1,N,0088,1","99999,9,9,N","009999,1,9,9","+0220,1","+0130,1","99999,9",,,,,"02,1,+01067,1,99,9",,,"9,AGL   ,+99999,+99999","99,99,9,02,1,99,9,01067,1,99,9,99,9",,,"10150,1,99999,9",,,,,,"MET057METAR FACT 111500Z 18017KT 9999 FEW035 22/13 Q1015 NOSIG=",
"68816099999","2022-01-11T16:00:00","4","-33.964806","18.601667","46.02","CAPE TOWN INTERNATIONAL, SF","FM-15","99999","V020","180,1,N,0088,1","99999,9,9,Y","009900,5,9,9","+0210,1","+0130,1","99999,9",,,,,,,,,,,,"10150,1,99999,9",,,,,,"MET051METAR FACT 111600Z 18017KT CAVOK 21/13 Q1015 NOSIG=",
"68816099999","2022-01-11T17:00:00","4","-33.964806","18.601667","46.02","CAPE TOWN INTERNATIONAL, SF","FM-15","99999","V020","190,1,N,0093,1","99999,9,9,Y","009900,5,9,9","+0200,1","+0130,1","99999,9",,,,,,,,,,,,"10160,1,99999,9",,,,,,"MET051METAR FACT 111700Z 19018KT CAVOK 20/13 Q1016 NOSIG=",
"68816099999","2022-01-11T18:00:00","4","-33.964806","18.601667","46.02","CAPE TOWN INTERNATIONAL, SF","FM-15","99999","V020","190,1,N,0093,1","99999,9,9,N","009999,1,9,9","+0190,1","+0130,1","99999,9",,,,,"02,1,+00914,1,99,9",,,"9,AGL   ,+99999,+99999","99,99,9,02,1,99,9,00914,1,99,9,99,9",,,"10160,1,99999,9",,,,,,"MET057METAR FACT 111800Z 19018KT 9999 FEW030 19/13 Q1016 NOSIG=",
"68816099999","2022-01-11T18:56:00","4","-33.964806","18.601667","46.02","CAPE TOWN INTERNATIONAL, SF","FM-16","99999","V020","180,1,N,0088,1","99999,9,9,N","009999,1,9,9","+0180,1","+0120,1","99999,9",,,,,"02,1,+00914,1,99,9",,,"9,AGL   ,+99999,+99999","99,99,9,02,1,99,9,00914,1,99,9,99,9",,,"10160,1,99999,9",,,,"0144,1",,"MET060SPECI FACT 111856Z 18017G28KT 9999 FEW030 18/12 Q1016 NOSIG=",
"68816099999","2022-01-11T19:00:00","4","-33.964806","18.601667","46.02","CAPE TOWN INTERNATIONAL, SF","FM-15","99999","V020","180,1,N,0088,1","99999,9,9,N","009999,1,9,9","+0180,1","+0120,1","99999,9",,,,,"02,1,+00914,1,99,9",,,"9,AGL   ,+99999,+99999","99,99,9,02,1,99,9,00914,1,99,9,99,9",,,"10160,1,99999,9",,,,"0144,1",,"MET060METAR FACT 111900Z 18017G28KT 9999 FEW030 18/12 Q1016 NOSIG=",
"68816099999","2022-01-11T20:00:00","4","-33.964806","18.601667","46.02","CAPE TOWN INTERNATIONAL, SF","FM-15","99999","V020","190,1,N,0077,1","99999,9,9,Y","009900,5,9,9","+0180,1","+0130,1","99999,9",,,,,,,,,,,,"10160,1,99999,9",,,,,,"MET051METAR FACT 112000Z 19015KT CAVOK 18/13 Q1016 NOSIG=",
"68816099999","2022-01-11T21:00:00","4","-33.964806","18.601667","46.02","CAPE TOWN INTERNATIONAL, SF","FM-15","99999","V020","190,1,N,0067,1","99999,9,9,Y","009900,5,9,9","+0180,1","+0130,1","99999,9",,,,,,,,,,,,"10160,1,99999,9",,,,,,"MET051METAR FACT 112100Z 19013KT CAVOK 18/13 Q1016 NOSIG=",
"68816099999","2022-01-11T22:00:00","4","-33.964806","18.601667","46.02","CAPE TOWN INTERNATIONAL, SF","FM-15","99999","V020","190,1,N,0077,1","99999,9,9,Y","009900,5,9,9","+0180,1","+0140,1","99999,9",,,,,,,,,,,,"10160,1,99999,9",,,,,,"MET051METAR FACT 112200Z 19015KT CAVOK 18/14 Q1016 NOSIG=",
"68816099999","2022-01-11T23:00:00","4","-33.964806","18.601667","46.02","CAPE TOWN INTERNATIONAL, SF","FM-15","99999","V020","200,1,N,0072,1","99999,9,9,Y","009900,5,9,9","+0180,1","+0130,1","99999,9",,,,,,,,,,,,"10150,1,99999,9",,,,,,"MET051METAR FACT 112300Z 20014KT CAVOK 18/13 Q1015 NOSIG=",
"68816099999","2022-01-12T00:00:00","4","-33.964806","18.601667","46.02","CAPE TOWN INTERNATIONAL, SF","FM-12","99999","V020","190,1,N,0051,1","99999,9,9,N","025000,1,9,9","+0184,1","+0133,1","10150,1",,,,,"99,9,+99999,9,00,1",,,"9,AGL   ,+99999,+99999","06,99,1,00,1,99,9,99999,9,99,9,99,9",,,"99999,9,10096,1","9,9,001,1,+999,9",,,,"4,99,0051,1,999","SYN07468816 32975 61910 10184 20133 30096 40150 50001 80002 333 91010 555 91015=","Q01    003SCCGA1"
"68816099999","2022-01-12T00:00:00","4","-33.964806","18.601667","46.02","CAPE TOWN INTERNATIONAL, SF","FM-15","99999","V020","200,1,N,0051,1","99999,9,9,Y","009900,5,9,9","+0180,1","+0130,1","99999,9",,,,,,,,,,,,"10150,1,99999,9",,,,,,"MET051METAR FACT 120000Z 20010KT CAVOK 18/13 Q1015 NOSIG=",
"68816099999","2022-01-12T01:00:00","4","-33.964806","18.601667","46.02","CAPE TOWN INTERNATIONAL, SF","FM-15","99999","V020","200,1,N,0057,1","99999,9,9,Y","009900,5,9,9","+0190,1","+0130,1","99999,9",,,,,,,,,,,,"10140,1,99999,9",,,,,,"MET051METAR FACT 120100Z 20011KT CAVOK 19/13 Q1014 NOSIG=",
"68816099999","2022-01-12T02:00:00","4","-33.964806","18.601667","46.02","CAPE TOWN INTERNATIONAL, SF","FM-15","99999","V020","180,1,N,0088,1","99999,9,9,Y","009900,5,9,9","+0190,1","+0130,1","99999,9",,,,,,,,,,,,"10130,1,99999,9",,,,,,"MET051METAR FACT 120200Z 18017KT CAVOK 19/13 Q1013 NOSIG=",
"68816099999","2022-01-12T03:00:00","4","-33.964806","18.601667","46.02","CAPE TOWN INTERNATIONAL, SF","FM-15","99999","V020","220,1,N,0057,1","99999,9,9,Y","009900,5,9,9","+0180,1","+0140,1","99999,9",,,,,,,,,,,,"10130,1,99999,9",,,,,,"MET051METAR FACT 120300Z 22011KT CAVOK 18/14 Q1013 NOSIG=",
"68816099999","2022-01-12T04:00:00","4","-33.964806","18.601667","46.02","CAPE TOWN INTERNATIONAL, SF","FM-15","99999","V020","220,1,N,0051,1","99999,9,9,Y","009900,5,9,9","+0180,1","+0140,1","99999,9",,,,,,,,,,,,"10130,1,99999,9",,,,,,"MET051METAR FACT 120400Z 22010KT CAVOK 18/14 Q1013 NOSIG=",
"68816099999","2022-01-12T05:00:00","4","-33.964806","18.601667","46.02","CAPE TOWN INTERNATIONAL, SF","FM-15","99999","V020","200,1,N,0067,1","99999,9,9,Y","009900,5,9,9","+0190,1","+0140,1","99999,9",,,,,,,,,,,,"10140,1,99999,9",,,,,,"MET051METAR FACT 120500Z 20013KT CAVOK 19/14 Q1014 NOSIG=",
"68816099999","2022-01-12T06:00:00","4","-33.964806","18.601667","46.02","CAPE TOWN INTERNATIONAL, SF","FM-12","99999","V020","190,1,N,0072,1","99999,9,9,N","030000,1,9,9","+0211,1","+0141,1","10142,1",,,,,,,,,,"240,N,+0175,1",,"99999,9,10088,1","2,1,005,1,+999,9",,,,"4,99,0098,1,999","SYN08068816 32980 01914 10211 20141 30088 40142 52005 333 20175 91019 555 10244 91014=",
"68816099999","2022-01-12T06:00:00","4","-33.964806","18.601667","46.02","CAPE TOWN INTERNATIONAL, SF","FM-15","99999","V020","190,1,N,0062,1","99999,9,9,Y","009900,5,9,9","+0210,1","+0140,1","99999,9",,,,,,,,,,,,"10140,1,99999,9",,,,,,"MET051METAR FACT 120600Z 19012KT CAVOK 21/14 Q1014 NOSIG=",
"68816099999","2022-01-12T07:00:00","4","-33.964806","18.601667","46.02","CAPE TOWN INTERNATIONAL, SF","FM-15","99999","V020","180,1,N,0077,1","99999,9,9,Y","009900,5,9,9","+0230,1","+0140,1","99999,9",,,,,,,,,,,,"10140,1,99999,9",,,,,,"MET051METAR FACT 120700Z 18015KT CAVOK 23/14 Q1014 NOSIG=",
"68816099999","2022-01-12T08:00:00","4","-33.964806","18.601667","46.02","CAPE TOWN INTERNATIONAL, SF","FM-15","99999","V020","170,1,N,0082,1","99999,9,9,Y","009900,5,9,9","+0250,1","+0140,1","99999,9",,,,,,,,,,,,"10140,1,99999,9",,,,,,"MET051METAR FACT 120800Z 17016KT CAVOK 25/14 Q1014 NOSIG=",
"68816099999","2022-01-12T09:00:00","4","-33.964806","18.601667","46.02","CAPE TOWN INTERNATIONAL, SF","FM-15","99999","V020","180,1,V,0046,1","99999,9,9,Y","009900,5,9,9","+0270,1","+0140,1","99999,9",,,,,,,,,,,,"10130,1,99999,9",,,,,,"MET059METAR FACT 120900Z 18009KT 130V220 CAVOK 27/14 Q1013 NOSIG=",
"68816099999","2022-01-12T10:00:00","4","-33.964806","18.601667","46.02","CAPE TOWN INTERNATIONAL, SF","FM-15","99999","V020","190,1,V,0036,1","99999,9,9,Y","009900,5,9,9","+0280,1","+0140,1","99999,9",,,,,,,,,,,,"10130,1,99999,9",,,,,,"MET059METAR FACT 121000Z 19007KT 150V230 CAVOK 28/14 Q1013 NOSIG=",
"68816099999","2022-01-12T11:00:00","4","-33.964806","18.601667","46.02","CAPE TOWN INTERNATIONAL, SF","FM-15","99999","V020","220,1,N,0062,1","99999,9,9,Y","009900,5,9,9","+0270,1","+0160,1","99999,9",,,,,,,,,,,,"10130,1,99999,9",,,,,,"MET051METAR FACT 121100Z 22012KT CAVOK 27/16 Q1013 NOSIG=",
"68816099999","2022-01-12T12:00:00","4","-33.964806","18.601667","46.02","CAPE TOWN INTERNATIONAL, SF","FM-12","99999","V020","220,1,N,0072,1","99999,9,9,N","026000,1,9,9","+0262,1","+0157,1","10127,1",,,,,,,,,,"240,M,+0286,1","240,N,+0211,1","99999,9,10074,1","2,1,002,1,+999,9",,,,"4,99,0088,1,999","SYN08068816 32976 02214 10262 20157 30074 40127 52002 333 10286 20211 91017 555 91012=",
"68816099999","2022-01-12T12:00:00","4","-33.964806","18.601667","46.02","CAPE TOWN INTERNATIONAL, SF","FM-15","99999","V020","210,1,N,0072,1","99999,9,9,Y","009900,5,9,9","+0270,1","+0160,1","99999,9",,,,,,,,,,,,"10130,1,99999,9",,,,,,"MET051METAR FACT 121200Z 21014KT CAVOK 27/16 Q1013 NOSIG=",
"68816099999","2022-01-12T13:00:00","4","-33.964806","18.601667","46.02","CAPE TOWN INTERNATIONAL, SF","FM-15","99999","V020","210,1,N,0072,1","99999,9,9,Y","009900,5,9,9","+0260,1","+0160,1","99999,9",,,,,,,,,,,,"10120,1,99999,9",,,,,,"MET051METAR FACT 121300Z 21014KT CAVOK 26/16 Q1012 NOSIG=",
"68816099999","2022-01-12T14:00:00","4","-33.964806","18.601667","46.02","CAPE TOWN INTERNATIONAL, SF","FM-15","99999","V020","210,1,N,0077,1","99999,9,9,Y","009900,5,9,9","+0250,1","+0160,1","99999,9",,,,,,,,,,,,"10120,1,99999,9",,,,,,"MET051METAR FACT 121400Z 21015KT CAVOK 25/16 Q1012 NOSIG=",
"68816099999","2022-01-12T15:00:00","4","-33.964806","18.601667","46.02","CAPE TOWN INTERNATIONAL, SF","FM-15","99999","V020","210,1,N,0082,1","99999,9,9,Y","009900,5,9,9","+0240,1","+0160,1","99999,9",,,,,,,,,,,,"10110,1,99999,9",,,,,,"MET051METAR FACT 121500Z 21016KT CAVOK 24/16 Q1011 NOSIG=",
"68816099999","2022-01-12T16:00:00","4","-33.964806","18.601667","46.02","CAPE TOWN INTERNATIONAL, SF","FM-15","99999","V020","210,1,N,0067,1","99999,9,9,Y","009900,5,9,9","+0230,1","+0160,1","99999,9",,,,,,,,,,,,"10110,1,99999,9",,,,,,"MET051METAR FACT 121600Z 21013KT CAVOK 23/16 Q1011 NOSIG=",
"68816099999","2022-01-12T17:00:00","4","-33.964806","18.601667","46.02","CAPE TOWN INTERNATIONAL, SF","FM-15","99999","V020","220,1,N,0067,1","99999,9,9,Y","009900,5,9,9","+0210,1","+0160,1","99999,9",,,,,,,,,,,,"10120,1,99999,9",,,,,,"MET051METAR FACT 121700Z 22013KT CAVOK 21/16 Q1012 NOSIG=",
"68816099999","2022-01-12T18:00:00","4","-33.964806","18.601667","46.02","CAPE TOWN INTERNATIONAL, SF","FM-12","99999","V020","230,1,N,0072,1","22000,1,9,N","030000,1,9,9","+0203,1","+0154,1","10122,1",,,,,"99,9,+99999,9,01,1",,,"9,AGL   ,+99999,+99999","02,99,1,00,1,99,9,99999,9,99,9,99,9","120,M,+0286,1","120,N,+0203,1","99999,9,10068,1","2,1,002,1,+999,9",,,,"4,99,0093,1,999","SYN08668816 32980 22314 10203 20154 30068 40122 52002 80009 333 10286 20203 91018 555 91012=","Q01    003SCCGA1"
"68816099999","2022-01-12T18:00:00","4","-33.964806","18.601667","46.02","CAPE TOWN INTERNATIONAL, SF","FM-15","99999","V020","230,1,N,0072,1","99999,9,9,Y","009900,5,9,9","+0210,1","+0150,1","99999,9",,,,,,,,,,,,"10120,1,99999,9",,,,,,"MET051METAR FACT 121800Z 23014KT CAVOK 21/15 Q1012 NOSIG=",
"68816099999","2022-01-12T19:00:00","4","-33.964806","18.601667","46.02","CAPE TOWN INTERNATIONAL, SF","FM-15","99999","V020","230,1,N,0077,1","99999,9,9,Y","009900,5,9,9","+0200,1","+0150,1","99999,9",,,,,,,,,,,,"10120,1,99999,9",,,,,,"MET051METAR FACT 121900Z 23015KT CAVOK 20/15 Q1012 NOSIG=",
"68816099999","2022-01-12T20:00:00","4","-33.964806","18.601667","46.02","CAPE TOWN INTERNATIONAL, SF","FM-15","99999","V020","230,1,N,0072,1","99999,9,9,Y","009900,5,9,9","+0200,1","+0150,1","99999,9",,,,,,,,,,,,"10120,1,99999,9",,,,,,"MET051METAR FACT 122000Z 23014KT CAVOK 20/15 Q1012 NOSIG=",
"68816099999","2022-01-12T21:00:00","4","-33.964806","18.601667","46.02","CAPE TOWN INTERNATIONAL, SF","FM-15","99999","V020","230,1,N,0072,1","99999,9,9,Y","009900,5,9,9","+0190,1","+0150,1","99999,9",,,,,,,,,,,,"10120,1,99999,9",,,,,,"MET051METAR FACT 122100Z 23014KT CAVOK 19/15 Q1012 NOSIG=",
"68816099999","2022-01-12T22:00:00","4","-33.964806","18.601667","46.02","CAPE TOWN INTERNATIONAL, SF","FM-15","99999","V020","220,1,N,0072,1","99999,9,9,Y","009900,5,9,9","+0200,1","+0150,1","99999,9",,,,,,,,,,,,"10120,1,99999,9",,,,,,"MET051METAR FACT 122200Z 22014KT CAVOK 20/15 Q1012 NOSIG=",
"68816099999","2022-01-12T23:00:00","4","-33.964806","18.601667","46.02","CAPE TOWN INTERNATIONAL, SF","FM-15","99999","V020","220,1,N,0062,1","99999,9,9,Y","009900,5,9,9","+0200,1","+0150,1","99999,9",,,,,,,,,,,,"10110,1,99999,9",,,,,,"MET051METAR FACT 122300Z 22012KT CAVOK 20/15 Q1011 NOSIG=",
"68816099999","2022-01-12T23:56:00","4","-33.964806","18.601667","46.02","CAPE TOWN INTERNATIONAL, SF","FM-16","99999","V020","200,1,N,0067,1","99999,9,9,Y","009900,5,9,9","+0220,1","+0150,1","99999,9",,,,,,,,,,,,"10110,1,99999,9",,,,,,"MET051SPECI FACT 122356Z 20013KT CAVOK 22/15 Q1011 NOSIG=",
"68816099999","2022-01-13T00:00:00","4","-33.964806","18.601667","46.02","CAPE TOWN INTERNATIONAL, SF","FM-12","99999","V020","200,1,N,0067,1","22000,1,9,N","020000,1,9,9","+0215,1","+0155,1","10115,1",,,,,"99,9,+99999,9,00,1",,,"9,AGL   ,+99999,+99999","01,99,1,00,1,99,9,99999,9,99,9,99,9","120,M,+0286,1","120,N,+0193,1","99999,9,10061,1","7,1,005,1,+999,9",,,,"4,99,0088,1,999","SYN08668816 32970 12013 10215 20155 30061 40115 57005 80001 333 10286 20193 91017 555 91011=","Q01    003SCCGA1"
"68816099999","2022-01-13T00:00:00","4","-33.964806","18.601667","46.02","CAPE TOWN INTERNATIONAL, SF","FM-15","99999","V020","200,1,N,0067,1","99999,9,9,Y","009900,5,9,9","+0220,1","+0150,1","99999,9",,,,,,,,,,,,"10110,1,99999,9",,,,,,"MET051METAR FACT 130000Z 20013KT CAVOK 22/15 Q1011 NOSIG=",
"68816099999","2022-01-13T02:00:00","4","-33.964806","18.601667","46.02","CAPE TOWN INTERNATIONAL, SF","FM-15","99999","V020","160,1,N,0046,1","99999,9,9,Y","009900,5,9,9","+0200,1","+0150,1","99999,9",,,,,,,,,,,,"10100,1,99999,9",,,,,,"MET051METAR FACT 130200Z 16009KT CAVOK 20/15 Q1010 NOSIG=",
"68816099999","2022-01-13T03:00:00","4","-33.964806","18.601667","46.02","CAPE TOWN INTERNATIONAL, SF","FM-12","99999","V020","180,1,N,0041,1","22000,1,9,N","020000,1,9,9","+0200,1","+0147,1","10106,1",,,,,"99,9,+99999,9,00,1",,,"9,AGL   ,+99999,+99999","01,99,1,00,1,99,9,99999,9,99,9,99,9","240,M,+0286,1","240,N,+0193,1","99999,9,10052,1","7,1,007,1,+999,9",,,,"4,99,0062,1,999","SYN07668816 42970 11808 10200 20147 30052 40106 57007 80001 333 10286 20193 91012=","Q01    003SCCGA1"
"68816099999","2022-01-13T03:00:00","4","-33.964806","18.601667","46.02","CAPE TOWN INTERNATIONAL, SF","FM-15","99999","V020","180,1,N,0036,1","99999,9,9,Y","009900,5,9,9","+0200,1","+0150,1","99999,9",,,,,,,,,,,,"10100,1,99999,9",,,,,,"MET051METAR FACT 130300Z 18007KT CAVOK 20/15 Q1010 NOSIG=",
"68816099999","2022-01-13T04:00:00","4","-33.964806","18.601667","46.02","CAPE TOWN INTERNATIONAL, SF","FM-15","99999","V020","190,1,N,0046,1","99999,9,9,Y","009900,5,9,9","+0200,1","+0150,1","99999,9",,,,,,,,,,,,"10100,1,99999,9",,,,,,"MET051METAR FACT 130400Z 19009KT CAVOK 20/15 Q1010 NOSIG=",
"68816099999","2022-01-13T05:00:00","4","-33.964806","18.601667","46.02","CAPE TOWN INTERNATIONAL, SF","FM-15","99999","V020","170,1,N,0082,1","99999,9,9,Y","009900,5,9,9","+0220,1","+0160,1","99999,9",,,,,,,,,,,,"10110,1,99999,9",,,,,,"MET051METAR FACT 130500Z 17016KT CAVOK 22/16 Q1011 NOSIG=",
"68816099999","2022-01-13T05:54:00","4","-33.964806","18.601667","46.02","CAPE TOWN INTERNATIONAL, SF","FM-16","99999","V020","160,1,N,0051,1","99999,9,9,Y","009900,5,9,9","+0250,1","+0160,1","99999,9",,,,,,,,,,,,"10110,1,99999,9",,,,,,"MET051SPECI FACT 130554Z 16010KT CAVOK 25/16 Q1011 NOSIG=",
"68816099999","2022-01-13T06:00:00","4","-33.964806","18.601667","46.02","CAPE TOWN INTERNATIONAL, SF","FM-15","99999","V020","160,1,N,0051,1","99999,9,9,Y","009900,5,9,9","+0250,1","+0160,1","99999,9",,,,,,,,,,,,"10110,1,99999,9",,,,,,"MET051METAR FACT 130600Z 16010KT CAVOK 25/16 Q1011 NOSIG=",
"68816099999","2022-01-13T07:00:00","4","-33.964806","18.601667","46.02","CAPE TOWN INTERNATIONAL, SF","FM-15","99999","V020","180,1,N,0072,1","99999,9,9,Y","009900,5,9,9","+0260,1","+0160,1","99999,9",,,,,,,,,,,,"10120,1,99999,9",,,,,,"MET051METAR FACT 130700Z 18014KT CAVOK 26/16 Q1012 NOSIG=",
"68816099999","2022-01-13T08:00:00","4","-33.964806","18.601667","46.02","CAPE TOWN INTERNATIONAL, SF","FM-15","99999","V020","170,1,N,0093,1","99999,9,9,Y","009900,5,9,9","+0260,1","+0160,1","99999,9",,,,,,,,,,,,"10120,1,99999,9",,,,,,"MET051METAR FACT 130800Z 17018KT CAVOK 26/16 Q1012 NOSIG=",
"68816099999","2022-01-13T08:24:00","4","-33.964806","18.601667","46.02","CAPE TOWN INTERNATIONAL, SF","FM-16","99999","V020","160,1,N,0093,1","99999,9,9,Y","009900,5,9,9","+0280,1","+0170,1","99999,9",,,,,,,,,,,,"10120,1,99999,9",,,,,,"MET051SPECI FACT 130824Z 16018KT CAVOK 28/17 Q1012 NOSIG=",
"68816099999","2022-01-13T09:00:00","4","-33.964806","18.601667","46.02","CAPE TOWN INTERNATIONAL, SF","FM-12","99999","V020","160,1,N,0103,1","22000,1,9,N","020000,1,9,9","+0285,1","+0164,1","10127,1",,,,,"99,9,+99999,9,00,1",,,"9,AGL   ,+99999,+99999","01,99,1,00,1,99,9,99999,9,99,9,99,9",,,"99999,9,10070,1","2,1,005,1,+999,9",,,,"4,99,0124,1,999","SYN06468816 42970 11620 10285 20164 30070 40127 52005 80001 333 91024=","Q01    003SCCGA1"
"68816099999","2022-01-13T09:00:00","4","-33.964806","18.601667","46.02","CAPE TOWN INTERNATIONAL, SF","FM-15","99999","V020","160,1,N,0103,1","99999,9,9,Y","009900,5,9,9","+0290,1","+0160,1","99999,9",,,,,,,,,,,,"10120,1,99999,9",,,,,,"MET051METAR FACT 130900Z 16020KT CAVOK 29/16 Q1012 NOSIG=",
"68816099999","2022-01-13T10:00:00","4","-33.964806","18.601667","46.02","CAPE TOWN INTERNATIONAL, SF","FM-15","99999","V020","180,1,N,0113,1","99999,9,9,Y","009900,5,9,9","+0280,1","+0170,1","99999,9",,,,,,,,,,,,"10120,1,99999,9",,,,,,"MET051METAR FACT 131000Z 18022KT CAVOK 28/17 Q1012 NOSIG=",
"68816099999","2022-01-13T11:00:00","4","-33.964806","18.601667","46.02","CAPE TOWN INTERNATIONAL, SF","FM-15","99999","V020","170,1,N,0098,1","99999,9,9,Y","009900,5,9,9","+0300,1","+0170,1","99999,9",,,,,,,,,,,,"10120,1,99999,9",,,,,,"MET051METAR FACT 131100Z 17019KT CAVOK 30/17 Q1012 NOSIG=",
"68816099999","2022-01-13T12:00:00","4","-33.964806","18.601667","46.02","CAPE TOWN INTERNATIONAL, SF","FM-12","99999","V020","170,1,N,0129,1","22000,1,9,N","030000,1,9,9","+0294,1","+0174,1","10116,1",,,,,"99,9,+99999,9,00,1",,,"9,AGL   ,+99999,+99999","02,99,1,00,1,99,9,99999,9,99,9,99,9",,,"99999,9,10063,1","2,1,005,1,+999,9",,,,"4,99,0154,1,999","SYN08068816 32980 21725 10294 20174 30063 40116 52005 80001 333 10244 91030 555 91011=","Q0124.4  2EATMX Q02    003SCCGA1"
"68816099999","2022-01-13T12:00:00","4","-33.964806","18.601667","46.02","CAPE TOWN INTERNATIONAL, SF","FM-15","99999","V020","170,1,N,0108,1","99999,9,9,Y","009900,5,9,9","+0300,1","+0170,1","99999,9",,,,,,,,,,,,"10110,1,99999,9",,,,,,"MET051METAR FACT 131200Z 17021KT CAVOK 30/17 Q1011 NOSIG=",
"68816099999","2022-01-13T13:00:00","4","-33.964806","18.601667","46.02","CAPE TOWN INTERNATIONAL, SF","FM-15","99999","V020","170,1,N,0113,1","99999,9,9,Y","009900,5,9,9","+0300,1","+0180,1","99999,9",,,,,,,,,,,,"10110,1,99999,9",,,,,,"MET051METAR FACT 131300Z 17022KT CAVOK 30/18 Q1011 NOSIG=",
"68816099999","2022-01-13T14:00:00","4","-33.964806","18.601667","46.02","CAPE TOWN INTERNATIONAL, SF","FM-15","99999","V020","170,1,N,0113,1","99999,9,9,Y","009900,5,9,9","+0300,1","+0180,1","99999,9",,,,,,,,,,,,"10110,1,99999,9",,,,,,"MET051METAR FACT 131400Z 17022KT CAVOK 30/18 Q1011 NOSIG=",
"68816099999","2022-01-13T15:00:00","4","-33.964806","18.601667","46.02","CAPE TOWN INTERNATIONAL, SF","FM-15","99999","V020","150,1,N,0108,1","99999,9,9,Y","009900,5,9,9","+0290,1","+0180,1","99999,9",,,,,,,,,,,,"10100,1,99999,9",,,,,,"MET051METAR FACT 131500Z 15021KT CAVOK 29/18 Q1010 NOSIG=",
"68816099999","2022-01-13T16:00:00","4","-33.964806","18.601667","46.02","CAPE TOWN INTERNATIONAL, SF","FM-15","99999","V020","150,1,N,0098,1","99999,9,9,Y","009900,5,9,9","+0280,1","+0180,1","99999,9",,,,,,,,,,,,"10100,1,99999,9",,,,,,"MET051METAR FACT 131600Z 15019KT CAVOK 28/18 Q1010 NOSIG=",
"68816099999","2022-01-13T17:00:00","4","-33.964806","18.601667","46.02","CAPE TOWN INTERNATIONAL, SF","FM-15","99999","V020","160,1,N,0093,1","99999,9,9,Y","009900,5,9,9","+0270,1","+0180,1","99999,9",,,,,,,,,,,,"10100,1,99999,9",,,,,,"MET051METAR FACT 131700Z 16018KT CAVOK 27/18 Q1010 NOSIG=",
"68816099999","2022-01-13T18:00:00","4","-33.964806","18.601667","46.02","CAPE TOWN INTERNATIONAL, SF","FM-12","99999","V020","140,1,N,0057,1","22000,1,9,N","030000,1,9,9","+0255,1","+0175,1","10108,1",,,,,"99,9,+99999,9,00,1",,,"9,AGL   ,+99999,+99999","01,99,1,00,1,99,9,99999,9,99,9,99,9","120,M,+0311,1",,"99999,9,10055,1","2,1,005,1,+999,9",,,,"4,99,0093,1,999","SYN08068816 32980 11411 10255 20175 30055 40108 52005 80001 333 10311 91018 555 91010=","Q01    003SCCGA1"
"68816099999","2022-01-13T18:00:00","4","-33.964806","18.601667","46.02","CAPE TOWN INTERNATIONAL, SF","FM-15","99999","V020","140,1,N,0067,1","99999,9,9,Y","009900,5,9,9","+0260,1","+0180,1","99999,9",,,,,,,,,,,,"10100,1,99999,9",,,,,,"MET051METAR FACT 131800Z 14013KT CAVOK 26/18 Q1010 NOSIG=",
"68816099999","2022-01-13T19:00:00","4","-33.964806","18.601667","46.02","CAPE TOWN INTERNATIONAL, SF","FM-15","99999","V020","150,1,N,0051,1","99999,9,9,Y","009900,5,9,9","+0240,1","+0170,1","99999,9",,,,,,,,,,,,"10110,1,99999,9",,,,,,"MET051METAR FACT 131900Z 15010KT CAVOK 24/17 Q1011 NOSIG=",
"68816099999","2022-01-13T20:00:00","4","-33.964806","18.601667","46.02","CAPE TOWN INTERNATIONAL, SF","FM-15","99999","V020","150,1,N,0031,1","99999,9,9,Y","009900,5,9,9","+0240,1","+0170,1","99999,9",,,,,,,,,,,,"10110,1,99999,9",,,,,,"MET051METAR FACT 132000Z 15006KT CAVOK 24/17 Q1011 NOSIG=",
"68816099999","2022-01-13T21:00:00","4","-33.964806","18.601667","46.02","CAPE TOWN INTERNATIONAL, SF","FM-15","99999","V020","160,1,N,0036,1","99999,9,9,Y","009900,5,9,9","+0230,1","+0170,1","99999,9",,,,,,,,,,,,"10110,1,99999,9",,,,,,"MET051METAR FACT 132100Z 16007KT CAVOK 23/17 Q1011 NOSIG=",
"68816099999","2022-01-13T22:00:00","4","-33.964806","18.601667","46.02","CAPE TOWN INTERNATIONAL, SF","FM-15","99999","V020","190,1,N,0072,1","99999,9,9,Y","009900,5,9,9","+0220,1","+0170,1","99999,9",,,,,,,,,,,,"10110,1,99999,9",,,,,,"MET051METAR FACT 132200Z 19014KT CAVOK 22/17 Q1011 NOSIG=",
"68816099999","2022-01-13T23:00:00","4","-33.964806","18.601667","46.02","CAPE TOWN INTERNATIONAL, SF","FM-15","99999","V020","200,1,N,0046,1","99999,9,9,Y","009900,5,9,9","+0220,1","+0170,1","99999,9",,,,,,,,,,,,"10100,1,99999,9",,,,,,"MET051METAR FACT 132300Z 20009KT CAVOK 22/17 Q1010 NOSIG=",
"68816099999","2022-01-14T00:00:00","4","-33.964806","18.601667","46.02","CAPE TOWN INTERNATIONAL, SF","FM-12","99999","V020","200,1,N,0057,1","22000,1,9,N","029000,1,9,9","+0219,1","+0169,1","10100,1",,,,,"99,9,+99999,9,00,1",,,"9,AGL   ,+99999,+99999","01,99,1,00,1,99,9,99999,9,99,9,99,9","120,M,+0255,1","120,N,+0218,1","99999,9,10046,1","2,1,005,1,+999,9",,,,"4,99,0072,1,999","SYN08668816 32979 12011 10219 20169 30046 40100 52005 80001 333 10255 20218 91014 555 91010=","Q01    003SCCGA1"
"68816099999","2022-01-14T00:00:00","4","-33.964806","18.601667","46.02","CAPE TOWN INTERNATIONAL, SF","FM-15","99999","V020","200,1,N,0057,1","99999,9,9,Y","009900,5,9,9","+0220,1","+0170,1","99999,9",,,,,,,,,,,,"10100,1,99999,9",,,,,,"MET051METAR FACT 140000Z 20011KT CAVOK 22/17 Q1010 NOSIG=",
"68816099999","2022-01-14T01:00:00","4","-33.964806","18.601667","46.02","CAPE TOWN INTERNATIONAL, SF","FM-15","99999","V020","210,1,N,0046,1","99999,9,9,Y","009900,5,9,9","+0210,1","+0170,1","99999,9",,,,,,,,,,,,"10090,1,99999,9",,,,,,"MET051METAR FACT 140100Z 21009KT CAVOK 21/17 Q1009 NOSIG=",
"68816099999","2022-01-14T02:00:00","4","-33.964806","18.601667","46.02","CAPE TOWN INTERNATIONAL, SF","FM-15","99999","V020","200,1,N,0041,1","99999,9,9,Y","009900,5,9,9","+0220,1","+0170,1","99999,9",,,,,,,,,,,,"10090,1,99999,9",,,,,,"MET051METAR FACT 140200Z 20008KT CAVOK 22/17 Q1009 NOSIG=",
"68816099999","2022-01-14T03:00:00","4","-33.964806","18.601667","46.02","CAPE TOWN INTERNATIONAL, SF","FM-12","99999","V020","180,1,N,0041,1","22000,1,9,N","040000,1,9,9","+0207,1","+0168,1","10090,1",,,,,"99,9,+99999,9,00,1",,,"9,AGL   ,+99999,+99999","01,99,1,00,1,99,9,99999,9,99,9,99,9","240,M,+0219,1","240,N,+0207,1","99999,9,10036,1","2,1,005,1,+999,9",,,,"4,99,0046,1,999","SYN07668816 42982 11808 10207 20168 30036 40090 52005 80001 333 10219 20207 91009=","Q01    003SCCGA1"
"68816099999","2022-01-14T03:00:00","4","-33.964806","18.601667","46.02","CAPE TOWN INTERNATIONAL, SF","FM-15","99999","V020","180,1,N,0041,1","99999,9,9,Y","009900,5,9,9","+0210,1","+0170,1","99999,9",,,,,,,,,,,,"10090,1,99999,9",,,,,,"MET051METAR FACT 140300Z 18008KT CAVOK 21/17 Q1009 NOSIG=",
"68816099999","2022-01-14T04:00:00","4","-33.964806","18.601667","46.02","CAPE TOWN INTERNATIONAL, SF","FM-15","99999","V020","180,1,N,0026,1","99999,9,9,Y","009900,5,9,9","+0200,1","+0170,1","99999,9",,,,,,,,,,,,"10090,1,99999,9",,,,,,"MET051METAR FACT 140400Z 18005KT CAVOK 20/17 Q1009 NOSIG=",
"68816099999","2022-01-14T04:58:00","4","-33.964806","18.601667","46.02","CAPE TOWN INTERNATIONAL, SF","FM-16","99999","V020","999,9,V,0010,1","99999,9,9,Y","009900,5,9,9","+0220,1","+0170,1","99999,9",,,,,,,,,,,,"10100,1,99999,9",,,,,,"MET051SPECI FACT 140458Z VRB02KT CAVOK 22/17 Q1010 NOSIG=",
"68816099999","2022-01-14T05:00:00","4","-33.964806","18.601667","46.02","CAPE TOWN INTERNATIONAL, SF","FM-15","99999","V020","999,9,V,0010,1","99999,9,9,Y","009900,5,9,9","+0220,1","+0170,1","99999,9",,,,,,,,,,,,"10100,1,99999,9",,,,,,"MET051METAR FACT 140500Z VRB02KT CAVOK 22/17 Q1010 NOSIG=",
"68816099999","2022-01-14T05:55:00","4","-33.964806","18.601667","46.02","CAPE TOWN INTERNATIONAL, SF","FM-16","99999","V020","130,1,V,0021,1","99999,9,9,Y","009900,5,9,9","+0250,1","+0180,1","99999,9",,,,,,,,,,,,"10100,1,99999,9",,,,,,"MET059SPECI FACT 140555Z 13004KT 100V170 CAVOK 25/18 Q1010 NOSIG=",
"68816099999","2022-01-14T06:00:00","4","-33.964806","18.601667","46.02","CAPE TOWN INTERNATIONAL, SF","FM-12","99999","V020","130,1,N,0021,1","99999,9,9,N","030000,1,9,9","+0248,1","+0178,1","10108,1",,,,,,,,,,"240,N,+0195,1",,"99999,9,10053,1","2,1,009,1,+999,9",,,,"4,99,0031,1,999","SYN08068816 32980 01304 10248 20178 30053 40108 52009 333 20195 91006 555 10311 91010=",
"68816099999","2022-01-14T06:00:00","4","-33.964806","18.601667","46.02","CAPE TOWN INTERNATIONAL, SF","FM-15","99999","V020","130,1,V,0021,1","99999,9,9,Y","009900,5,9,9","+0250,1","+0180,1","99999,9",,,,,,,,,,,,"10100,1,99999,9",,,,,,"MET059METAR FACT 140600Z 13004KT 100V170 CAVOK 25/18 Q1010 NOSIG=",
"68816099999","2022-01-14T06:54:00","4","-33.964806","18.601667","46.02","CAPE TOWN INTERNATIONAL, SF","FM-16","99999","V020","190,1,V,0026,1","99999,9,9,Y","009900,5,9,9","+0280,1","+0170,1","99999,9",,,,,,,,,,,,"10100,1,99999,9",,,,,,"MET059SPECI FACT 140654Z 19005KT 160V220 CAVOK 28/17 Q1010 NOSIG=",
"68816099999","2022-01-14T07:00:00","4","-33.964806","18.601667","46.02","CAPE TOWN INTERNATIONAL, SF","FM-15","99999","V020","190,1,V,0026,1","99999,9,9,Y","009900,5,9,9","+0280,1","+0170,1","99999,9",,,,,,,,,,,,"10100,1,99999,9",,,,,,"MET059METAR FACT 140700Z 19005KT 160V220 CAVOK 28/17 Q1010 NOSIG=",
"68816099999","2022-01-14T08:00:00","4","-33.964806","18.601667","46.02","CAPE TOWN INTERNATIONAL, SF","FM-15","99999","V020","999,9,V,0015,1","99999,9,9,Y","009900,5,9,9","+0290,1","+0170,1","99999,9",,,,,,,,,,,,"10100,1,99999,9",,,,,,"MET051METAR FACT 140800Z VRB03KT CAVOK 29/17 Q1010 NOSIG=",
"68816099999","2022-01-14T08:25:00","4","-33.964806","18.601667","46.02","CAPE TOWN INTERNATIONAL, SF","FM-16","99999","V020","999,9,V,0010,1","99999,9,9,Y","009900,5,9,9","+0310,1","+0180,1","99999,9",,,,,,,,,,,,"10100,1,99999,9",,,,,,"MET051SPECI FACT 140825Z VRB02KT CAVOK 31/18 Q1010 NOSIG=",
"68816099999","2022-01-14T09:00:00","4","-33.964806","18.601667","46.02","CAPE TOWN INTERNATIONAL, SF","FM-12","99999","V020","260,1,N,0015,1","99999,9,9,N","030000,1,9,9","+0319,1","+0175,1","10098,1",,,,,,,,,,"240,N,+0195,1",,"99999,9,10046,1","7,1,009,1,+999,9",,,,"4,99,0026,1,999","SYN06468816 42980 02603 10319 20175 30046 40098 57009 333 20195 91005=",
"68816099999","2022-01-14T09:00:00","4","-33.964806","18.601667","46.02","CAPE TOWN INTERNATIONAL, SF","FM-15","99999","V020","240,1,V,0021,1","99999,9,9,Y","009900,5,9,9","+0320,1","+0180,1","99999,9",,,,,,,,,,,,"10100,1,99999,9",,,,,,"MET059METAR FACT 140900Z 24004KT 150V300 CAVOK 32/18 Q1010 NOSIG=",
"68816099999","2022-01-14T10:00:00","4","-33.964806","18.601667","46.02","CAPE TOWN INTERNATIONAL, SF","FM-15","99999","V020","170,1,V,0036,1","99999,9,9,Y","009900,5,9,9","+0310,1","+0170,1","99999,9",,,,,,,,,,,,"10100,1,99999,9",,,,,,"MET059METAR FACT 141000Z 17007KT 140V230 CAVOK 31/17 Q1010 NOSIG=",
"68816099999","2022-01-14T11:00:00","4","-33.964806","18.601667","46.02","CAPE TOWN INTERNATIONAL, SF","FM-15","99999","V020","999,9,V,0021,1","99999,9,9,Y","009900,5,9,9","+0330,1","+0180,1","99999,9",,,,,,,,,,,,"10100,1,99999,9",,,,,,"MET051METAR FACT 141100Z VRB04KT CAVOK 33/18 Q1010 NOSIG=",
"68816099999","2022-01-14T12:00:00","4","-33.964806","18.601667","46.02","CAPE TOWN INTERNATIONAL, SF","FM-12","99999","V020","340,1,N,0036,1","99999,9,9,N","045000,1,9,9","+0331,1","+0178,1","10091,1",,,,,,,,,,"240,N,+0248,1",,"99999,9,10039,1","7,1,009,1,+999,9",,,,"4,99,0051,1,999","SYN07468816 32983 03407 10331 20178 30039 40091 57009 333 20248 91010 555 91009=",
"68816099999","2022-01-14T12:00:00","4","-33.964806","18.601667","46.02","CAPE TOWN INTERNATIONAL, SF","FM-15","99999","V020","310,1,V,0031,1","99999,9,9,Y","009900,5,9,9","+0330,1","+0180,1","99999,9",,,,,,,,,,,,"10090,1,99999,9",,,,,,"MET059METAR FACT 141200Z 31006KT 270V350 CAVOK 33/18 Q1009 NOSIG=",
"68816099999","2022-01-14T13:00:00","4","-33.964806","18.601667","46.02","CAPE TOWN INTERNATIONAL, SF","FM-15","99999","V020","280,1,V,0036,1","99999,9,9,Y","009900,5,9,9","+0340,1","+0170,1","99999,9",,,,,,,,,,,,"10090,1,99999,9",,,,,,"MET059METAR FACT 141300Z 28007KT 240V310 CAVOK 34/17 Q1009 NOSIG=",
"68816099999","2022-01-14T14:00:00","4","-33.964806","18.601667","46.02","CAPE TOWN INTERNATIONAL, SF","FM-15","99999","V020","320,1,N,0051,1","99999,9,9,Y","009900,5,9,9","+0320,1","+0180,1","99999,9",,,,,,,,,,,,"10080,1,99999,9",,,,,,"MET051METAR FACT 141400Z 32010KT CAVOK 32/18 Q1008 NOSIG=",
"68816099999","2022-01-14T15:00:00","4","-33.964806","18.601667","46.02","CAPE TOWN INTERNATIONAL, SF","FM-15","99999","V020","330,1,N,0046,1","99999,9,9,Y","009900,5,9,9","+0290,1","+0180,1","99999,9",,,,,,,,,,,,"10080,1,99999,9",,,,,,"MET051METAR FACT 141500Z 33009KT CAVOK 29/18 Q1008 NOSIG=",
"68816099999","2022-01-14T16:00:00","4","-33.964806","18.601667","46.02","CAPE TOWN INTERNATIONAL, SF","FM-15","99999","V020","320,1,N,0041,1","99999,9,9,Y","009900,5,9,9","+0270,1","+0180,1","99999,9",,,,,,,,,,,,"10080,1,99999,9",,,,,,"MET051METAR FACT 141600Z 32008KT CAVOK 27/18 Q1008 NOSIG=",
"68816099999","2022-01-14T17:00:00","4","-33.964806","18.601667","46.02","CAPE TOWN INTERNATIONAL, SF","FM-15","99999","V020","300,1,V,0031,1","99999,9,9,Y","009900,5,9,9","+0260,1","+0180,1","99999,9",,,,,,,,,,,,"10080,1,99999,9",,,,,,"MET059METAR FACT 141700Z 30006KT 260V320 CAVOK 26/18 Q1008 NOSIG=",
"68816099999","2022-01-14T18:00:00","4","-33.964806","18.601667","46.02","CAPE TOWN INTERNATIONAL, SF","FM-12","99999","V020","310,1,N,0031,1","22000,1,9,N","020000,1,9,9","+0238,1","+0176,1","10080,1",,,,,"99,9,+99999,9,00,1",,,"9,AGL   ,+99999,+99999","03,99,1,00,1,99,9,99999,9,99,9,99,9","120,M,+0346,1","120,N,+0195,1","99999,9,10026,1","7,1,009,1,+999,9",,,,"4,99,0026,1,999","SYN08668816 32970 33106 10238 20176 30026 40080 57009 80001 333 10346 20195 91005 555 91008=","Q01    003SCCGA1"
"68816099999","2022-01-14T18:00:00","4","-33.964806","18.601667","46.02","CAPE TOWN INTERNATIONAL, SF","FM-15","99999","V020","300,1,V,0031,1","99999,9,9,Y","009900,5,9,9","+0240,1","+0180,1","99999,9",,,,,,,,,,,,"10080,1,99999,9",,,,,,"MET059METAR FACT 141800Z 30006KT 250V060 CAVOK 24/18 Q1008 NOSIG=",
"68816099999","2022-01-14T19:00:00","4","-33.964806","18.601667","46.02","CAPE TOWN INTERNATIONAL, SF","FM-15","99999","V020","300,1,N,0026,1","99999,9,9,Y","009900,5,9,9","+0220,1","+0170,1","99999,9",,,,,,,,,,,,"10080,1,99999,9",,,,,,"MET051METAR FACT 141900Z 30005KT CAVOK 22/17 Q1008 NOSIG=",
"68816099999","2022-01-14T20:00:00","4","-33.964806","18.601667","46.02","CAPE TOWN INTERNATIONAL, SF","FM-15","99999","V020","310,1,N,0036,1","99999,9,9,Y","009900,5,9,9","+0200,1","+0170,1","99999,9",,,,,,,,,,,,"10080,1,99999,9",,,,,,"MET051METAR FACT 142000Z 31007KT CAVOK 20/17 Q1008 NOSIG=",
"68816099999","2022-01-14T21:00:00","4","-33.964806","18.601667","46.02","CAPE TOWN INTERNATIONAL, SF","FM-12","99999","V020","320,1,N,0057,1","99999,9,9,N","020000,1,9,9","+0197,1","+0169,1","10091,1",,,,,,,,,,"240,M,+0346,1",,"99999,9,10035,1","2,1,009,1,+999,9",,,,"4,99,0077,1,999","SYN06468816 42970 03211 10197 20169 30035 40091 52009 333 10346 91015=",
"68816099999","2022-01-14T21:00:00","4","-33.964806","18.601667","46.02","CAPE TOWN INTERNATIONAL, SF","FM-15","99999","V020","320,1,N,0057,1","99999,9,9,Y","009900,5,9,9","+0200,1","+0170,1","99999,9",,,,,,,,,,,,"10090,1,99999,9",,,,,,"MET051METAR FACT 142100Z 32011KT CAVOK 20/17 Q1009 NOSIG=",
"68816099999","2022-01-14T22:00:00","4","-33.964806","18.601667","46.02","CAPE TOWN INTERNATIONAL, SF","FM-15","99999","V020","320,1,N,0077,1","99999,9,9,N","009999,1,9,9","+0180,1","+0160,1","99999,9",,,,,"04,1,+00091,1,99,9",,,"9,AGL   ,+99999,+99999","99,99,9,04,1,99,9,00091,1,99,9,99,9",,,"10090,1,99999,9",,,,,,"MET068METAR COR FACT 142200Z 32015KT 9999 SCT003 18/16 Q1009 TEMPO BKN003=",
"68816099999","2022-01-14T22:12:00","4","-33.964806","18.601667","46.02","CAPE TOWN INTERNATIONAL, SF","FM-16","99999","V020","330,1,N,0077,1","00091,1,C,N","009999,1,9,9","+0170,1","+0170,1","99999,9",,,,,"07,1,+00091,1,99,9",,,"9,AGL   ,+99999,+99999","99,99,9,07,1,99,9,00091,1,99,9,99,9",,,"10090,1,99999,9",,,,,,"MET069SPECI FACT 142212Z 33015KT 9999 BKN003 17/17 Q1009 TEMPO TS FEW040CB=",
"68816099999","2022-01-14T23:00:00","4","-33.964806","18.601667","46.02","CAPE TOWN INTERNATIONAL, SF","FM-15","99999","V020","340,1,N,0072,1","00091,1,C,N","009999,1,9,9","+0170,1","+0170,1","99999,9",,,,,"07,1,+00091,1,99,9",,,"9,AGL   ,+99999,+99999","99,99,9,07,1,99,9,00091,1,99,9,99,9",,,"10090,1,99999,9",,,,,,"MET069METAR FACT 142300Z 34014KT 9999 BKN003 17/17 Q1009 TEMPO TS FEW040CB=",
"68816099999","2022-01-14T23:57:00","4","-33.964806","18.601667","46.02","CAPE TOWN INTERNATIONAL, SF","FM-16","99999","V020","340,1,N,0077,1","00091,1,C,N","005000,1,9,9","+0170,1","+0170,1","99999,9",,,,,"08,1,+00091,1,99,9",,,"9,AGL   ,+99999,+99999","99,99,9,08,1,99,9,00091,1,99,9,99,9",,,"10090,1,99999,9",,"10,1","51,1",,,"MET069SPECI FACT 142357Z 34015KT 5000 -DZ BR OVC003 17/17 Q1009 TEMPO 3000=",
"68816099999","2022-01-15T00:00:00","4","-33.964806","18.601667","46.02","CAPE TOWN INTERNATIONAL, SF","FM-15","99999","V020","340,1,N,0077,1","00091,1,C,N","005000,1,9,9","+0170,1","+0170,1","99999,9",,,,,"08,1,+00091,1,99,9",,,"9,AGL   ,+99999,+99999","99,99,9,08,1,99,9,00091,1,99,9,99,9",,,"10090,1,99999,9",,"10,1","51,1",,,"MET069METAR FACT 150000Z 34015KT 5000 -DZ BR OVC003 17/17 Q1009 TEMPO 3000=",
"68816099999","2022-01-15T00:55:00","4","-33.964806","18.601667","46.02","CAPE TOWN INTERNATIONAL, SF","FM-16","99999","V020","330,1,N,0072,1","00091,1,C,N","002000,1,9,9","+0170,1","+0170,1","99999,9",,,,,"08,1,+00091,1,99,9",,,"9,AGL   ,+99999,+99999","99,99,9,08,1,99,9,00091,1,99,9,99,9",,,"10090,1,99999,9",,"10,1","51,1",,,"MET072SPECI FACT 150055Z 33014KT 2000 -DZ BR OVC003 17/17 Q1009 TEMPO 0800 FG=",
"68816099999","2022-01-15T01:00:00","4","-33.964806","18.601667","46.02","CAPE TOWN INTERNATIONAL, SF","FM-15","99999","V020","330,1,N,0072,1","00091,1,C,N","002000,1,9,9","+0170,1","+0170,1","99999,9",,,,,"08,1,+00091,1,99,9",,,"9,AGL   ,+99999,+99999","99,99,9,08,1,99,9,00091,1,99,9,99,9",,,"10090,1,99999,9",,"10,1","51,1",,,"MET072METAR FACT 150100Z 33014KT 2000 -DZ BR OVC003 17/17 Q1009 TEMPO 0800 FG=",
"68816099999","2022-01-15T01:30:00","4","-33.964806","18.601667","46.02","CAPE TOWN INTERNATIONAL, SF","FM-16","99999","V020","340,1,N,0062,1","00091,1,C,N","006000,1,9,9","+0170,1","+0170,1","99999,9",,,,,"07,1,+00091,1,99,9",,,"9,AGL   ,+99999,+99999","99,99,9,07,1,99,9,00091,1,99,9,99,9",,,"10090,1,99999,9",,,,,,"MET065SPECI FACT 150130Z 34012KT 6000 BKN003 17/17 Q1009 TEMPO 3000 BR=",
"68816099999","2022-01-15T02:00:00","4","-33.964806","18.601667","46.02","CAPE TOWN INTERNATIONAL, SF","FM-15","99999","V020","350,1,N,0072,1","00091,1,C,N","006000,1,9,9","+0170,1","+0170,1","99999,9",,,,,"07,1,+00091,1,99,9",,,"9,AGL   ,+99999,+99999","99,99,9,07,1,99,9,00091,1,99,9,99,9",,,"10090,1,99999,9",,,,,,"MET065METAR FACT 150200Z 35014KT 6000 BKN003 17/17 Q1009 TEMPO 3000 BR=",
"68816099999","2022-01-15T02:25:00","4","-33.964806","18.601667","46.02","CAPE TOWN INTERNATIONAL, SF","FM-16","99999","V020","350,1,V,0051,1","00305,1,9,N","009999,1,9,9","+0180,1","+0170,1","99999,9",,,,,"04,1,+00152,1,99,9","07,1,+00305,1,99,9",,"9,AGL   ,+99999,+99999","99,99,9,04,1,99,9,00152,1,99,9,99,9",,,"10090,1,99999,9",,,,,,"MET072SPECI FACT 150225Z 35010KT 320V020 9999 SCT005 BKN010 18/17 Q1009 NOSIG=",
"68816099999","2022-01-15T02:56:00","4","-33.964806","18.601667","46.02","CAPE TOWN INTERNATIONAL, SF","FM-16","99999","V020","330,1,N,0062,1","00366,1,9,N","009999,1,9,9","+0180,1","+0170,1","99999,9",,,,,"04,1,+00244,1,99,9","07,1,+00366,1,99,9",,"9,AGL   ,+99999,+99999","99,99,9,04,1,99,9,00244,1,99,9,99,9",,,"10090,1,99999,9",,,,,,"MET064SPECI FACT 150256Z 33012KT 9999 SCT008 BKN012 18/17 Q1009 NOSIG=",
"68816099999","2022-01-15T03:00:00","4","-33.964806","18.601667","46.02","CAPE TOWN INTERNATIONAL, SF","FM-12","99999","V020","330,1,N,0062,1","99999,9,9,N","020000,1,9,9","+0180,1","+0166,1","10097,1",,,,,"07,1,+00250,1,06,1",,,"9,AGL   ,+99999,+99999","07,99,1,07,1,99,9,00250,1,99,9,99,9","240,M,+0346,1",,"99999,9,10042,1",,,,,"4,99,0088,1,999","SYN07068816 42370 73312 10180 20166 30042 40097 54001 875// 333 10346 91017=","Q014     3APCTENQ02.1    3APC3  "
"68816099999","2022-01-15T03:00:00","4","-33.964806","18.601667","46.02","CAPE TOWN INTERNATIONAL, SF","FM-15","99999","V020","330,1,N,0062,1","00366,1,9,N","009999,1,9,9","+0180,1","+0170,1","99999,9",,,,,"04,1,+00244,1,99,9","07,1,+00366,1,99,9",,"9,AGL   ,+99999,+99999","99,99,9,04,1,99,9,00244,1,99,9,99,9",,,"10090,1,99999,9",,,,,,"MET064METAR FACT 150300Z 33012KT 9999 SCT008 BKN012 18/17 Q1009 NOSIG=",
"68816099999","2022-01-15T03:25:00","4","-33.964806","18.601667","46.02","CAPE TOWN INTERNATIONAL, SF","FM-16","99999","V020","330,1,N,0051,1","99999,9,9,N","009999,1,9,9","+0180,1","+0170,1","99999,9",,,,,"04,1,+00305,1,99,9",,,"9,AGL   ,+99999,+99999","99,99,9,04,1,99,9,00305,1,99,9,99,9",,,"10090,1,99999,9",,,,,,"MET057SPECI FACT 150325Z 33010KT 9999 SCT010 18/17 Q1009 NOSIG=",
"68816099999","2022-01-15T03:27:00","4","-33.964806","18.601667","46.02","CAPE TOWN INTERNATIONAL, SF","FM-16","99999","V020","330,1,N,0051,1","99999,9,9,N","009999,1,9,9","+0180,1","+0170,1","99999,9",,,,,"04,1,+00305,1,99,9",,,"9,AGL   ,+99999,+99999","99,99,9,04,1,99,9,00305,1,99,9,99,9",,,"10090,1,99999,9",,,,,,"MET064SPECI FACT 150327Z 33010KT 9999 SCT010 18/17 Q1009 TEMPO BKN010=",
"68816099999","2022-01-15T04:00:00","4","-33.964806","18.601667","46.02","CAPE TOWN INTERNATIONAL, SF","FM-15","99999","V020","350,1,N,0046,1","99999,9,9,N","009999,1,9,9","+0180,1","+0160,1","99999,9",,,,,"04,1,+00305,1,99,9",,,"9,AGL   ,+99999,+99999","99,99,9,04,1,99,9,00305,1,99,9,99,9",,,"10100,1,99999,9",,,,,,"MET064METAR FACT 150400Z 35009KT 9999 SCT010 18/16 Q1010 TEMPO BKN010=",
"68816099999","2022-01-15T05:00:00","4","-33.964806","18.601667","46.02","CAPE TOWN INTERNATIONAL, SF","FM-15","99999","V020","360,1,N,0051,1","00305,1,C,N","009999,1,9,9","+0200,1","+0160,1","99999,9",,,,,"07,1,+00305,1,99,9",,,"9,AGL   ,+99999,+99999","99,99,9,07,1,99,9,00305,1,99,9,99,9",,,"10100,1,99999,9",,,,,,"MET057METAR FACT 150500Z 36010KT 9999 BKN010 20/16 Q1010 NOSIG=",
"68816099999","2022-01-15T05:59:00","4","-33.964806","18.601667","46.02","CAPE TOWN INTERNATIONAL, SF","FM-16","99999","V020","350,1,N,0057,1","00457,1,C,N","009999,1,9,9","+0210,1","+0170,1","99999,9",,,,,"07,1,+00457,1,99,9",,,"9,AGL   ,+99999,+99999","99,99,9,07,1,99,9,00457,1,99,9,99,9",,,"10100,1,99999,9",,,,,,"MET057SPECI FACT 150559Z 35011KT 9999 BKN015 21/17 Q1010 NOSIG=",
"68816099999","2022-01-15T06:00:00","4","-33.964806","18.601667","46.02","CAPE TOWN INTERNATIONAL, SF","FM-12","99999","V020","350,1,N,0057,1","99999,9,9,N","030000,1,9,9","+0213,1","+0166,1","10107,1",,,,,"07,1,+00450,1,06,1",,,"9,AGL   ,+99999,+99999","07,99,1,07,1,99,9,00450,1,99,9,99,9","240,N,+0170,1",,"99999,9,10053,1","2,1,013,1,+999,9",,,,"4,99,0067,1,999","SYN08668816 43480 73511 10213 20166 30053 40107 52013 875// 333 20170 91013 555 10346 91010=",
"68816099999","2022-01-15T06:00:00","4","-33.964806","18.601667","46.02","CAPE TOWN INTERNATIONAL, SF","FM-15","99999","V020","350,1,N,0057,1","00457,1,C,N","009999,1,9,9","+0210,1","+0170,1","99999,9",,,,,"07,1,+00457,1,99,9",,,"9,AGL   ,+99999,+99999","99,99,9,07,1,99,9,00457,1,99,9,99,9",,,"10100,1,99999,9",,,,,,"MET057METAR FACT 150600Z 35011KT 9999 BKN015 21/17 Q1010 NOSIG=",
"68816099999","2022-01-15T06:26:00","4","-33.964806","18.601667","46.02","CAPE TOWN INTERNATIONAL, SF","FM-16","99999","V020","340,1,N,0057,1","00518,1,C,N","009999,1,9,9","+0220,1","+0170,1","99999,9",,,,,"07,1,+00518,1,99,9",,,"9,AGL   ,+99999,+99999","99,99,9,07,1,99,9,00518,1,99,9,99,9",,,"10100,1,99999,9",,,,,,"MET057SPECI FACT 150626Z 34011KT 9999 BKN017 22/17 Q1010 NOSIG=",
"68816099999","2022-01-15T07:00:00","4","-33.964806","18.601667","46.02","CAPE TOWN INTERNATIONAL, SF","FM-15","99999","V020","350,1,N,0057,1","99999,9,9,N","009999,1,9,9","+0230,1","+0170,1","99999,9",,,,,"02,1,+00610,1,99,9",,,"9,AGL   ,+99999,+99999","99,99,9,02,1,99,9,00610,1,99,9,99,9",,,"10100,1,99999,9",,,,,,"MET057METAR FACT 150700Z 35011KT 9999 FEW020 23/17 Q1010 NOSIG=",
"68816099999","2022-01-15T07:30:00","4","-33.964806","18.601667","46.02","CAPE TOWN INTERNATIONAL, SF","FM-16","99999","V020","350,1,V,0067,1","99999,9,9,N","009999,1,9,9","+0250,1","+0170,1","99999,9",,,,,"02,1,+00762,1,99,9",,,"9,AGL   ,+99999,+99999","99,99,9,02,1,99,9,00762,1,99,9,99,9",,,"10090,1,99999,9",,,,,,"MET065SPECI FACT 150730Z 35013KT 320V020 9999 FEW025 25/17 Q1009 NOSIG=",
"68816099999","2022-01-15T08:00:00","4","-33.964806","18.601667","46.02","CAPE TOWN INTERNATIONAL, SF","FM-15","99999","V020","330,1,V,0062,1","99999,9,9,Y","009900,5,9,9","+0250,1","+0170,1","99999,9",,,,,,,,,,,,"10100,1,99999,9",,,,,,"MET059METAR FACT 150800Z 33012KT 300V360 CAVOK 25/17 Q1010 NOSIG=",
"68816099999","2022-01-15T09:00:00","4","-33.964806","18.601667","46.02","CAPE TOWN INTERNATIONAL, SF","FM-15","99999","V020","310,1,N,0067,1","99999,9,9,Y","009900,5,9,9","+0240,1","+0180,1","99999,9",,,,,,,,,,,,"10100,1,99999,9",,,,,,"MET051METAR FACT 150900Z 31013KT CAVOK 24/18 Q1010 NOSIG=",
"68816099999","2022-01-15T10:00:00","4","-33.964806","18.601667","46.02","CAPE TOWN INTERNATIONAL, SF","FM-15","99999","V020","310,1,N,0072,1","99999,9,9,Y","009900,5,9,9","+0250,1","+0180,1","99999,9",,,,,,,,,,,,"10090,1,99999,9",,,,,,"MET051METAR FACT 151000Z 31014KT CAVOK 25/18 Q1009 NOSIG=",
"68816099999","2022-01-15T10:59:00","4","-33.964806","18.601667","46.02","CAPE TOWN INTERNATIONAL, SF","FM-16","99999","V020","310,1,N,0082,1","99999,9,9,Y","009900,5,9,9","+0270,1","+0180,1","99999,9",,,,,,,,,,,,"10090,1,99999,9",,,,,,"MET051SPECI FACT 151059Z 31016KT CAVOK 27/18 Q1009 NOSIG=",
"68816099999","2022-01-15T11:00:00","4","-33.964806","18.601667","46.02","CAPE TOWN INTERNATIONAL, SF","FM-15","99999","V020","310,1,N,0082,1","99999,9,9,Y","009900,5,9,9","+0270,1","+0180,1","99999,9",,,,,,,,,,,,"10090,1,99999,9",,,,,,"MET051METAR FACT 151100Z 31016KT CAVOK 27/18 Q1009 NOSIG=",
"68816099999","2022-01-15T12:00:00","4","-33.964806","18.601667","46.02","CAPE TOWN INTERNATIONAL, SF","FM-12","99999","V020","320,1,N,0082,1","22000,1,9,N","030000,1,9,9","+0255,1","+0173,1","10089,1",,,,,"02,1,+99999,9,03,1","99,9,+99999,9,00,1",,"9,AGL   ,+99999,+99999","02,99,1,02,1,99,9,99999,9,99,9,99,9","240,M,+0267,1","240,N,+0214,1","99999,9,10037,1","7,1,006,1,+999,9",,,,"4,99,0113,1,999","SYN08668816 32980 23216 10255 20173 30037 40089 57006 82082 333 10267 20214 91022 555 91008=",
"68816099999","2022-01-15T12:00:00","4","-33.964806","18.601667","46.02","CAPE TOWN INTERNATIONAL, SF","FM-15","99999","V020","310,1,N,0082,1","99999,9,9,Y","009900,5,9,9","+0260,1","+0170,1","99999,9",,,,,,,,,,,,"10090,1,99999,9",,,,,,"MET051METAR FACT 151200Z 31016KT CAVOK 26/17 Q1009 NOSIG=",
"68816099999","2022-01-15T13:00:00","4","-33.964806","18.601667","46.02","CAPE TOWN INTERNATIONAL, SF","FM-15","99999","V020","310,1,N,0088,1","99999,9,9,Y","009900,5,9,9","+0250,1","+0170,1","99999,9",,,,,,,,,,,,"10080,1,99999,9",,,,,,"MET051METAR FACT 151300Z 31017KT CAVOK 25/17 Q1008 NOSIG=",
"68816099999","2022-01-15T14:00:00","4","-33.964806","18.601667","46.02","CAPE TOWN INTERNATIONAL, SF","FM-15","99999","V020","320,1,N,0088,1","99999,9,9,Y","009900,5,9,9","+0240,1","+0170,1","99999,9",,,,,,,,,,,,"10080,1,99999,9",,,,,,"MET051METAR FACT 151400Z 32017KT CAVOK 24/17 Q1008 NOSIG=",
"68816099999","2022-01-15T15:00:00","4","-33.964806","18.601667","46.02","CAPE TOWN INTERNATIONAL, SF","FM-15","99999","V020","310,1,N,0098,1","99999,9,9,Y","009900,5,9,9","+0240,1","+0170,1","99999,9",,,,,,,,,,,,"10080,1,99999,9",,,,,,"MET051METAR FACT 151500Z 31019KT CAVOK 24/17 Q1008 NOSIG=",
"68816099999","2022-01-15T16:00:00","4","-33.964806","18.601667","46.02","CAPE TOWN INTERNATIONAL, SF","FM-15","99999","V020","320,1,N,0093,1","99999,9,9,Y","009900,5,9,9","+0230,1","+0180,1","99999,9",,,,,,,,,,,,"10070,1,99999,9",,,,,,"MET051METAR FACT 151600Z 32018KT CAVOK 23/18 Q1007 NOSIG=",
"68816099999","2022-01-15T17:00:00","4","-33.964806","18.601667","46.02","CAPE TOWN INTERNATIONAL, SF","FM-15","99999","V020","320,1,N,0093,1","99999,9,9,N","009999,1,9,9","+0220,1","+0180,1","99999,9",,,,,"02,1,+00396,1,99,9",,,"9,AGL   ,+99999,+99999","99,99,9,02,1,99,9,00396,1,99,9,99,9",,,"10080,1,99999,9",,,,,,"MET057METAR FACT 151700Z 32018KT 9999 FEW013 22/18 Q1008 NOSIG=",
"68816099999","2022-01-15T18:00:00","4","-33.964806","18.601667","46.02","CAPE TOWN INTERNATIONAL, SF","FM-12","99999","V020","320,1,N,0082,1","22000,1,9,N","030000,1,9,9","+0204,1","+0175,1","10084,1",,,,,"99,9,+99999,9,00,1",,,"9,AGL   ,+99999,+99999","01,99,1,00,1,99,9,99999,9,99,9,99,9","120,M,+0269,1","120,N,+0204,1","99999,9,10030,1","2,1,009,1,+999,9",,,,"4,99,0113,1,999","SYN08668816 32980 13216 10204 20175 30030 40084 52009 80001 333 10269 20204 91022 555 91008=","Q01    003SCCGA1"
"68816099999","2022-01-15T18:00:00","4","-33.964806","18.601667","46.02","CAPE TOWN INTERNATIONAL, SF","FM-15","99999","V020","320,1,N,0088,1","99999,9,9,Y","009900,5,9,9","+0210,1","+0170,1","99999,9",,,,,,,,,,,,"10080,1,99999,9",,,,,,"MET051METAR FACT 151800Z 32017KT CAVOK 21/17 Q1008 NOSIG=",
"68816099999","2022-01-15T19:00:00","4","-33.964806","18.601667","46.02","CAPE TOWN INTERNATIONAL, SF","FM-15","99999","V020","330,1,N,0057,1","99999,9,9,Y","009900,5,9,9","+0200,1","+0180,1","99999,9",,,,,,,,,,,,"10100,1,99999,9",,,,,,"MET051METAR FACT 151900Z 33011KT CAVOK 20/18 Q1010 NOSIG=",
"68816099999","2022-01-15T20:00:00","4","-33.964806","18.601667","46.02","CAPE TOWN INTERNATIONAL, SF","FM-15","99999","V020","330,1,N,0067,1","99999,9,9,Y","009900,5,9,9","+0200,1","+0180,1","99999,9",,,,,,,,,,,,"10110,1,99999,9",,,,,,"MET051METAR FACT 152000Z 33013KT CAVOK 20/18 Q1011 NOSIG=",
"68816099999","2022-01-15T21:00:00","4","-33.964806","18.601667","46.02","CAPE TOWN INTERNATIONAL, SF","FM-15","99999","V020","340,1,N,0046,1","99999,9,9,Y","009900,5,9,9","+0200,1","+0180,1","99999,9",,,,,,,,,,,,"10100,1,99999,9",,,,,,"MET051METAR FACT 152100Z 34009KT CAVOK 20/18 Q1010 NOSIG=",
"68816099999","2022-01-15T22:00:00","4","-33.964806","18.601667","46.02","CAPE TOWN INTERNATIONAL, SF","FM-15","99999","V020","340,1,N,0041,1","99999,9,9,Y","009900,5,9,9","+0200,1","+0180,1","99999,9",,,,,,,,,,,,"10110,1,99999,9",,,,,,"MET051METAR FACT 152200Z 34008KT CAVOK 20/18 Q1011 NOSIG=",
"68816099999","2022-01-15T23:00:00","4","-33.964806","18.601667","46.02","CAPE TOWN INTERNATIONAL, SF","FM-15","99999","V020","350,1,N,0036,1","99999,9,9,N","009999,1,9,9","+0190,1","+0180,1","99999,9",,,,,"02,1,+01067,1,99,9",,,"9,AGL   ,+99999,+99999","99,99,9,02,1,99,9,01067,1,99,9,99,9",,,"10110,1,99999,9",,,,,,"MET057METAR FACT 152300Z 35007KT 9999 FEW035 19/18 Q1011 NOSIG=",
"68816099999","2022-01-16T00:00:00","4","-33.964806","18.601667","46.02","CAPE TOWN INTERNATIONAL, SF","FM-15","99999","V020","360,1,N,0041,1","01067,1,C,N","009999,1,9,9","+0200,1","+0180,1","99999,9",,,,,"07,1,+01067,1,99,9",,,"9,AGL   ,+99999,+99999","99,99,9,07,1,99,9,01067,1,99,9,99,9",,,"10110,1,99999,9",,,,,,"MET051METAR FACT 160000Z 36008KT 9999 BKN035 20/18 Q1011=",
"68816099999","2022-01-16T01:00:00","4","-33.964806","18.601667","46.02","CAPE TOWN INTERNATIONAL, SF","FM-15","99999","V020","340,1,N,0031,1","01067,1,C,N","009999,1,9,9","+0190,1","+0170,1","99999,9",,,,,"07,1,+01067,1,99,9",,,"9,AGL   ,+99999,+99999","99,99,9,07,1,99,9,01067,1,99,9,99,9",,,"10110,1,99999,9",,,,,,"MET057METAR FACT 160100Z 34006KT 9999 BKN035 19/17 Q1011 NOSIG=",
"68816099999","2022-01-16T02:00:00","4","-33.964806","18.601667","46.02","CAPE TOWN INTERNATIONAL, SF","FM-15","99999","V020","330,1,N,0041,1","01067,1,C,N","009999,1,9,9","+0200,1","+0170,1","99999,9",,,,,"07,1,+01067,1,99,9",,,"9,AGL   ,+99999,+99999","99,99,9,07,1,99,9,01067,1,99,9,99,9",,,"10110,1,99999,9",,,,,,"MET057METAR FACT 160200Z 33008KT 9999 BKN035 20/17 Q1011 NOSIG=",
"68816099999","2022-01-16T03:00:00","4","-33.964806","18.601667","46.02","CAPE TOWN INTERNATIONAL, SF","FM-15","99999","V020","350,1,N,0036,1","00914,1,C,N","009999,1,9,9","+0200,1","+0170,1","99999,9",,,,,"07,1,+00914,1,99,9",,,"9,AGL   ,+99999,+99999","99,99,9,07,1,99,9,00914,1,99,9,99,9",,,"10110,1,99999,9",,,,,,"MET057METAR FACT 160300Z 35007KT 9999 BKN030 20/17 Q1011 NOSIG=",
"68816099999","2022-01-16T04:00:00","4","-33.964806","18.601667","46.02","CAPE TOWN INTERNATIONAL, SF","FM-15","99999","V020","350,1,N,0041,1","01067,1,9,N","009999,1,9,9","+0200,1","+0180,1","99999,9",,,,,"02,1,+00457,1,99,9","07,1,+01067,1,99,9",,"9,AGL   ,+99999,+99999","99,99,9,02,1,99,9,00457,1,99,9,99,9",,,"10100,1,99999,9",,,,,,"MET064METAR FACT 160400Z 35008KT 9999 FEW015 BKN035 20/18 Q1010 NOSIG=",
"68816099999","2022-01-16T05:00:00","4","-33.964806","18.601667","46.02","CAPE TOWN INTERNATIONAL, SF","FM-15","99999","V020","310,1,N,0057,1","00914,1,9,N","009999,1,9,9","+0190,1","+0170,1","99999,9",,,,,"02,1,+00213,1,99,9","07,1,+00914,1,99,9",,"9,AGL   ,+99999,+99999","99,99,9,02,1,99,9,00213,1,99,9,99,9",,,"10110,1,99999,9",,,,,,"MET064METAR FACT 160500Z 31011KT 9999 FEW007 BKN030 19/17 Q1011 NOSIG=",
"68816099999","2022-01-16T06:00:00","4","-33.964806","18.601667","46.02","CAPE TOWN INTERNATIONAL, SF","FM-12","99999","V020","330,1,N,0057,1","99999,9,9,N","050000,1,9,9","+0204,1","+0167,1","10125,1",,,,,"07,1,+00800,1,06,1",,,"9,AGL   ,+99999,+99999","07,99,1,07,1,99,9,00800,1,99,9,99,9","240,N,+0192,1",,"99999,9,10071,1","7,1,004,1,+999,9",,,,"4,99,0051,1,999","SYN08668816 32584 73311 10204 20167 30071 40125 57004 875// 333 20192 91010 555 10269 91012=",
"68816099999","2022-01-16T06:00:00","4","-33.964806","18.601667","46.02","CAPE TOWN INTERNATIONAL, SF","FM-15","99999","V020","330,1,N,0051,1","00914,1,9,N","009999,1,9,9","+0200,1","+0170,1","99999,9",,,,,"02,1,+00305,1,99,9","07,1,+00914,1,99,9",,"9,AGL   ,+99999,+99999","99,99,9,02,1,99,9,00305,1,99,9,99,9",,,"10120,1,99999,9",,,,,,"MET064METAR FACT 160600Z 33010KT 9999 FEW010 BKN030 20/17 Q1012 NOSIG=",
"68816099999","2022-01-16T07:00:00","4","-33.964806","18.601667","46.02","CAPE TOWN INTERNATIONAL, SF","FM-15","99999","V020","320,1,V,0041,1","00914,1,9,N","009999,1,9,9","+0220,1","+0170,1","99999,9",,,,,"02,1,+00305,1,99,9","07,1,+00914,1,99,9",,"9,AGL   ,+99999,+99999","99,99,9,02,1,99,9,00305,1,99,9,99,9",,,"10120,1,99999,9",,,,,,"MET072METAR FACT 160700Z 32008KT 280V360 9999 FEW010 BKN030 22/17 Q1012 NOSIG=",
"68816099999","2022-01-16T08:00:00","4","-33.964806","18.601667","46.02","CAPE TOWN INTERNATIONAL, SF","FM-15","99999","V020","320,1,N,0057,1","00914,1,9,N","009999,1,9,9","+0230,1","+0170,1","99999,9",,,,,"02,1,+00610,1,99,9","07,1,+00914,1,99,9",,"9,AGL   ,+99999,+99999","99,99,9,02,1,99,9,00610,1,99,9,99,9",,,"10130,1,99999,9",,,,,,"MET064METAR FACT 160800Z 32011KT 9999 FEW020 BKN030 23/17 Q1013 NOSIG=",
"68816099999","2022-01-16T09:00:00","4","-33.964806","18.601667","46.02","CAPE TOWN INTERNATIONAL, SF","FM-15","99999","V020","300,1,V,0062,1","01067,1,C,N","009999,1,9,9","+0240,1","+0150,1","99999,9",,,,,"02,1,+00762,1,99,9","04,1,+01067,1,99,9",,"9,AGL   ,+99999,+99999","99,99,9,02,1,99,9,00762,1,99,9,99,9",,,"10130,1,99999,9",,,,,,"MET076METAR COR FACT 160900Z 30012KT 280V340 9999 FEW025 SCT035 24/15 Q1013 NOSIG=",
"68816099999","2022-01-16T10:00:00","4","-33.964806","18.601667","46.02","CAPE TOWN INTERNATIONAL, SF","FM-15","99999","V020","290,1,V,0062,1","99999,9,9,N","009999,1,9,9","+0250,1","+0150,1","99999,9",,,,,"02,1,+01067,1,99,9",,,"9,AGL   ,+99999,+99999","99,99,9,02,1,99,9,01067,1,99,9,99,9",,,"10130,1,99999,9",,,,,,"MET065METAR FACT 161000Z 29012KT 260V330 9999 FEW035 25/15 Q1013 NOSIG=",
"68816099999","2022-01-16T11:00:00","4","-33.964806","18.601667","46.02","CAPE TOWN INTERNATIONAL, SF","FM-15","99999","V020","300,1,V,0067,1","99999,9,9,N","009999,1,9,9","+0250,1","+0150,1","99999,9",,,,,"02,1,+01067,1,99,9",,,"9,AGL   ,+99999,+99999","99,99,9,02,1,99,9,01067,1,99,9,99,9",,,"10120,1,99999,9",,,,,,"MET065METAR FACT 161100Z 30013KT 270V330 9999 FEW035 25/15 Q1012 NOSIG=",
"68816099999","2022-01-16T12:00:00","4","-33.964806","18.601667","46.02","CAPE TOWN INTERNATIONAL, SF","FM-12","99999","V020","310,1,N,0072,1","99999,9,9,N","030000,1,9,9","+0265,1","+0146,1","10124,1",,,,,,,,,,"240,N,+0204,1",,"99999,9,10070,1","7,1,007,1,+999,9",,,,"4,99,0082,1,999","SYN07468816 32980 03114 10265 20146 30070 40124 57007 333 20204 91016 555 91012=",
"68816099999","2022-01-16T12:00:00","4","-33.964806","18.601667","46.02","CAPE TOWN INTERNATIONAL, SF","FM-15","99999","V020","310,1,V,0072,1","99999,9,9,Y","009900,5,9,9","+0270,1","+0150,1","99999,9",,,,,,,,,,,,"10120,1,99999,9",,,,,,"MET059METAR FACT 161200Z 31014KT 280V350 CAVOK 27/15 Q1012 NOSIG=",
"68816099999","2022-01-16T13:00:00","4","-33.964806","18.601667","46.02","CAPE TOWN INTERNATIONAL, SF","FM-15","99999","V020","300,1,N,0082,1","99999,9,9,Y","009900,5,9,9","+0260,1","+0150,1","99999,9",,,,,,,,,,,,"10120,1,99999,9",,,,,,"MET051METAR FACT 161300Z 30016KT CAVOK 26/15 Q1012 NOSIG=",
"68816099999","2022-01-16T14:00:00","4","-33.964806","18.601667","46.02","CAPE TOWN INTERNATIONAL, SF","FM-15","99999","V020","310,1,N,0077,1","99999,9,9,Y","009900,5,9,9","+0250,1","+0150,1","99999,9",,,,,,,,,,,,"10120,1,99999,9",,,,,,"MET051METAR FACT 161400Z 31015KT CAVOK 25/15 Q1012 NOSIG=",
"68816099999","2022-01-16T15:00:00","4","-33.964806","18.601667","46.02","CAPE TOWN INTERNATIONAL, SF","FM-15","99999","V020","320,1,N,0072,1","99999,9,9,Y","009900,5,9,9","+0250,1","+0140,1","99999,9",,,,,,,,,,,,"10120,1,99999,9",,,,,,"MET051METAR FACT 161500Z 32014KT CAVOK 25/14 Q1012 NOSIG=",
"68816099999","2022-01-16T16:00:00","4","-33.964806","18.601667","46.02","CAPE TOWN INTERNATIONAL, SF","FM-15","99999","V020","350,1,N,0067,1","99999,9,9,Y","009900,5,9,9","+0250,1","+0140,1","99999,9",,,,,,,,,,,,"10120,1,99999,9",,,,,,"MET051METAR FACT 161600Z 35013KT CAVOK 25/14 Q1012 NOSIG=",
"68816099999","2022-01-16T17:00:00","4","-33.964806","18.601667","46.02","CAPE TOWN INTERNATIONAL, SF","FM-15","99999","V020","330,1,V,0062,1","99999,9,9,Y","009900,5,9,9","+0230,1","+0150,1","99999,9",,,,,,,,,,,,"10130,1,99999,9",,,,,,"MET059METAR FACT 161700Z 33012KT 290V350 CAVOK 23/15 Q1013 NOSIG=",
"68816099999","2022-01-16T18:00:00","4","-33.964806","18.601667","46.02","CAPE TOWN INTERNATIONAL, SF","FM-12","99999","V020","340,1,N,0036,1","99999,9,9,N","040000,1,9,9","+0216,1","+0148,1","10142,1",,,,,,,,,,"120,M,+0266,1","120,N,+0216,1","99999,9,10088,1","2,1,013,1,+999,9",,,,"4,99,0051,1,999","SYN08068816 32982 03407 10216 20148 30088 40142 52013 333 10266 20216 91010 555 91014=",
"68816099999","2022-01-16T18:00:00","4","-33.964806","18.601667","46.02","CAPE TOWN INTERNATIONAL, SF","FM-15","99999","V020","350,1,V,0031,1","99999,9,9,Y","009900,5,9,9","+0220,1","+0150,1","99999,9",,,,,,,,,,,,"10140,1,99999,9",,,,,,"MET059METAR FACT 161800Z 35006KT 320V030 CAVOK 22/15 Q1014 NOSIG=",
"68816099999","2022-01-16T19:00:00","4","-33.964806","18.601667","46.02","CAPE TOWN INTERNATIONAL, SF","FM-15","99999","V020","999,9,V,0015,1","99999,9,9,Y","009900,5,9,9","+0210,1","+0150,1","99999,9",,,,,,,,,,,,"10150,1,99999,9",,,,,,"MET051METAR FACT 161900Z VRB03KT CAVOK 21/15 Q1015 NOSIG=",
"68816099999","2022-01-16T22:00:00","4","-33.964806","18.601667","46.02","CAPE TOWN INTERNATIONAL, SF","FM-15","99999","V020","130,1,N,0026,1","99999,9,9,Y","009900,5,9,9","+0170,1","+0140,1","99999,9",,,,,,,,,,,,"10160,1,99999,9",,,,,,"MET051METAR FACT 162200Z 13005KT CAVOK 17/14 Q1016 NOSIG=",
"68816099999","2022-01-16T23:00:00","4","-33.964806","18.601667","46.02","CAPE TOWN INTERNATIONAL, SF","FM-15","99999","V020","060,1,N,0010,1","99999,9,9,Y","009900,5,9,9","+0180,1","+0150,1","99999,9",,,,,,,,,,,,"10160,1,99999,9",,,,,,"MET051METAR FACT 162300Z 06002KT CAVOK 18/15 Q1016 NOSIG=",
"68816099999","2022-01-17T00:00:00","4","-33.964806","18.601667","46.02","CAPE TOWN INTERNATIONAL, SF","FM-12","99999","V020","100,1,N,0021,1","99999,9,9,N","020000,1,9,9","+0171,1","+0149,1","10168,1",,,,,,,,,,,,"99999,9,10113,1","2,1,013,1,+999,9",,,,"4,99,0026,1,999","SYN06868816 32970 01004 10171 20149 30113 40168 52013 333 91005 555 91016=",
"68816099999","2022-01-17T00:00:00","4","-33.964806","18.601667","46.02","CAPE TOWN INTERNATIONAL, SF","FM-15","99999","V020","080,1,N,0026,1","99999,9,9,Y","009900,5,9,9","+0170,1","+0150,1","99999,9",,,,,,,,,,,,"10160,1,99999,9",,,,,,"MET051METAR FACT 170000Z 08005KT CAVOK 17/15 Q1016 NOSIG=",
"68816099999","2022-01-17T01:00:00","4","-33.964806","18.601667","46.02","CAPE TOWN INTERNATIONAL, SF","FM-15","99999","V020","130,1,N,0015,1","99999,9,9,Y","009900,5,9,9","+0160,1","+0150,1","99999,9",,,,,,,,,,,,"10160,1,99999,9",,,,,,"MET051METAR FACT 170100Z 13003KT CAVOK 16/15 Q1016 NOSIG=",
"68816099999","2022-01-17T02:00:00","4","-33.964806","18.601667","46.02","CAPE TOWN INTERNATIONAL, SF","FM-15","99999","V020","170,1,N,0015,1","99999,9,9,Y","009900,5,9,9","+0160,1","+0150,1","99999,9",,,,,,,,,,,,"10150,1,99999,9",,,,,,"MET051METAR FACT 170200Z 17003KT CAVOK 16/15 Q1015 NOSIG=",
"68816099999","2022-01-17T03:00:00","4","-33.964806","18.601667","46.02","CAPE TOWN INTERNATIONAL, SF","FM-15","99999","V020","170,1,N,0010,1","99999,9,9,Y","009900,5,9,9","+0160,1","+0150,1","99999,9",,,,,,,,,,,,"10150,1,99999,9",,,,,,"MET051METAR FACT 170300Z 17002KT CAVOK 16/15 Q1015 NOSIG=",
"68816099999","2022-01-17T04:00:00","4","-33.964806","18.601667","46.02","CAPE TOWN INTERNATIONAL, SF","FM-15","99999","V020","140,1,N,0021,1","99999,9,9,N","009999,1,9,9","+0160,1","+0150,1","99999,9",,,,,"02,1,+00914,1,99,9",,,"9,AGL   ,+99999,+99999","99,99,9,02,1,99,9,00914,1,99,9,99,9",,,"10160,1,99999,9",,,,,,"MET057METAR FACT 170400Z 14004KT 9999 FEW030 16/15 Q1016 NOSIG=",
"68816099999","2022-01-17T04:58:00","4","-33.964806","18.601667","46.02","CAPE TOWN INTERNATIONAL, SF","FM-16","99999","V020","200,1,N,0031,1","99999,9,9,N","009999,1,9,9","+0190,1","+0160,1","99999,9",,,,,"02,1,+00914,1,99,9",,,"9,AGL   ,+99999,+99999","99,99,9,02,1,99,9,00914,1,99,9,99,9",,,"10160,1,99999,9",,,,,,"MET057SPECI FACT 170458Z 20006KT 9999 FEW030 19/16 Q1016 NOSIG=",
"68816099999","2022-01-17T05:00:00","4","-33.964806","18.601667","46.02","CAPE TOWN INTERNATIONAL, SF","FM-15","99999","V020","200,1,N,0031,1","99999,9,9,N","009999,1,9,9","+0190,1","+0160,1","99999,9",,,,,"02,1,+00914,1,99,9",,,"9,AGL   ,+99999,+99999","99,99,9,02,1,99,9,00914,1,99,9,99,9",,,"10160,1,99999,9",,,,,,"MET057METAR FACT 170500Z 20006KT 9999 FEW030 19/16 Q1016 NOSIG=",
"68816099999","2022-01-17T06:00:00","4","-33.964806","18.601667","46.02","CAPE TOWN INTERNATIONAL, SF","FM-12","99999","V020","200,1,N,0046,1","99999,9,9,N","020000,1,9,9","+0210,1","+0160,1","10161,1",,,,,,,,,,"240,N,+0155,1",,"99999,9,10107,1","9,9,001,1,+999,9",,,,"4,99,0062,1,999","SYN08068816 32970 02009 10210 20160 30107 40161 50001 333 20155 91012 555 10267 91016=",
"68816099999","2022-01-17T06:00:00","4","-33.964806","18.601667","46.02","CAPE TOWN INTERNATIONAL, SF","FM-15","99999","V020","200,1,N,0046,1","99999,9,9,Y","009900,5,9,9","+0210,1","+0160,1","99999,9",,,,,,,,,,,,"10160,1,99999,9",,,,,,"MET051METAR FACT 170600Z 20009KT CAVOK 21/16 Q1016 NOSIG=",
"68816099999","2022-01-17T07:00:00","4","-33.964806","18.601667","46.02","CAPE TOWN INTERNATIONAL, SF","FM-15","99999","V020","200,1,N,0057,1","99999,9,9,Y","009900,5,9,9","+0220,1","+0160,1","99999,9",,,,,,,,,,,,"10160,1,99999,9",,,,,,"MET051METAR FACT 170700Z 20011KT CAVOK 22/16 Q1016 NOSIG=",
"68816099999","2022-01-17T08:00:00","4","-33.964806","18.601667","46.02","CAPE TOWN INTERNATIONAL, SF","FM-15","99999","V020","200,1,N,0072,1","99999,9,9,Y","009900,5,9,9","+0240,1","+0160,1","99999,9",,,,,,,,,,,,"10150,1,99999,9",,,,,,"MET051METAR FACT 170800Z 20014KT CAVOK 24/16 Q1015 NOSIG=",
"68816099999","2022-01-17T09:00:00","4","-33.964806","18.601667","46.02","CAPE TOWN INTERNATIONAL, SF","FM-15","99999","V020","180,1,N,0072,1","99999,9,9,Y","009900,5,9,9","+0250,1","+0150,1","99999,9",,,,,,,,,,,,"10150,1,99999,9",,,,,,"MET051METAR FACT 170900Z 18014KT CAVOK 25/15 Q1015 NOSIG=",
"68816099999","2022-01-17T10:00:00","4","-33.964806","18.601667","46.02","CAPE TOWN INTERNATIONAL, SF","FM-15","99999","V020","190,1,N,0062,1","99999,9,9,Y","009900,5,9,9","+0250,1","+0160,1","99999,9",,,,,,,,,,,,"10150,1,99999,9",,,,,,"MET051METAR FACT 171000Z 19012KT CAVOK 25/16 Q1015 NOSIG=",
"68816099999","2022-01-17T11:00:00","4","-33.964806","18.601667","46.02","CAPE TOWN INTERNATIONAL, SF","FM-15","99999","V020","190,1,N,0062,1","99999,9,9,Y","009900,5,9,9","+0260,1","+0170,1","99999,9",,,,,,,,,,,,"10140,1,99999,9",,,,,,"MET051METAR FACT 171100Z 19012KT CAVOK 26/17 Q1014 NOSIG=",
"68816099999","2022-01-17T12:00:00","4","-33.964806","18.601667","46.02","CAPE TOWN INTERNATIONAL, SF","FM-12","99999","V020","200,1,N,0077,1","99999,9,9,N","030000,1,9,9","+0254,1","+0175,1","10133,1",,,,,,,,,,"240,N,+0207,1",,"99999,9,10080,1","8,1,018,1,+999,9",,,,"4,99,0093,1,999","SYN07468816 32980 02015 10254 20175 30080 40133 58018 333 20207 91018 555 91013=",
"68816099999","2022-01-17T12:00:00","4","-33.964806","18.601667","46.02","CAPE TOWN INTERNATIONAL, SF","FM-15","99999","V020","200,1,N,0077,1","99999,9,9,Y","009900,5,9,9","+0250,1","+0170,1","99999,9",,,,,,,,,,,,"10130,1,99999,9",,,,,,"MET051METAR FACT 171200Z 20015KT CAVOK 25/17 Q1013 NOSIG=",
"68816099999","2022-01-17T13:00:00","4","-33.964806","18.601667","46.02","CAPE TOWN INTERNATIONAL, SF","FM-15","99999","V020","190,1,N,0088,1","99999,9,9,Y","009900,5,9,9","+0260,1","+0180,1","99999,9",,,,,,,,,,,,"10130,1,99999,9",,,,,,"MET051METAR FACT 171300Z 19017KT CAVOK 26/18 Q1013 NOSIG=",
"68816099999","2022-01-17T14:00:00","4","-33.964806","18.601667","46.02","CAPE TOWN INTERNATIONAL, SF","FM-15","99999","V020","180,1,N,0082,1","99999,9,9,Y","009900,5,9,9","+0250,1","+0180,1","99999,9",,,,,,,,,,,,"10130,1,99999,9",,,,,,"MET051METAR FACT 171400Z 18016KT CAVOK 25/18 Q1013 NOSIG=",
"68816099999","2022-01-17T15:00:00","4","-33.964806","18.601667","46.02","CAPE TOWN INTERNATIONAL, SF","FM-15","99999","V020","200,1,N,0103,1","99999,9,9,N","009999,1,9,9","+0240,1","+0180,1","99999,9",,,,,"02,1,+00305,1,99,9",,,"9,AGL   ,+99999,+99999","99,99,9,02,1,99,9,00305,1,99,9,99,9",,,"10120,1,99999,9",,,,,,"MET057METAR FACT 171500Z 20020KT 9999 FEW010 24/18 Q1012 NOSIG=",
"68816099999","2022-01-17T15:54:00","4","-33.964806","18.601667","46.02","CAPE TOWN INTERNATIONAL, SF","FM-16","99999","V020","200,1,N,0082,1","99999,9,9,Y","009900,5,9,9","+0230,1","+0180,1","99999,9",,,,,,,,,,,,"10110,1,99999,9",,,,,,"MET051SPECI FACT 171554Z 20016KT CAVOK 23/18 Q1011 NOSIG=",
"68816099999","2022-01-17T16:00:00","4","-33.964806","18.601667","46.02","CAPE TOWN INTERNATIONAL, SF","FM-15","99999","V020","200,1,N,0082,1","99999,9,9,Y","009900,5,9,9","+0230,1","+0180,1","99999,9",,,,,,,,,,,,"10110,1,99999,9",,,,,,"MET051METAR FACT 171600Z 20016KT CAVOK 23/18 Q1011 NOSIG=",
"68816099999","2022-01-17T17:00:00","4","-33.964806","18.601667","46.02","CAPE TOWN INTERNATIONAL, SF","FM-15","99999","V020","200,1,N,0082,1","99999,9,9,N","009999,1,9,9","+0220,1","+0180,1","99999,9",,,,,"02,1,+00305,1,99,9",,,"9,AGL   ,+99999,+99999","99,99,9,02,1,99,9,00305,1,99,9,99,9",,,"10120,1,99999,9",,,,,,"MET057METAR FACT 171700Z 20016KT 9999 FEW010 22/18 Q1012 NOSIG=",
"68816099999","2022-01-17T18:00:00","4","-33.964806","18.601667","46.02","CAPE TOWN INTERNATIONAL, SF","FM-12","99999","V020","210,1,N,0051,1","22000,1,9,N","030000,1,9,9","+0205,1","+0180,1","10120,1",,,,,"02,1,+00450,1,07,1",,,"9,AGL   ,+99999,+99999","02,99,1,02,1,99,9,00450,1,99,9,99,9","120,M,+0264,1",,"99999,9,10066,1","8,1,005,1,+999,9",,,,"4,99,0082,1,999","SYN08068816 32480 22110 10205 20180 30066 40120 58005 82600 333 10264 91016 555 91012=",
"68816099999","2022-01-17T18:00:00","4","-33.964806","18.601667","46.02","CAPE TOWN INTERNATIONAL, SF","FM-15","99999","V020","210,1,N,0051,1","99999,9,9,N","009999,1,9,9","+0210,1","+0180,1","99999,9",,,,,"02,1,+00305,1,99,9",,,"9,AGL   ,+99999,+99999","99,99,9,02,1,99,9,00305,1,99,9,99,9",,,"10120,1,99999,9",,,,,,"MET057METAR FACT 171800Z 21010KT 9999 FEW010 21/18 Q1012 NOSIG=",
"68816099999","2022-01-17T19:00:00","4","-33.964806","18.601667","46.02","CAPE TOWN INTERNATIONAL, SF","FM-15","99999","V020","210,1,N,0051,1","99999,9,9,N","009999,1,9,9","+0200,1","+0180,1","99999,9",,,,,"02,1,+00305,1,99,9",,,"9,AGL   ,+99999,+99999","99,99,9,02,1,99,9,00305,1,99,9,99,9",,,"10110,1,99999,9",,,,,,"MET057METAR FACT 171900Z 21010KT 9999 FEW010 20/18 Q1011 NOSIG=",
"68816099999","2022-01-17T20:00:00","4","-33.964806","18.601667","46.02","CAPE TOWN INTERNATIONAL, SF","FM-15","99999","V020","210,1,N,0046,1","99999,9,9,Y","009900,5,9,9","+0200,1","+0180,1","99999,9",,,,,,,,,,,,"10110,1,99999,9",,,,,,"MET051METAR FACT 172000Z 21009KT CAVOK 20/18 Q1011 NOSIG=",
"68816099999","2022-01-17T21:00:00","4","-33.964806","18.601667","46.02","CAPE TOWN INTERNATIONAL, SF","FM-15","99999","V020","210,1,N,0036,1","99999,9,9,Y","009900,5,9,9","+0190,1","+0170,1","99999,9",,,,,,,,,,,,"10110,1,99999,9",,,,,,"MET051METAR FACT 172100Z 21007KT CAVOK 19/17 Q1011 NOSIG=",
"68816099999","2022-01-17T22:00:00","4","-33.964806","18.601667","46.02","CAPE TOWN INTERNATIONAL, SF","FM-15","99999","V020","200,1,N,0031,1","99999,9,9,Y","009900,5,9,9","+0190,1","+0170,1","99999,9",,,,,,,,,,,,"10110,1,99999,9",,,,,,"MET051METAR FACT 172200Z 20006KT CAVOK 19/17 Q1011 NOSIG=",
"68816099999","2022-01-17T23:00:00","4","-33.964806","18.601667","46.02","CAPE TOWN INTERNATIONAL, SF","FM-15","99999","V020","240,1,N,0015,1","99999,9,9,Y","009900,5,9,9","+0190,1","+0170,1","99999,9",,,,,,,,,,,,"10110,1,99999,9",,,,,,"MET051METAR FACT 172300Z 24003KT CAVOK 19/17 Q1011 NOSIG=",
"68816099999","2022-01-18T00:00:00","4","-33.964806","18.601667","46.02","CAPE TOWN INTERNATIONAL, SF","FM-12","99999","V020","320,1,N,0015,1","99999,9,9,N","020000,1,9,9","+0182,1","+0163,1","10113,1",,,,,,,,,,"120,M,+0264,1","120,N,+0182,1","99999,9,10059,1","7,1,004,1,+999,9",,,,"4,99,0026,1,999","SYN08068816 32970 03203 10182 20163 30059 40113 57004 333 10264 20182 91005 555 91011=",
"68816099999","2022-01-18T00:00:00","4","-33.964806","18.601667","46.02","CAPE TOWN INTERNATIONAL, SF","FM-15","99999","V020","320,1,N,0015,1","99999,9,9,Y","009900,5,9,9","+0180,1","+0160,1","99999,9",,,,,,,,,,,,"10110,1,99999,9",,,,,,"MET051METAR FACT 180000Z 32003KT CAVOK 18/16 Q1011 NOSIG=",
"68816099999","2022-01-18T01:00:00","4","-33.964806","18.601667","46.02","CAPE TOWN INTERNATIONAL, SF","FM-15","99999","V020","020,1,N,0031,1","99999,9,9,Y","009900,5,9,9","+0180,1","+0170,1","99999,9",,,,,,,,,,,,"10100,1,99999,9",,,,,,"MET051METAR FACT 180100Z 02006KT CAVOK 18/17 Q1010 NOSIG=",
"68816099999","2022-01-18T01:53:00","4","-33.964806","18.601667","46.02","CAPE TOWN INTERNATIONAL, SF","FM-16","99999","V020","340,1,N,0057,1","00122,1,C,N","006000,1,9,9","+0180,1","+0180,1","99999,9",,,,,"07,1,+00122,1,99,9",,,"9,AGL   ,+99999,+99999","99,99,9,07,1,99,9,00122,1,99,9,99,9",,,"10100,1,99999,9",,,,,,"MET065SPECI FACT 180153Z 34011KT 6000 BKN004 18/18 Q1010 TEMPO 5000 BR=",
"68816099999","2022-01-18T02:00:00","4","-33.964806","18.601667","46.02","CAPE TOWN INTERNATIONAL, SF","FM-15","99999","V020","340,1,N,0057,1","00122,1,C,N","006000,1,9,9","+0180,1","+0180,1","99999,9",,,,,"07,1,+00122,1,99,9",,,"9,AGL   ,+99999,+99999","99,99,9,07,1,99,9,00122,1,99,9,99,9",,,"10100,1,99999,9",,,,,,"MET065METAR FACT 180200Z 34011KT 6000 BKN004 18/18 Q1010 TEMPO 5000 BR=",
"68816099999","2022-01-18T02:58:00","4","-33.964806","18.601667","46.02","CAPE TOWN INTERNATIONAL, SF","FM-16","99999","V020","340,1,N,0067,1","00183,1,C,N","009999,1,9,9","+0190,1","+0180,1","99999,9",,,,,"07,1,+00183,1,99,9",,,"9,AGL   ,+99999,+99999","99,99,9,07,1,99,9,00183,1,99,9,99,9",,,"10100,1,99999,9",,,,,,"MET065SPECI FACT 180258Z 34013KT 9999 BKN006 19/18 Q1010 TEMPO 5000 BR=",
"68816099999","2022-01-18T03:00:00","4","-33.964806","18.601667","46.02","CAPE TOWN INTERNATIONAL, SF","FM-15","99999","V020","340,1,N,0067,1","00183,1,C,N","009999,1,9,9","+0190,1","+0180,1","99999,9",,,,,"07,1,+00183,1,99,9",,,"9,AGL   ,+99999,+99999","99,99,9,07,1,99,9,00183,1,99,9,99,9",,,"10100,1,99999,9",,,,,,"MET065METAR FACT 180300Z 34013KT 9999 BKN006 19/18 Q1010 TEMPO 5000 BR=",
"68816099999","2022-01-18T03:54:00","4","-33.964806","18.601667","46.02","CAPE TOWN INTERNATIONAL, SF","FM-16","99999","V020","340,1,N,0057,1","99999,9,9,N","009999,1,9,9","+0190,1","+0180,1","99999,9",,,,,"02,1,+00183,1,99,9",,,"9,AGL   ,+99999,+99999","99,99,9,02,1,99,9,00183,1,99,9,99,9",,,"10110,1,99999,9",,,,,,"MET064SPECI FACT 180354Z 34011KT 9999 FEW006 19/18 Q1011 BECMG BKN010=",
"68816099999","2022-01-18T04:00:00","4","-33.964806","18.601667","46.02","CAPE TOWN INTERNATIONAL, SF","FM-15","99999","V020","340,1,N,0057,1","99999,9,9,N","009999,1,9,9","+0190,1","+0180,1","99999,9",,,,,"02,1,+00183,1,99,9",,,"9,AGL   ,+99999,+99999","99,99,9,02,1,99,9,00183,1,99,9,99,9",,,"10110,1,99999,9",,,,,,"MET064METAR FACT 180400Z 34011KT 9999 FEW006 19/18 Q1011 BECMG BKN010=",
"68816099999","2022-01-18T04:59:00","4","-33.964806","18.601667","46.02","CAPE TOWN INTERNATIONAL, SF","FM-16","99999","V020","340,1,N,0057,1","00244,1,C,N","009999,1,9,9","+0200,1","+0180,1","99999,9",,,,,"07,1,+00244,1,99,9",,,"9,AGL   ,+99999,+99999","99,99,9,07,1,99,9,00244,1,99,9,99,9",,,"10120,1,99999,9",,,,,,"MET064SPECI FACT 180459Z 34011KT 9999 BKN008 20/18 Q1012 BECMG BKN010=",
"68816099999","2022-01-18T05:00:00","4","-33.964806","18.601667","46.02","CAPE TOWN INTERNATIONAL, SF","FM-15","99999","V020","340,1,N,0057,1","00244,1,C,N","009999,1,9,9","+0200,1","+0180,1","99999,9",,,,,"07,1,+00244,1,99,9",,,"9,AGL   ,+99999,+99999","99,99,9,07,1,99,9,00244,1,99,9,99,9",,,"10120,1,99999,9",,,,,,"MET064METAR FACT 180500Z 34011KT 9999 BKN008 20/18 Q1012 BECMG BKN010=",
"68816099999","2022-01-18T06:00:00","4","-33.964806","18.601667","46.02","CAPE TOWN INTERNATIONAL, SF","FM-12","99999","V020","340,1,N,0072,1","99999,9,9,N","030000,1,9,9","+0207,1","+0184,1","10121,1",,,,,"07,1,+00450,1,06,1",,,"9,AGL   ,+99999,+99999","07,99,1,07,1,99,9,00450,1,99,9,99,9","240,N,+0173,1",,"99999,9,10067,1","2,1,003,1,+999,9",,,,"4,99,0103,1,999","SYN08668816 32480 73414 10207 20184 30067 40121 52003 875// 333 20173 91020 555 10264 91012=",
"68816099999","2022-01-18T06:00:00","4","-33.964806","18.601667","46.02","CAPE TOWN INTERNATIONAL, SF","FM-15","99999","V020","340,1,N,0072,1","00366,1,C,N","009999,1,9,9","+0210,1","+0180,1","99999,9",,,,,"07,1,+00366,1,99,9",,,"9,AGL   ,+99999,+99999","99,99,9,07,1,99,9,00366,1,99,9,99,9",,,"10120,1,99999,9",,,,,,"MET064METAR FACT 180600Z 34014KT 9999 BKN012 21/18 Q1012 BECMG BKN016=",
"68816099999","2022-01-18T06:05:00","4","-33.964806","18.601667","46.02","CAPE TOWN INTERNATIONAL, SF","FM-16","99999","V020","340,1,N,0072,1","00366,1,C,N","009999,1,9,9","+0210,1","+0180,1","99999,9",,,,,"07,1,+00366,1,99,9",,,"9,AGL   ,+99999,+99999","99,99,9,07,1,99,9,00366,1,99,9,99,9",,,"10120,1,99999,9",,,,,,"MET064SPECI FACT 180605Z 34014KT 9999 BKN012 21/18 Q1012 BECMG BKN016=",
"68816099999","2022-01-18T06:59:00","4","-33.964806","18.601667","46.02","CAPE TOWN INTERNATIONAL, SF","FM-16","99999","V020","320,1,N,0103,1","00549,1,9,N","009999,1,9,9","+0210,1","+0180,1","99999,9",,,,,"04,1,+00396,1,99,9","07,1,+00549,1,99,9",,"9,AGL   ,+99999,+99999","99,99,9,04,1,99,9,00396,1,99,9,99,9",,,"10130,1,99999,9",,"61,1",,,,"MET068SPECI FACT 180659Z 32020KT 9999 -RA SCT013 BKN018 21/18 Q1013 NOSIG=",
"68816099999","2022-01-18T07:00:00","4","-33.964806","18.601667","46.02","CAPE TOWN INTERNATIONAL, SF","FM-15","99999","V020","320,1,N,0103,1","00549,1,9,N","009999,1,9,9","+0210,1","+0180,1","99999,9",,,,,"04,1,+00396,1,99,9","07,1,+00549,1,99,9",,"9,AGL   ,+99999,+99999","99,99,9,04,1,99,9,00396,1,99,9,99,9",,,"10130,1,99999,9",,"61,1",,,,"MET068METAR FACT 180700Z 32020KT 9999 -RA SCT013 BKN018 21/18 Q1013 NOSIG=",
"68816099999","2022-01-18T07:38:00","4","-33.964806","18.601667","46.02","CAPE TOWN INTERNATIONAL, SF","FM-16","99999","V020","320,1,N,0098,1","00366,1,C,N","003000,1,9,9","+0210,1","+0190,1","99999,9",,,,,"07,1,+00366,1,99,9","07,1,+00488,1,99,9",,"9,AGL   ,+99999,+99999","99,99,9,07,1,99,9,00366,1,99,9,99,9",,,"10130,1,99999,9",,"61,1",,,,"MET073SPECI FACT 180738Z 32019KT 3000 -RA BKN012 BKN016 21/19 Q1013 TEMPO 2500=",
"68816099999","2022-01-18T08:00:00","4","-33.964806","18.601667","46.02","CAPE TOWN INTERNATIONAL, SF","FM-15","99999","V020","330,1,N,0103,1","00427,1,9,N","002500,1,9,9","+0200,1","+0190,1","99999,9",,,,,"04,1,+00183,1,99,9","07,1,+00427,1,99,9",,"9,AGL   ,+99999,+99999","99,99,9,04,1,99,9,00183,1,99,9,99,9",,,"10130,1,99999,9",,"61,1",,,,"MET073METAR FACT 180800Z 33020KT 2500 -RA SCT006 BKN014 20/19 Q1013 BECMG 3500=",
"68816099999","2022-01-18T08:02:00","4","-33.964806","18.601667","46.02","CAPE TOWN INTERNATIONAL, SF","FM-16","99999","V020","330,1,N,0103,1","00427,1,9,N","002500,1,9,9","+0200,1","+0190,1","99999,9",,,,,"04,1,+00183,1,99,9","07,1,+00427,1,99,9",,"9,AGL   ,+99999,+99999","99,99,9,04,1,99,9,00183,1,99,9,99,9",,,"10130,1,99999,9",,"61,1",,,,"MET073SPECI FACT 180802Z 33020KT 2500 -RA SCT006 BKN014 20/19 Q1013 BECMG 3500=",
"68816099999","2022-01-18T09:00:00","4","-33.964806","18.601667","46.02","CAPE TOWN INTERNATIONAL, SF","FM-15","99999","V020","310,1,N,0077,1","00396,1,9,N","002500,1,9,9","+0200,1","+0200,1","99999,9",,,,,"04,1,+00213,1,99,9","07,1,+00396,1,99,9",,"9,AGL   ,+99999,+99999","99,99,9,04,1,99,9,00213,1,99,9,99,9",,,"10140,1,99999,9",,"53,1",,,,"MET067METAR FACT 180900Z 31015KT 2500 DZ SCT007 BKN013 20/20 Q1014 NOSIG=",
"68816099999","2022-01-18T09:30:00","4","-33.964806","18.601667","46.02","CAPE TOWN INTERNATIONAL, SF","FM-16","99999","V020","330,1,N,0077,1","00671,1,9,N","009999,1,9,9","+0200,1","+0190,1","99999,9",,,,,"04,1,+00244,1,99,9","07,1,+00671,1,99,9",,"9,AGL   ,+99999,+99999","99,99,9,04,1,99,9,00244,1,99,9,99,9",,,"10140,1,99999,9",,"51,1",,,,"MET068SPECI FACT 180930Z 33015KT 9999 -DZ SCT008 BKN022 20/19 Q1014 NOSIG=",
"68816099999","2022-01-18T10:00:00","4","-33.964806","18.601667","46.02","CAPE TOWN INTERNATIONAL, SF","FM-15","99999","V020","330,1,N,0082,1","00671,1,9,N","009999,1,9,9","+0210,1","+0190,1","99999,9",,,,,"04,1,+00335,1,99,9","07,1,+00671,1,99,9",,"9,AGL   ,+99999,+99999","99,99,9,04,1,99,9,00335,1,99,9,99,9",,,"10140,1,99999,9",,,,,,"MET064METAR FACT 181000Z 33016KT 9999 SCT011 BKN022 21/19 Q1014 NOSIG=",
"68816099999","2022-01-18T10:58:00","4","-33.964806","18.601667","46.02","CAPE TOWN INTERNATIONAL, SF","FM-16","99999","V020","310,1,N,0088,1","00549,1,9,N","003500,1,9,9","+0210,1","+0190,1","99999,9",,,,,"04,1,+00396,1,99,9","07,1,+00549,1,99,9",,"9,AGL   ,+99999,+99999","99,99,9,04,1,99,9,00396,1,99,9,99,9",,,"10140,1,99999,9",,"61,1",,,,"MET073SPECI FACT 181058Z 31017KT 3500 -RA SCT013 BKN018 21/19 Q1014 BECMG 6000=",
"68816099999","2022-01-18T11:00:00","4","-33.964806","18.601667","46.02","CAPE TOWN INTERNATIONAL, SF","FM-15","99999","V020","310,1,N,0088,1","00549,1,9,N","003500,1,9,9","+0210,1","+0190,1","99999,9",,,,,"04,1,+00396,1,99,9","07,1,+00549,1,99,9",,"9,AGL   ,+99999,+99999","99,99,9,04,1,99,9,00396,1,99,9,99,9",,,"10140,1,99999,9",,"61,1",,,,"MET073METAR FACT 181100Z 31017KT 3500 -RA SCT013 BKN018 21/19 Q1014 BECMG 6000=",
"68816099999","2022-01-18T11:15:00","4","-33.964806","18.601667","46.02","CAPE TOWN INTERNATIONAL, SF","FM-16","99999","V020","320,1,N,0093,1","00549,1,9,N","002000,1,9,9","+0210,1","+0190,1","99999,9",,,,,"04,1,+00457,1,99,9","07,1,+00549,1,99,9",,"9,AGL   ,+99999,+99999","99,99,9,04,1,99,9,00457,1,99,9,99,9",,,"10150,1,99999,9",,"61,1",,"0149,1",,"MET076SPECI FACT 181115Z 32018G29KT 2000 -RA SCT015 BKN018 21/19 Q1015 BECMG 6000=",
"68816099999","2022-01-18T11:25:00","4","-33.964806","18.601667","46.02","CAPE TOWN INTERNATIONAL, SF","FM-16","99999","V020","310,1,N,0088,1","00549,1,9,N","009999,1,9,9","+0200,1","+0190,1","99999,9",,,,,"04,1,+00366,1,99,9","07,1,+00549,1,99,9",,"9,AGL   ,+99999,+99999","99,99,9,04,1,99,9,00366,1,99,9,99,9",,,"10150,1,99999,9",,,,,,"MET064SPECI FACT 181125Z 31017KT 9999 SCT012 BKN018 20/19 Q1015 NOSIG=",
"68816099999","2022-01-18T11:55:00","4","-33.964806","18.601667","46.02","CAPE TOWN INTERNATIONAL, SF","FM-16","99999","V020","310,1,N,0098,1","00610,1,9,N","009999,1,9,9","+0220,1","+0200,1","99999,9",,,,,"04,1,+00366,1,99,9","07,1,+00610,1,99,9",,"9,AGL   ,+99999,+99999","99,99,9,04,1,99,9,00366,1,99,9,99,9",,,"10140,1,99999,9",,,,,,"MET064SPECI FACT 181155Z 31019KT 9999 SCT012 BKN020 22/20 Q1014 NOSIG=",
"68816099999","2022-01-18T12:00:00","4","-33.964806","18.601667","46.02","CAPE TOWN INTERNATIONAL, SF","FM-12","99999","V020","320,1,N,0108,1","99999,9,9,N","030000,1,9,9","+0217,1","+0193,1","10148,1","06,0010,3,1","6,1,02,1","6,1,02,1",,"07,1,+00450,1,07,1",,,"9,AGL   ,+99999,+99999","07,99,1,07,1,99,9,00450,1,99,9,99,9","240,M,+0219,1","240,N,+0200,1","99999,9,10094,1","2,1,004,1,+999,9","21,1",,,"4,99,0124,1,999","SYN10468816 11480 73221 10217 20193 30094 40148 52004 60011 72166 876// 333 10219 20200 91024 555 20012 91014=",
"68816099999","2022-01-18T12:00:00","4","-33.964806","18.601667","46.02","CAPE TOWN INTERNATIONAL, SF","FM-15","99999","V020","310,1,N,0098,1","00610,1,9,N","009999,1,9,9","+0220,1","+0200,1","99999,9",,,,,"04,1,+00366,1,99,9","07,1,+00610,1,99,9",,"9,AGL   ,+99999,+99999","99,99,9,04,1,99,9,00366,1,99,9,99,9",,,"10140,1,99999,9",,,,,,"MET064METAR FACT 181200Z 31019KT 9999 SCT012 BKN020 22/20 Q1014 NOSIG=",
"68816099999","2022-01-18T13:00:00","4","-33.964806","18.601667","46.02","CAPE TOWN INTERNATIONAL, SF","FM-15","99999","V020","310,1,N,0108,1","00762,1,C,N","009999,1,9,9","+0230,1","+0190,1","99999,9",,,,,"02,1,+00457,1,99,9","04,1,+00762,1,99,9",,"9,AGL   ,+99999,+99999","99,99,9,02,1,99,9,00457,1,99,9,99,9",,,"10140,1,99999,9",,,,,,"MET064METAR FACT 181300Z 31021KT 9999 FEW015 SCT025 23/19 Q1014 NOSIG=",
"68816099999","2022-01-18T14:00:00","4","-33.964806","18.601667","46.02","CAPE TOWN INTERNATIONAL, SF","FM-15","99999","V020","310,1,V,0093,1","00914,1,C,N","009999,1,9,9","+0240,1","+0190,1","99999,9",,,,,"02,1,+00549,1,99,9","04,1,+00914,1,99,9",,"9,AGL   ,+99999,+99999","99,99,9,02,1,99,9,00549,1,99,9,99,9",,,"10150,1,99999,9",,,,,,"MET072METAR FACT 181400Z 31018KT 280V340 9999 FEW018 SCT030 24/19 Q1015 NOSIG=",
"68816099999","2022-01-18T15:00:00","4","-33.964806","18.601667","46.02","CAPE TOWN INTERNATIONAL, SF","FM-15","99999","V020","310,1,V,0082,1","99999,9,9,N","009999,1,9,9","+0230,1","+0170,1","99999,9",,,,,"02,1,+00762,1,99,9",,,"9,AGL   ,+99999,+99999","99,99,9,02,1,99,9,00762,1,99,9,99,9",,,"10150,1,99999,9",,,,,,"MET065METAR FACT 181500Z 31016KT 280V340 9999 FEW025 23/17 Q1015 NOSIG=",
"68816099999","2022-01-18T16:00:00","4","-33.964806","18.601667","46.02","CAPE TOWN INTERNATIONAL, SF","FM-15","99999","V020","300,1,N,0067,1","99999,9,9,N","009999,1,9,9","+0220,1","+0160,1","99999,9",,,,,"04,1,+00914,1,99,9",,,"9,AGL   ,+99999,+99999","99,99,9,04,1,99,9,00914,1,99,9,99,9",,,"10150,1,99999,9",,,,,,"MET057METAR FACT 181600Z 30013KT 9999 SCT030 22/16 Q1015 NOSIG=",
"68816099999","2022-01-18T17:00:00","4","-33.964806","18.601667","46.02","CAPE TOWN INTERNATIONAL, SF","FM-15","99999","V020","230,1,V,0057,1","01067,1,C,N","009999,1,9,9","+0210,1","+0130,1","99999,9",,,,,"07,1,+01067,1,99,9",,,"9,AGL   ,+99999,+99999","99,99,9,07,1,99,9,01067,1,99,9,99,9",,,"10160,1,99999,9",,,,,,"MET065METAR FACT 181700Z 23011KT 210V270 9999 BKN035 21/13 Q1016 NOSIG=",
"68816099999","2022-01-18T18:00:00","4","-33.964806","18.601667","46.02","CAPE TOWN INTERNATIONAL, SF","FM-12","99999","V020","240,1,N,0036,1","22000,1,9,N","030000,1,9,9","+0204,1","+0131,1","10175,1","12,0020,3,1",,,,"01,1,+01250,1,06,1","99,9,+99999,9,02,1",,"9,AGL   ,+99999,+99999","01,99,1,01,1,99,9,01250,1,99,9,99,9","120,M,+0242,1","120,N,+0200,1","99999,9,10121,1","2,1,021,1,+999,9",,,,"4,99,0041,1,999","SYN09868816 12680 12407 10204 20131 30121 40175 52021 60022 81508 333 10242 20200 91008 555 20012 91017=",
"68816099999","2022-01-18T18:00:00","4","-33.964806","18.601667","46.02","CAPE TOWN INTERNATIONAL, SF","FM-15","99999","V020","230,1,N,0041,1","99999,9,9,N","009999,1,9,9","+0200,1","+0130,1","99999,9",,,,,"02,1,+01067,1,99,9",,,"9,AGL   ,+99999,+99999","99,99,9,02,1,99,9,01067,1,99,9,99,9",,,"10170,1,99999,9",,,,,,"MET057METAR FACT 181800Z 23008KT 9999 FEW035 20/13 Q1017 NOSIG=",
"68816099999","2022-01-18T19:00:00","4","-33.964806","18.601667","46.02","CAPE TOWN INTERNATIONAL, SF","FM-15","99999","V020","190,1,N,0031,1","99999,9,9,N","009999,1,9,9","+0200,1","+0130,1","99999,9",,,,,"02,1,+01067,1,99,9",,,"9,AGL   ,+99999,+99999","99,99,9,02,1,99,9,01067,1,99,9,99,9",,,"10180,1,99999,9",,,,,,"MET057METAR FACT 181900Z 19006KT 9999 FEW035 20/13 Q1018 NOSIG=",
"68816099999","2022-01-18T20:00:00","4","-33.964806","18.601667","46.02","CAPE TOWN INTERNATIONAL, SF","FM-15","99999","V020","200,1,N,0036,1","99999,9,9,N","009999,1,9,9","+0190,1","+0140,1","99999,9",,,,,"02,1,+00914,1,99,9",,,"9,AGL   ,+99999,+99999","99,99,9,02,1,99,9,00914,1,99,9,99,9",,,"10180,1,99999,9",,,,,,"MET057METAR FACT 182000Z 20007KT 9999 FEW030 19/14 Q1018 NOSIG=",
"68816099999","2022-01-18T21:00:00","4","-33.964806","18.601667","46.02","CAPE TOWN INTERNATIONAL, SF","FM-15","99999","V020","200,1,N,0031,1","99999,9,9,N","009999,1,9,9","+0180,1","+0130,1","99999,9",,,,,"02,1,+00914,1,99,9",,,"9,AGL   ,+99999,+99999","99,99,9,02,1,99,9,00914,1,99,9,99,9",,,"10190,1,99999,9",,,,,,"MET057METAR FACT 182100Z 20006KT 9999 FEW030 18/13 Q1019 NOSIG=",
"68816099999","2022-01-18T22:00:00","4","-33.964806","18.601667","46.02","CAPE TOWN INTERNATIONAL, SF","FM-15","99999","V020","190,1,N,0036,1","99999,9,9,N","009999,1,9,9","+0170,1","+0120,1","99999,9",,,,,"02,1,+00914,1,99,9",,,"9,AGL   ,+99999,+99999","99,99,9,02,1,99,9,00914,1,99,9,99,9",,,"10190,1,99999,9",,,,,,"MET057METAR FACT 182200Z 19007KT 9999 FEW030 17/12 Q1019 NOSIG=",
"68816099999","2022-01-18T23:00:00","4","-33.964806","18.601667","46.02","CAPE TOWN INTERNATIONAL, SF","FM-15","99999","V020","110,1,N,0031,1","99999,9,9,N","009999,1,9,9","+0150,1","+0120,1","99999,9",,,,,"02,1,+01067,1,99,9",,,"9,AGL   ,+99999,+99999","99,99,9,02,1,99,9,01067,1,99,9,99,9",,,"10200,1,99999,9",,,,,,"MET057METAR FACT 182300Z 11006KT 9999 FEW035 15/12 Q1020 NOSIG=",
"68816099999","2022-01-19T00:00:00","4","-33.964806","18.601667","46.02","CAPE TOWN INTERNATIONAL, SF","FM-12","99999","V020","140,1,N,0026,1","22000,1,9,N","030000,1,9,9","+0140,1","+0121,1","10199,1","18,0010,3,1",,,,"02,1,+00800,1,06,1","99,9,+99999,9,02,1",,"9,AGL   ,+99999,+99999","02,99,1,02,1,99,9,00800,1,99,9,99,9","120,M,+0242,1",,"99999,9,10144,1","2,1,021,1,+999,9",,,,"4,99,0051,1,999","SYN09268816 12580 21405 10140 20121 30144 40199 52021 60013 82508 333 10242 91010 555 20012 91019=",
"68816099999","2022-01-19T00:00:00","4","-33.964806","18.601667","46.02","CAPE TOWN INTERNATIONAL, SF","FM-15","99999","V020","140,1,N,0026,1","99999,9,9,N","009999,1,9,9","+0140,1","+0120,1","99999,9",,,,,"02,1,+00914,1,99,9",,,"9,AGL   ,+99999,+99999","99,99,9,02,1,99,9,00914,1,99,9,99,9",,,"10190,1,99999,9",,,,,,"MET057METAR FACT 190000Z 14005KT 9999 FEW030 14/12 Q1019 NOSIG=",
"68816099999","2022-01-19T01:00:00","4","-33.964806","18.601667","46.02","CAPE TOWN INTERNATIONAL, SF","FM-15","99999","V020","170,1,N,0036,1","99999,9,9,N","009999,1,9,9","+0150,1","+0120,1","99999,9",,,,,"02,1,+01067,1,99,9",,,"9,AGL   ,+99999,+99999","99,99,9,02,1,99,9,01067,1,99,9,99,9",,,"10190,1,99999,9",,,,,,"MET057METAR FACT 190100Z 17007KT 9999 FEW035 15/12 Q1019 NOSIG=",
"68816099999","2022-01-19T02:00:00","4","-33.964806","18.601667","46.02","CAPE TOWN INTERNATIONAL, SF","FM-15","99999","V020","170,1,N,0036,1","99999,9,9,N","009999,1,9,9","+0130,1","+0110,1","99999,9",,,,,"02,1,+00914,1,99,9",,,"9,AGL   ,+99999,+99999","99,99,9,02,1,99,9,00914,1,99,9,99,9",,,"10190,1,99999,9",,,,,,"MET057METAR FACT 190200Z 17007KT 9999 FEW030 13/11 Q1019 NOSIG=",
"68816099999","2022-01-19T02:26:00","4","-33.964806","18.601667","46.02","CAPE TOWN INTERNATIONAL, SF","FM-16","99999","V020","170,1,N,0041,1","99999,9,9,N","009999,1,9,9","+0150,1","+0120,1","99999,9",,,,,"02,1,+00914,1,99,9",,,"9,AGL   ,+99999,+99999","99,99,9,02,1,99,9,00914,1,99,9,99,9",,,"10190,1,99999,9",,,,,,"MET057SPECI FACT 190226Z 17008KT 9999 FEW030 15/12 Q1019 NOSIG=",
"68816099999","2022-01-19T03:00:00","4","-33.964806","18.601667","46.02","CAPE TOWN INTERNATIONAL, SF","FM-15","99999","V020","180,1,N,0041,1","99999,9,9,N","009999,1,9,9","+0140,1","+0120,1","99999,9",,,,,"02,1,+00914,1,99,9",,,"9,AGL   ,+99999,+99999","99,99,9,02,1,99,9,00914,1,99,9,99,9",,,"10190,1,99999,9",,,,,,"MET057METAR FACT 190300Z 18008KT 9999 FEW030 14/12 Q1019 NOSIG=",
"68816099999","2022-01-19T04:00:00","4","-33.964806","18.601667","46.02","CAPE TOWN INTERNATIONAL, SF","FM-15","99999","V020","180,1,N,0036,1","99999,9,9,N","009999,1,9,9","+0150,1","+0120,1","99999,9",,,,,"02,1,+00914,1,99,9",,,"9,AGL   ,+99999,+99999","99,99,9,02,1,99,9,00914,1,99,9,99,9",,,"10190,1,99999,9",,,,,,"MET057METAR FACT 190400Z 18007KT 9999 FEW030 15/12 Q1019 NOSIG=",
"68816099999","2022-01-19T04:55:00","4","-33.964806","18.601667","46.02","CAPE TOWN INTERNATIONAL, SF","FM-16","99999","V020","200,1,N,0031,1","99999,9,9,Y","009900,5,9,9","+0170,1","+0120,1","99999,9",,,,,,,,,,,,"10190,1,99999,9",,,,,,"MET051SPECI FACT 190455Z 20006KT CAVOK 17/12 Q1019 NOSIG=",
"68816099999","2022-01-19T05:00:00","4","-33.964806","18.601667","46.02","CAPE TOWN INTERNATIONAL, SF","FM-15","99999","V020","200,1,N,0031,1","99999,9,9,Y","009900,5,9,9","+0170,1","+0120,1","99999,9",,,,,,,,,,,,"10190,1,99999,9",,,,,,"MET051METAR FACT 190500Z 20006KT CAVOK 17/12 Q1019 NOSIG=",
"68816099999","2022-01-19T06:00:00","4","-33.964806","18.601667","46.02","CAPE TOWN INTERNATIONAL, SF","FM-12","99999","V020","190,1,N,0051,1","99999,9,9,N","030000,1,9,9","+0190,1","+0108,1","10194,1","24,0010,3,1",,,,,,,,,"240,N,+0127,1",,"99999,9,10139,1","9,9,003,1,+999,9",,,,"4,99,0067,1,999","SYN09268816 12980 01910 10190 20108 30139 40194 50003 60014 333 20127 91013 555 10242 20012 91019=",
"68816099999","2022-01-19T06:00:00","4","-33.964806","18.601667","46.02","CAPE TOWN INTERNATIONAL, SF","FM-15","99999","V020","180,1,N,0046,1","99999,9,9,Y","009900,5,9,9","+0190,1","+0110,1","99999,9",,,,,,,,,,,,"10190,1,99999,9",,,,,,"MET051METAR FACT 190600Z 18009KT CAVOK 19/11 Q1019 NOSIG=",
"68816099999","2022-01-19T07:00:00","4","-33.964806","18.601667","46.02","CAPE TOWN INTERNATIONAL, SF","FM-15","99999","V020","180,1,N,0046,1","99999,9,9,Y","009900,5,9,9","+0200,1","+0110,1","99999,9",,,,,,,,,,,,"10190,1,99999,9",,,,,,"MET051METAR FACT 190700Z 18009KT CAVOK 20/11 Q1019 NOSIG=",
"68816099999","2022-01-19T08:00:00","4","-33.964806","18.601667","46.02","CAPE TOWN INTERNATIONAL, SF","FM-15","99999","V020","200,1,N,0051,1","99999,9,9,Y","009900,5,9,9","+0210,1","+0110,1","99999,9",,,,,,,,,,,,"10180,1,99999,9",,,,,,"MET051METAR FACT 190800Z 20010KT CAVOK 21/11 Q1018 NOSIG=",
"68816099999","2022-01-19T09:00:00","4","-33.964806","18.601667","46.02","CAPE TOWN INTERNATIONAL, SF","FM-15","99999","V020","220,1,V,0031,1","99999,9,9,Y","009900,5,9,9","+0220,1","+0100,1","99999,9",,,,,,,,,,,,"10180,1,99999,9",,,,,,"MET059METAR FACT 190900Z 22006KT 180V270 CAVOK 22/10 Q1018 NOSIG=",
"68816099999","2022-01-19T10:00:00","4","-33.964806","18.601667","46.02","CAPE TOWN INTERNATIONAL, SF","FM-15","99999","V020","210,1,V,0041,1","99999,9,9,Y","009900,5,9,9","+0230,1","+0100,1","99999,9",,,,,,,,,,,,"10170,1,99999,9",,,,,,"MET059METAR FACT 191000Z 21008KT 160V240 CAVOK 23/10 Q1017 NOSIG=",
"68816099999","2022-01-19T11:00:00","4","-33.964806","18.601667","46.02","CAPE TOWN INTERNATIONAL, SF","FM-15","99999","V020","210,1,V,0051,1","99999,9,9,Y","009900,5,9,9","+0250,1","+0100,1","99999,9",,,,,,,,,,,,"10170,1,99999,9",,,,,,"MET059METAR FACT 191100Z 21010KT 170V230 CAVOK 25/10 Q1017 NOSIG=",
"68816099999","2022-01-19T12:00:00","4","-33.964806","18.601667","46.02","CAPE TOWN INTERNATIONAL, SF","FM-12","99999","V020","170,1,N,0057,1","99999,9,9,N","030000,1,9,9","+0249,1","+0103,1","10165,1",,,,,,,,,,"240,M,+0257,1","240,N,+0190,1","99999,9,10112,1","7,1,016,1,+999,9",,,,"4,99,0067,1,999","SYN08068816 32980 01711 10249 20103 30112 40165 57016 333 10257 20190 91013 555 91016=",
"68816099999","2022-01-19T12:00:00","4","-33.964806","18.601667","46.02","CAPE TOWN INTERNATIONAL, SF","FM-15","99999","V020","180,1,N,0062,1","99999,9,9,Y","009900,5,9,9","+0250,1","+0100,1","99999,9",,,,,,,,,,,,"10160,1,99999,9",,,,,,"MET051METAR FACT 191200Z 18012KT CAVOK 25/10 Q1016 NOSIG=",
"68816099999","2022-01-19T13:00:00","4","-33.964806","18.601667","46.02","CAPE TOWN INTERNATIONAL, SF","FM-15","99999","V020","180,1,N,0067,1","99999,9,9,Y","009900,5,9,9","+0250,1","+0100,1","99999,9",,,,,,,,,,,,"10160,1,99999,9",,,,,,"MET051METAR FACT 191300Z 18013KT CAVOK 25/10 Q1016 NOSIG=",
"68816099999","2022-01-19T14:00:00","4","-33.964806","18.601667","46.02","CAPE TOWN INTERNATIONAL, SF","FM-15","99999","V020","170,1,N,0067,1","99999,9,9,Y","009900,5,9,9","+0240,1","+0120,1","99999,9",,,,,,,,,,,,"10150,1,99999,9",,,,,,"MET051METAR FACT 191400Z 17013KT CAVOK 24/12 Q1015 NOSIG=",
"68816099999","2022-01-19T15:00:00","4","-33.964806","18.601667","46.02","CAPE TOWN INTERNATIONAL, SF","FM-15","99999","V020","170,1,N,0067,1","99999,9,9,Y","009900,5,9,9","+0240,1","+0120,1","99999,9",,,,,,,,,,,,"10150,1,99999,9",,,,,,"MET051METAR FACT 191500Z 17013KT CAVOK 24/12 Q1015 NOSIG=",
"68816099999","2022-01-19T16:00:00","4","-33.964806","18.601667","46.02","CAPE TOWN INTERNATIONAL, SF","FM-15","99999","V020","180,1,N,0093,1","99999,9,9,Y","009900,5,9,9","+0220,1","+0130,1","99999,9",,,,,,,,,,,,"10150,1,99999,9",,,,,,"MET051METAR FACT 191600Z 18018KT CAVOK 22/13 Q1015 NOSIG=",
"68816099999","2022-01-19T17:00:00","4","-33.964806","18.601667","46.02","CAPE TOWN INTERNATIONAL, SF","FM-15","99999","V020","180,1,N,0093,1","99999,9,9,Y","009900,5,9,9","+0200,1","+0140,1","99999,9",,,,,,,,,,,,"10150,1,99999,9",,,,,,"MET051METAR FACT 191700Z 18018KT CAVOK 20/14 Q1015 NOSIG=",
"68816099999","2022-01-19T18:00:00","4","-33.964806","18.601667","46.02","CAPE TOWN INTERNATIONAL, SF","FM-12","99999","V020","200,1,N,0077,1","99999,9,9,N","030000,1,9,9","+0190,1","+0141,1","10158,1",,,,,,,,,,"120,M,+0256,1","120,N,+0190,1","99999,9,10104,1","2,1,006,1,+999,9",,,,"4,99,0093,1,999","SYN08068816 32980 02015 10190 20141 30104 40158 52006 333 10256 20190 91018 555 91015=",
"68816099999","2022-01-19T18:00:00","4","-33.964806","18.601667","46.02","CAPE TOWN INTERNATIONAL, SF","FM-15","99999","V020","200,1,N,0082,1","99999,9,9,Y","009900,5,9,9","+0190,1","+0140,1","99999,9",,,,,,,,,,,,"10150,1,99999,9",,,,,,"MET051METAR FACT 191800Z 20016KT CAVOK 19/14 Q1015 NOSIG=",
"68816099999","2022-01-19T19:00:00","4","-33.964806","18.601667","46.02","CAPE TOWN INTERNATIONAL, SF","FM-15","99999","V020","200,1,N,0062,1","99999,9,9,Y","009900,5,9,9","+0180,1","+0140,1","99999,9",,,,,,,,,,,,"10160,1,99999,9",,,,,,"MET051METAR FACT 191900Z 20012KT CAVOK 18/14 Q1016 NOSIG=",
"68816099999","2022-01-19T20:00:00","4","-33.964806","18.601667","46.02","CAPE TOWN INTERNATIONAL, SF","FM-15","99999","V020","220,1,N,0067,1","99999,9,9,Y","009900,5,9,9","+0180,1","+0150,1","99999,9",,,,,,,,,,,,"10150,1,99999,9",,,,,,"MET051METAR FACT 192000Z 22013KT CAVOK 18/15 Q1015 NOSIG=",
"68816099999","2022-01-19T21:00:00","4","-33.964806","18.601667","46.02","CAPE TOWN INTERNATIONAL, SF","FM-15","99999","V020","220,1,N,0067,1","99999,9,9,Y","009900,5,9,9","+0180,1","+0150,1","99999,9",,,,,,,,,,,,"10150,1,99999,9",,,,,,"MET051METAR FACT 192100Z 22013KT CAVOK 18/15 Q1015 NOSIG=",
"68816099999","2022-01-19T22:00:00","4","-33.964806","18.601667","46.02","CAPE TOWN INTERNATIONAL, SF","FM-15","99999","V020","210,1,N,0057,1","99999,9,9,Y","009900,5,9,9","+0170,1","+0150,1","99999,9",,,,,,,,,,,,"10140,1,99999,9",,,,,,"MET051METAR FACT 192200Z 21011KT CAVOK 17/15 Q1014 NOSIG=",
"68816099999","2022-01-19T23:00:00","4","-33.964806","18.601667","46.02","CAPE TOWN INTERNATIONAL, SF","FM-15","99999","V020","200,1,V,0021,1","99999,9,9,Y","009900,5,9,9","+0170,1","+0150,1","99999,9",,,,,,,,,,,,"10130,1,99999,9",,,,,,"MET059METAR FACT 192300Z 20004KT 160V220 CAVOK 17/15 Q1013 NOSIG=",
"68816099999","2022-01-20T00:00:00","4","-33.964806","18.601667","46.02","CAPE TOWN INTERNATIONAL, SF","FM-12","99999","V020","290,1,N,0015,1","99999,9,9,N","030000,1,9,9","+0151,1","+0138,1","10134,1",,,,,,,,,,"120,M,+0256,1",,"99999,9,10078,1","6,1,016,1,+999,9",,,,"4,99,0021,1,999","SYN07468816 32980 02903 10151 20138 30078 40134 56016 333 10256 91004 555 91013=",
"68816099999","2022-01-20T00:00:00","4","-33.964806","18.601667","46.02","CAPE TOWN INTERNATIONAL, SF","FM-15","99999","V020","300,1,N,0015,1","99999,9,9,Y","009900,5,9,9","+0150,1","+0140,1","99999,9",,,,,,,,,,,,"10130,1,99999,9",,,,,,"MET051METAR FACT 200000Z 30003KT CAVOK 15/14 Q1013 NOSIG=",
"68816099999","2022-01-20T01:00:00","4","-33.964806","18.601667","46.02","CAPE TOWN INTERNATIONAL, SF","FM-15","99999","V020","310,1,N,0026,1","99999,9,9,Y","009900,5,9,9","+0150,1","+0140,1","99999,9",,,,,,,,,,,,"10130,1,99999,9",,,,,,"MET051METAR FACT 200100Z 31005KT CAVOK 15/14 Q1013 NOSIG=",
"68816099999","2022-01-20T02:00:00","4","-33.964806","18.601667","46.02","CAPE TOWN INTERNATIONAL, SF","FM-15","99999","V020","310,1,N,0026,1","99999,9,9,Y","009900,5,9,9","+0150,1","+0140,1","99999,9",,,,,,,,,,,,"10120,1,99999,9",,,,,,"MET051METAR FACT 200200Z 31005KT CAVOK 15/14 Q1012 NOSIG=",
"68816099999","2022-01-20T03:00:00","4","-33.964806","18.601667","46.02","CAPE TOWN INTERNATIONAL, SF","FM-15","99999","V020","330,1,N,0015,1","99999,9,9,Y","009900,5,9,9","+0150,1","+0140,1","99999,9",,,,,,,,,,,,"10120,1,99999,9",,,,,,"MET051METAR FACT 200300Z 33003KT CAVOK 15/14 Q1012 NOSIG=",
"68816099999","2022-01-20T04:00:00","4","-33.964806","18.601667","46.02","CAPE TOWN INTERNATIONAL, SF","FM-15","99999","V020","040,1,N,0010,1","22000,1,9,N","008000,1,9,9","+0140,1","+0130,1","99999,9",,,,,,,,,"00,99,1,99,9,99,9,99999,9,99,9,99,9",,,"10130,1,99999,9",,,,,,"MET054METAR FACT 200400Z 04002KT 8000 NSC 14/13 Q1013 NOSIG=",
"68816099999","2022-01-20T05:00:00","4","-33.964806","18.601667","46.02","CAPE TOWN INTERNATIONAL, SF","FM-15","99999","V020","120,1,N,0010,1","99999,9,9,Y","009900,5,9,9","+0150,1","+0140,1","99999,9",,,,,,,,,,,,"10130,1,99999,9",,,,,,"MET051METAR FACT 200500Z 12002KT CAVOK 15/14 Q1013 NOSIG=",
"68816099999","2022-01-20T05:00:00","4","-33.964806","18.601667","46.02","CAPE TOWN INTERNATIONAL, SF","FM-16","99999","V020","120,1,N,0010,1","99999,9,9,Y","009900,5,9,9","+0150,1","+0140,1","99999,9",,,,,,,,,,,,"10130,1,99999,9",,,,,,"MET051SPECI FACT 200500Z 12002KT CAVOK 15/14 Q1013 NOSIG=",
"68816099999","2022-01-20T05:24:00","4","-33.964806","18.601667","46.02","CAPE TOWN INTERNATIONAL, SF","FM-16","99999","V020","999,9,C,0000,1","99999,9,9,Y","009900,5,9,9","+0170,1","+0150,1","99999,9",,,,,,,,,,,,"10130,1,99999,9",,,,,,"MET051SPECI FACT 200524Z 00000KT CAVOK 17/15 Q1013 NOSIG=",
"68816099999","2022-01-20T06:00:00","4","-33.964806","18.601667","46.02","CAPE TOWN INTERNATIONAL, SF","FM-12","99999","V020","240,1,N,0010,1","99999,9,9,N","020000,1,9,9","+0187,1","+0154,1","10142,1",,,,,,,,,,,,"99999,9,10087,1","7,1,009,1,+999,9",,,,"4,99,0026,1,999","SYN06868816 32970 02402 10187 20154 30087 40142 57009 333 91005 555 91014=",
"68816099999","2022-01-20T06:00:00","4","-33.964806","18.601667","46.02","CAPE TOWN INTERNATIONAL, SF","FM-15","99999","V020","999,9,V,0005,1","99999,9,9,Y","009900,5,9,9","+0180,1","+0160,1","99999,9",,,,,,,,,,,,"10140,1,99999,9",,,,,,"MET051METAR FACT 200600Z VRB01KT CAVOK 18/16 Q1014 NOSIG=",
"68816099999","2022-01-20T06:25:00","4","-33.964806","18.601667","46.02","CAPE TOWN INTERNATIONAL, SF","FM-16","99999","V020","190,1,V,0021,1","99999,9,9,Y","009900,5,9,9","+0200,1","+0150,1","99999,9",,,,,,,,,,,,"10140,1,99999,9",,,,,,"MET059SPECI FACT 200625Z 19004KT 140V230 CAVOK 20/15 Q1014 NOSIG=",
"68816099999","2022-01-20T07:00:00","4","-33.964806","18.601667","46.02","CAPE TOWN INTERNATIONAL, SF","FM-15","99999","V020","200,1,V,0031,1","99999,9,9,Y","009900,5,9,9","+0210,1","+0150,1","99999,9",,,,,,,,,,,,"10150,1,99999,9",,,,,,"MET059METAR FACT 200700Z 20006KT 170V260 CAVOK 21/15 Q1015 NOSIG=",
"68816099999","2022-01-20T07:25:00","4","-33.964806","18.601667","46.02","CAPE TOWN INTERNATIONAL, SF","FM-16","99999","V020","180,1,V,0036,1","99999,9,9,Y","009900,5,9,9","+0230,1","+0150,1","99999,9",,,,,,,,,,,,"10140,1,99999,9",,,,,,"MET059SPECI FACT 200725Z 18007KT 140V210 CAVOK 23/15 Q1014 NOSIG=",
"68816099999","2022-01-20T08:00:00","4","-33.964806","18.601667","46.02","CAPE TOWN INTERNATIONAL, SF","FM-15","99999","V020","170,1,V,0046,1","99999,9,9,Y","009900,5,9,9","+0230,1","+0160,1","99999,9",,,,,,,,,,,,"10150,1,99999,9",,,,,,"MET059METAR FACT 200800Z 17009KT 140V200 CAVOK 23/16 Q1015 NOSIG=",
"68816099999","2022-01-20T09:00:00","4","-33.964806","18.601667","46.02","CAPE TOWN INTERNATIONAL, SF","FM-12","99999","V020","180,1,N,0051,1","99999,9,9,N","020000,1,9,9","+0240,1","+0166,1","10158,1",,,,,,,,,,,,"99999,9,10101,1","2,1,008,1,+999,9",,,,"4,99,0077,1,999","SYN05868816 42970 01810 10240 20166 30101 40158 52008 333 91015=",
"68816099999","2022-01-20T09:00:00","4","-33.964806","18.601667","46.02","CAPE TOWN INTERNATIONAL, SF","FM-15","99999","V020","180,1,N,0051,1","99999,9,9,Y","009900,5,9,9","+0240,1","+0170,1","99999,9",,,,,,,,,,,,"10150,1,99999,9",,,,,,"MET051METAR FACT 200900Z 18010KT CAVOK 24/17 Q1015 NOSIG=",
"68816099999","2022-01-20T10:00:00","4","-33.964806","18.601667","46.02","CAPE TOWN INTERNATIONAL, SF","FM-15","99999","V020","160,1,V,0046,1","99999,9,9,Y","009900,5,9,9","+0250,1","+0160,1","99999,9",,,,,,,,,,,,"10160,1,99999,9",,,,,,"MET059METAR FACT 201000Z 16009KT 120V200 CAVOK 25/16 Q1016 NOSIG=",
"68816099999","2022-01-20T11:00:00","4","-33.964806","18.601667","46.02","CAPE TOWN INTERNATIONAL, SF","FM-15","99999","V020","160,1,N,0057,1","99999,9,9,Y","009900,5,9,9","+0250,1","+0160,1","99999,9",,,,,,,,,,,,"10160,1,99999,9",,,,,,"MET055METAR COR FACT 201100Z 16011KT CAVOK 25/16 Q1016 NOSIG=",
"68816099999","2022-01-20T12:00:00","4","-33.964806","18.601667","46.02","CAPE TOWN INTERNATIONAL, SF","FM-12","99999","V020","170,1,N,0067,1","99999,9,9,N","030000,1,9,9","+0257,1","+0141,1","10160,1",,,,,,,,,,"240,M,+0259,1","240,N,+0188,1","99999,9,10107,1","2,1,006,1,+999,9",,,,"4,99,0088,1,999","SYN08068816 32980 01713 10257 20141 30107 40160 52006 333 10259 20188 91017 555 91016=",
"68816099999","2022-01-20T12:00:00","4","-33.964806","18.601667","46.02","CAPE TOWN INTERNATIONAL, SF","FM-15","99999","V020","160,1,N,0067,1","99999,9,9,Y","009900,5,9,9","+0250,1","+0140,1","99999,9",,,,,,,,,,,,"10160,1,99999,9",,,,,,"MET051METAR FACT 201200Z 16013KT CAVOK 25/14 Q1016 NOSIG=",
"68816099999","2022-01-20T13:00:00","4","-33.964806","18.601667","46.02","CAPE TOWN INTERNATIONAL, SF","FM-15","99999","V020","170,1,N,0093,1","99999,9,9,Y","009900,5,9,9","+0240,1","+0150,1","99999,9",,,,,,,,,,,,"10160,1,99999,9",,,,,,"MET051METAR FACT 201300Z 17018KT CAVOK 24/15 Q1016 NOSIG=",
"68816099999","2022-01-20T14:00:00","4","-33.964806","18.601667","46.02","CAPE TOWN INTERNATIONAL, SF","FM-15","99999","V020","180,1,N,0088,1","99999,9,9,Y","009900,5,9,9","+0240,1","+0150,1","99999,9",,,,,,,,,,,,"10160,1,99999,9",,,,,,"MET051METAR FACT 201400Z 18017KT CAVOK 24/15 Q1016 NOSIG=",
"68816099999","2022-01-20T15:00:00","4","-33.964806","18.601667","46.02","CAPE TOWN INTERNATIONAL, SF","FM-15","99999","V020","170,1,N,0098,1","99999,9,9,Y","009900,5,9,9","+0230,1","+0150,1","99999,9",,,,,,,,,,,,"10150,1,99999,9",,,,,,"MET051METAR FACT 201500Z 17019KT CAVOK 23/15 Q1015 NOSIG=",
"68816099999","2022-01-20T16:00:00","4","-33.964806","18.601667","46.02","CAPE TOWN INTERNATIONAL, SF","FM-15","99999","V020","170,1,N,0082,1","99999,9,9,Y","009900,5,9,9","+0220,1","+0150,1","99999,9",,,,,,,,,,,,"10150,1,99999,9",,,,,,"MET051METAR FACT 201600Z 17016KT CAVOK 22/15 Q1015 NOSIG=",
"68816099999","2022-01-20T17:00:00","4","-33.964806","18.601667","46.02","CAPE TOWN INTERNATIONAL, SF","FM-15","99999","V020","180,1,N,0098,1","99999,9,9,Y","009900,5,9,9","+0210,1","+0150,1","99999,9",,,,,,,,,,,,"10160,1,99999,9",,,,,,"MET051METAR FACT 201700Z 18019KT CAVOK 21/15 Q1016 NOSIG=",
"68816099999","2022-01-20T18:00:00","4","-33.964806","18.601667","46.02","CAPE TOWN INTERNATIONAL, SF","FM-12","99999","V020","190,1,N,0082,1","99999,9,9,N","030000,1,9,9","+0195,1","+0150,1","10167,1",,,,,,,,,,"120,M,+0258,1","120,N,+0188,1","99999,9,10113,1","2,1,010,1,+999,9",,,,"4,99,0103,1,999","SYN08068816 32980 01916 10195 20150 30113 40167 52010 333 10258 20188 91020 555 91016=",
"68816099999","2022-01-20T18:00:00","4","-33.964806","18.601667","46.02","CAPE TOWN INTERNATIONAL, SF","FM-15","99999","V020","190,1,N,0082,1","99999,9,9,Y","009900,5,9,9","+0200,1","+0150,1","99999,9",,,,,,,,,,,,"10160,1,99999,9",,,,,,"MET051METAR FACT 201800Z 19016KT CAVOK 20/15 Q1016 NOSIG=",
"68816099999","2022-01-20T19:00:00","4","-33.964806","18.601667","46.02","CAPE TOWN INTERNATIONAL, SF","FM-15","99999","V020","190,1,N,0088,1","99999,9,9,Y","009900,5,9,9","+0190,1","+0150,1","99999,9",,,,,,,,,,,,"10170,1,99999,9",,,,,,"MET051METAR FACT 201900Z 19017KT CAVOK 19/15 Q1017 NOSIG=",
"68816099999","2022-01-20T20:00:00","4","-33.964806","18.601667","46.02","CAPE TOWN INTERNATIONAL, SF","FM-15","99999","V020","200,1,N,0077,1","99999,9,9,Y","009900,5,9,9","+0190,1","+0150,1","99999,9",,,,,,,,,,,,"10170,1,99999,9",,,,,,"MET051METAR FACT 202000Z 20015KT CAVOK 19/15 Q1017 NOSIG=",
"68816099999","2022-01-20T21:00:00","4","-33.964806","18.601667","46.02","CAPE TOWN INTERNATIONAL, SF","FM-15","99999","V020","210,1,N,0067,1","99999,9,9,Y","009900,5,9,9","+0180,1","+0150,1","99999,9",,,,,,,,,,,,"10170,1,99999,9",,,,,,"MET051METAR FACT 202100Z 21013KT CAVOK 18/15 Q1017 NOSIG=",
"68816099999","2022-01-20T22:00:00","4","-33.964806","18.601667","46.02","CAPE TOWN INTERNATIONAL, SF","FM-15","99999","V020","220,1,N,0072,1","99999,9,9,Y","009900,5,9,9","+0180,1","+0150,1","99999,9",,,,,,,,,,,,"10170,1,99999,9",,,,,,"MET051METAR FACT 202200Z 22014KT CAVOK 18/15 Q1017 NOSIG=",
"68816099999","2022-01-20T23:00:00","4","-33.964806","18.601667","46.02","CAPE TOWN INTERNATIONAL, SF","FM-15","99999","V020","210,1,N,0046,1","99999,9,9,Y","009900,5,9,9","+0180,1","+0150,1","99999,9",,,,,,,,,,,,"10170,1,99999,9",,,,,,"MET051METAR FACT 202300Z 21009KT CAVOK 18/15 Q1017 NOSIG=",
"68816099999","2022-01-21T00:00:00","4","-33.964806","18.601667","46.02","CAPE TOWN INTERNATIONAL, SF","FM-12","99999","V020","240,1,N,0057,1","99999,9,9,N","020000,1,9,9","+0171,1","+0145,1","10168,1",,,,,,,,,,,,"99999,9,10113,1","2,1,010,1,+999,9",,,,"4,99,0051,1,999","SYN06868816 32970 02411 10171 20145 30113 40168 52010 333 91010 555 91016=",
"68816099999","2022-01-21T00:00:00","4","-33.964806","18.601667","46.02","CAPE TOWN INTERNATIONAL, SF","FM-15","99999","V020","230,1,N,0046,1","99999,9,9,Y","009900,5,9,9","+0170,1","+0140,1","99999,9",,,,,,,,,,,,"10160,1,99999,9",,,,,,"MET051METAR FACT 210000Z 23009KT CAVOK 17/14 Q1016 NOSIG=",
"68816099999","2022-01-21T01:00:00","4","-33.964806","18.601667","46.02","CAPE TOWN INTERNATIONAL, SF","FM-15","99999","V020","220,1,N,0057,1","99999,9,9,Y","009900,5,9,9","+0170,1","+0150,1","99999,9",,,,,,,,,,,,"10160,1,99999,9",,,,,,"MET051METAR FACT 210100Z 22011KT CAVOK 17/15 Q1016 NOSIG=",
"68816099999","2022-01-21T02:00:00","4","-33.964806","18.601667","46.02","CAPE TOWN INTERNATIONAL, SF","FM-15","99999","V020","230,1,N,0057,1","99999,9,9,Y","009900,5,9,9","+0170,1","+0150,1","99999,9",,,,,,,,,,,,"10160,1,99999,9",,,,,,"MET051METAR FACT 210200Z 23011KT CAVOK 17/15 Q1016 NOSIG=",
"68816099999","2022-01-21T04:00:00","4","-33.964806","18.601667","46.02","CAPE TOWN INTERNATIONAL, SF","FM-15","99999","V020","230,1,N,0046,1","99999,9,9,Y","009900,5,9,9","+0170,1","+0140,1","99999,9",,,,,,,,,,,,"10160,1,99999,9",,,,,,"MET051METAR FACT 210400Z 23009KT CAVOK 17/14 Q1016 NOSIG=",
"68816099999","2022-01-21T05:00:00","4","-33.964806","18.601667","46.02","CAPE TOWN INTERNATIONAL, SF","FM-15","99999","V020","220,1,N,0036,1","99999,9,9,Y","009900,5,9,9","+0170,1","+0150,1","99999,9",,,,,,,,,,,,"10160,1,99999,9",,,,,,"MET051METAR FACT 210500Z 22007KT CAVOK 17/15 Q1016 NOSIG=",
"68816099999","2022-01-21T05:26:00","4","-33.964806","18.601667","46.02","CAPE TOWN INTERNATIONAL, SF","FM-16","99999","V020","190,1,V,0021,1","99999,9,9,Y","009900,5,9,9","+0190,1","+0140,1","99999,9",,,,,,,,,,,,"10160,1,99999,9",,,,,,"MET059SPECI FACT 210526Z 19004KT 150V230 CAVOK 19/14 Q1016 NOSIG=",
"68816099999","2022-01-21T06:00:00","4","-33.964806","18.601667","46.02","CAPE TOWN INTERNATIONAL, SF","FM-12","99999","V020","200,1,N,0031,1","99999,9,9,N","030000,1,9,9","+0199,1","+0130,1","10170,1",,,,,,,,,,"240,N,+0165,1",,"99999,9,10114,1","2,1,001,1,+999,9",,,,"4,99,0036,1,999","SYN08068816 32980 02006 10199 20130 30114 40170 52001 333 20165 91007 555 10258 91017=",
"68816099999","2022-01-21T06:00:00","4","-33.964806","18.601667","46.02","CAPE TOWN INTERNATIONAL, SF","FM-15","99999","V020","200,1,V,0031,1","99999,9,9,Y","009900,5,9,9","+0200,1","+0130,1","99999,9",,,,,,,,,,,,"10170,1,99999,9",,,,,,"MET059METAR FACT 210600Z 20006KT 170V240 CAVOK 20/13 Q1017 NOSIG=",
"68816099999","2022-01-21T07:00:00","4","-33.964806","18.601667","46.02","CAPE TOWN INTERNATIONAL, SF","FM-15","99999","V020","200,1,N,0057,1","99999,9,9,Y","009900,5,9,9","+0230,1","+0130,1","99999,9",,,,,,,,,,,,"10170,1,99999,9",,,,,,"MET051METAR FACT 210700Z 20011KT CAVOK 23/13 Q1017 NOSIG=",
"68816099999","2022-01-21T07:00:00","4","-33.964806","18.601667","46.02","CAPE TOWN INTERNATIONAL, SF","FM-16","99999","V020","200,1,N,0057,1","99999,9,9,Y","009900,5,9,9","+0230,1","+0130,1","99999,9",,,,,,,,,,,,"10170,1,99999,9",,,,,,"MET051SPECI FACT 210700Z 20011KT CAVOK 23/13 Q1017 NOSIG=",
"68816099999","2022-01-21T08:00:00","4","-33.964806","18.601667","46.02","CAPE TOWN INTERNATIONAL, SF","FM-15","99999","V020","230,1,V,0036,1","99999,9,9,Y","009900,5,9,9","+0250,1","+0130,1","99999,9",,,,,,,,,,,,"10170,1,99999,9",,,,,,"MET059METAR FACT 210800Z 23007KT 190V270 CAVOK 25/13 Q1017 NOSIG=",
"68816099999","2022-01-21T09:00:00","4","-33.964806","18.601667","46.02","CAPE TOWN INTERNATIONAL, SF","FM-15","99999","V020","220,1,V,0041,1","99999,9,9,Y","009900,5,9,9","+0260,1","+0130,1","99999,9",,,,,,,,,,,,"10170,1,99999,9",,,,,,"MET059METAR FACT 210900Z 22008KT 190V250 CAVOK 26/13 Q1017 NOSIG=",
"68816099999","2022-01-21T09:34:00","4","-33.964806","18.601667","46.02","CAPE TOWN INTERNATIONAL, SF","FM-16","99999","V020","220,1,N,0062,1","99999,9,9,Y","009900,5,9,9","+0280,1","+0130,1","99999,9",,,,,,,,,,,,"10170,1,99999,9",,,,,,"MET051SPECI FACT 210934Z 22012KT CAVOK 28/13 Q1017 NOSIG=",
"68816099999","2022-01-21T10:00:00","4","-33.964806","18.601667","46.02","CAPE TOWN INTERNATIONAL, SF","FM-15","99999","V020","220,1,N,0062,1","99999,9,9,Y","009900,5,9,9","+0270,1","+0130,1","99999,9",,,,,,,,,,,,"10170,1,99999,9",,,,,,"MET051METAR FACT 211000Z 22012KT CAVOK 27/13 Q1017 NOSIG=",
"68816099999","2022-01-21T11:00:00","4","-33.964806","18.601667","46.02","CAPE TOWN INTERNATIONAL, SF","FM-15","99999","V020","220,1,N,0062,1","99999,9,9,Y","009900,5,9,9","+0290,1","+0120,1","99999,9",,,,,,,,,,,,"10170,1,99999,9",,,,,,"MET051METAR FACT 211100Z 22012KT CAVOK 29/12 Q1017 NOSIG=",
"68816099999","2022-01-21T12:00:00","4","-33.964806","18.601667","46.02","CAPE TOWN INTERNATIONAL, SF","FM-12","99999","V020","210,1,N,0072,1","99999,9,9,N","030000,1,9,9","+0270,1","+0149,1","10168,1",,,,,,,,,,"240,N,+0199,1",,"99999,9,10115,1","9,9,001,1,+999,9",,,,"4,99,0103,1,999","SYN07468816 32980 02114 10270 20149 30115 40168 50001 333 20199 91020 555 91016=",
"68816099999","2022-01-21T12:00:00","4","-33.964806","18.601667","46.02","CAPE TOWN INTERNATIONAL, SF","FM-15","99999","V020","210,1,N,0077,1","99999,9,9,Y","009900,5,9,9","+0270,1","+0150,1","99999,9",,,,,,,,,,,,"10170,1,99999,9",,,,,,"MET051METAR FACT 211200Z 21015KT CAVOK 27/15 Q1017 NOSIG=",
"68816099999","2022-01-21T13:00:00","4","-33.964806","18.601667","46.02","CAPE TOWN INTERNATIONAL, SF","FM-15","99999","V020","230,1,V,0072,1","99999,9,9,Y","009900,5,9,9","+0270,1","+0160,1","99999,9",,,,,,,,,,,,"10160,1,99999,9",,,,,,"MET059METAR FACT 211300Z 23014KT 200V260 CAVOK 27/16 Q1016 NOSIG=",
"68816099999","2022-01-21T14:00:00","4","-33.964806","18.601667","46.02","CAPE TOWN INTERNATIONAL, SF","FM-15","99999","V020","220,1,N,0072,1","99999,9,9,Y","009900,5,9,9","+0280,1","+0160,1","99999,9",,,,,,,,,,,,"10160,1,99999,9",,,,,,"MET051METAR FACT 211400Z 22014KT CAVOK 28/16 Q1016 NOSIG=",
"68816099999","2022-01-21T15:00:00","4","-33.964806","18.601667","46.02","CAPE TOWN INTERNATIONAL, SF","FM-15","99999","V020","230,1,N,0077,1","99999,9,9,Y","009900,5,9,9","+0270,1","+0170,1","99999,9",,,,,,,,,,,,"10150,1,99999,9",,,,,,"MET051METAR FACT 211500Z 23015KT CAVOK 27/17 Q1015 NOSIG=",
"68816099999","2022-01-21T16:00:00","4","-33.964806","18.601667","46.02","CAPE TOWN INTERNATIONAL, SF","FM-15","99999","V020","220,1,N,0072,1","99999,9,9,Y","009900,5,9,9","+0270,1","+0160,1","99999,9",,,,,,,,,,,,"10140,1,99999,9",,,,,,"MET051METAR FACT 211600Z 22014KT CAVOK 27/16 Q1014 NOSIG=",
"68816099999","2022-01-21T17:00:00","4","-33.964806","18.601667","46.02","CAPE TOWN INTERNATIONAL, SF","FM-15","99999","V020","230,1,N,0067,1","99999,9,9,Y","009900,5,9,9","+0240,1","+0170,1","99999,9",,,,,,,,,,,,"10150,1,99999,9",,,,,,"MET051METAR FACT 211700Z 23013KT CAVOK 24/17 Q1015 NOSIG=",
"68816099999","2022-01-21T18:00:00","4","-33.964806","18.601667","46.02","CAPE TOWN INTERNATIONAL, SF","FM-12","99999","V020","240,1,N,0072,1","99999,9,9,N","030000,1,9,9","+0219,1","+0167,1","10156,1",,,,,,,,,,"120,M,+0298,1",,"99999,9,10102,1","9,9,001,1,+999,9",,,,"4,99,0103,1,999","SYN07468816 32980 02414 10219 20167 30102 40156 50001 333 10298 91020 555 91015=",
"68816099999","2022-01-21T18:00:00","4","-33.964806","18.601667","46.02","CAPE TOWN INTERNATIONAL, SF","FM-15","99999","V020","230,1,N,0077,1","99999,9,9,Y","009900,5,9,9","+0220,1","+0170,1","99999,9",,,,,,,,,,,,"10150,1,99999,9",,,,,,"MET051METAR FACT 211800Z 23015KT CAVOK 22/17 Q1015 NOSIG=",
"68816099999","2022-01-21T19:00:00","4","-33.964806","18.601667","46.02","CAPE TOWN INTERNATIONAL, SF","FM-15","99999","V020","230,1,N,0067,1","99999,9,9,Y","009900,5,9,9","+0220,1","+0170,1","99999,9",,,,,,,,,,,,"10160,1,99999,9",,,,,,"MET051METAR FACT 211900Z 23013KT CAVOK 22/17 Q1016 NOSIG=",
"68816099999","2022-01-21T20:00:00","4","-33.964806","18.601667","46.02","CAPE TOWN INTERNATIONAL, SF","FM-15","99999","V020","250,1,N,0031,1","99999,9,9,Y","009900,5,9,9","+0220,1","+0170,1","99999,9",,,,,,,,,,,,"10160,1,99999,9",,,,,,"MET051METAR FACT 212000Z 25006KT CAVOK 22/17 Q1016 NOSIG=",
"68816099999","2022-01-21T21:00:00","4","-33.964806","18.601667","46.02","CAPE TOWN INTERNATIONAL, SF","FM-15","99999","V020","170,1,N,0067,1","99999,9,9,Y","009900,5,9,9","+0230,1","+0170,1","99999,9",,,,,,,,,,,,"10160,1,99999,9",,,,,,"MET051METAR FACT 212100Z 17013KT CAVOK 23/17 Q1016 NOSIG=",
"68816099999","2022-01-21T22:00:00","4","-33.964806","18.601667","46.02","CAPE TOWN INTERNATIONAL, SF","FM-15","99999","V020","210,1,N,0046,1","99999,9,9,Y","009900,5,9,9","+0220,1","+0160,1","99999,9",,,,,,,,,,,,"10160,1,99999,9",,,,,,"MET051METAR FACT 212200Z 21009KT CAVOK 22/16 Q1016 NOSIG=",
"68816099999","2022-01-21T23:00:00","4","-33.964806","18.601667","46.02","CAPE TOWN INTERNATIONAL, SF","FM-15","99999","V020","190,1,N,0031,1","99999,9,9,Y","009900,5,9,9","+0220,1","+0170,1","99999,9",,,,,,,,,,,,"10160,1,99999,9",,,,,,"MET051METAR FACT 212300Z 19006KT CAVOK 22/17 Q1016 NOSIG=",
"68816099999","2022-01-22T00:00:00","4","-33.964806","18.601667","46.02","CAPE TOWN INTERNATIONAL, SF","FM-12","99999","V020","210,1,N,0041,1","99999,9,9,N","020000,1,9,9","+0206,1","+0162,1","10156,1",,,,,,,,,,"120,M,+0298,1",,"99999,9,10101,1","7,1,010,1,+999,9",,,,"4,99,0046,1,999","SYN07468816 32970 02108 10206 20162 30101 40156 57010 333 10298 91009 555 91015=",
"68816099999","2022-01-22T00:00:00","4","-33.964806","18.601667","46.02","CAPE TOWN INTERNATIONAL, SF","FM-15","99999","V020","210,1,N,0041,1","99999,9,9,Y","009900,5,9,9","+0210,1","+0160,1","99999,9",,,,,,,,,,,,"10150,1,99999,9",,,,,,"MET051METAR FACT 220000Z 21008KT CAVOK 21/16 Q1015 NOSIG=",
"68816099999","2022-01-22T01:00:00","4","-33.964806","18.601667","46.02","CAPE TOWN INTERNATIONAL, SF","FM-15","99999","V020","220,1,N,0036,1","99999,9,9,Y","009900,5,9,9","+0210,1","+0170,1","99999,9",,,,,,,,,,,,"10150,1,99999,9",,,,,,"MET051METAR FACT 220100Z 22007KT CAVOK 21/17 Q1015 NOSIG=",
"68816099999","2022-01-22T02:00:00","4","-33.964806","18.601667","46.02","CAPE TOWN INTERNATIONAL, SF","FM-15","99999","V020","210,1,V,0026,1","99999,9,9,Y","009900,5,9,9","+0200,1","+0170,1","99999,9",,,,,,,,,,,,"10150,1,99999,9",,,,,,"MET059METAR FACT 220200Z 21005KT 180V240 CAVOK 20/17 Q1015 NOSIG=",
"68816099999","2022-01-22T03:00:00","4","-33.964806","18.601667","46.02","CAPE TOWN INTERNATIONAL, SF","FM-15","99999","V020","230,1,N,0026,1","99999,9,9,Y","009900,5,9,9","+0210,1","+0170,1","99999,9",,,,,,,,,,,,"10150,1,99999,9",,,,,,"MET051METAR FACT 220300Z 23005KT CAVOK 21/17 Q1015 NOSIG=",
"68816099999","2022-01-22T04:00:00","4","-33.964806","18.601667","46.02","CAPE TOWN INTERNATIONAL, SF","FM-15","99999","V020","999,9,V,0010,1","99999,9,9,Y","009900,5,9,9","+0190,1","+0160,1","99999,9",,,,,,,,,,,,"10150,1,99999,9",,,,,,"MET051METAR FACT 220400Z VRB02KT CAVOK 19/16 Q1015 NOSIG=",
"68816099999","2022-01-22T04:23:00","4","-33.964806","18.601667","46.02","CAPE TOWN INTERNATIONAL, SF","FM-16","99999","V020","999,9,V,0015,1","99999,9,9,Y","009900,5,9,9","+0210,1","+0170,1","99999,9",,,,,,,,,,,,"10150,1,99999,9",,,,,,"MET051SPECI FACT 220423Z VRB03KT CAVOK 21/17 Q1015 NOSIG=",
"68816099999","2022-01-22T05:00:00","4","-33.964806","18.601667","46.02","CAPE TOWN INTERNATIONAL, SF","FM-15","99999","V020","220,1,N,0026,1","99999,9,9,Y","009900,5,9,9","+0210,1","+0170,1","99999,9",,,,,,,,,,,,"10150,1,99999,9",,,,,,"MET051METAR FACT 220500Z 22005KT CAVOK 21/17 Q1015 NOSIG=",
"68816099999","2022-01-22T05:24:00","4","-33.964806","18.601667","46.02","CAPE TOWN INTERNATIONAL, SF","FM-16","99999","V020","200,1,N,0021,1","99999,9,9,Y","009900,5,9,9","+0230,1","+0170,1","99999,9",,,,,,,,,,,,"10160,1,99999,9",,,,,,"MET051SPECI FACT 220524Z 20004KT CAVOK 23/17 Q1016 NOSIG=",
"68816099999","2022-01-22T06:00:00","4","-33.964806","18.601667","46.02","CAPE TOWN INTERNATIONAL, SF","FM-15","99999","V020","999,9,V,0015,1","99999,9,9,Y","009900,5,9,9","+0240,1","+0180,1","99999,9",,,,,,,,,,,,"10160,1,99999,9",,,,,,"MET051METAR FACT 220600Z VRB03KT CAVOK 24/18 Q1016 NOSIG=",
"68816099999","2022-01-22T06:21:00","4","-33.964806","18.601667","46.02","CAPE TOWN INTERNATIONAL, SF","FM-16","99999","V020","999,9,V,0010,1","99999,9,9,Y","009900,5,9,9","+0270,1","+0180,1","99999,9",,,,,,,,,,,,"10160,1,99999,9",,,,,,"MET051SPECI FACT 220621Z VRB02KT CAVOK 27/18 Q1016 NOSIG=",
"68816099999","2022-01-22T06:54:00","4","-33.964806","18.601667","46.02","CAPE TOWN INTERNATIONAL, SF","FM-16","99999","V020","999,9,V,0015,1","99999,9,9,Y","009900,5,9,9","+0290,1","+0170,1","99999,9",,,,,,,,,,,,"10160,1,99999,9",,,,,,"MET051SPECI FACT 220654Z VRB03KT CAVOK 29/17 Q1016 NOSIG=",
"68816099999","2022-01-22T07:00:00","4","-33.964806","18.601667","46.02","CAPE TOWN INTERNATIONAL, SF","FM-15","99999","V020","999,9,V,0015,1","99999,9,9,Y","009900,5,9,9","+0290,1","+0170,1","99999,9",,,,,,,,,,,,"10160,1,99999,9",,,,,,"MET051METAR FACT 220700Z VRB03KT CAVOK 29/17 Q1016 NOSIG=",
"68816099999","2022-01-22T07:23:00","4","-33.964806","18.601667","46.02","CAPE TOWN INTERNATIONAL, SF","FM-16","99999","V020","999,9,V,0015,1","99999,9,9,Y","009900,5,9,9","+0310,1","+0180,1","99999,9",,,,,,,,,,,,"10160,1,99999,9",,,,,,"MET051SPECI FACT 220723Z VRB03KT CAVOK 31/18 Q1016 NOSIG=",
"68816099999","2022-01-22T08:00:00","4","-33.964806","18.601667","46.02","CAPE TOWN INTERNATIONAL, SF","FM-15","99999","V020","200,1,V,0021,1","99999,9,9,Y","009900,5,9,9","+0320,1","+0180,1","99999,9",,,,,,,,,,,,"10160,1,99999,9",,,,,,"MET059METAR FACT 220800Z 20004KT 150V240 CAVOK 32/18 Q1016 NOSIG=",
"68816099999","2022-01-22T09:00:00","4","-33.964806","18.601667","46.02","CAPE TOWN INTERNATIONAL, SF","FM-15","99999","V020","220,1,V,0021,1","99999,9,9,Y","009900,5,9,9","+0340,1","+0180,1","99999,9",,,,,,,,,,,,"10160,1,99999,9",,,,,,"MET059METAR FACT 220900Z 22004KT 170V290 CAVOK 34/18 Q1016 NOSIG=",
"68816099999","2022-01-22T10:00:00","4","-33.964806","18.601667","46.02","CAPE TOWN INTERNATIONAL, SF","FM-15","99999","V020","210,1,V,0031,1","99999,9,9,Y","009900,5,9,9","+0350,1","+0180,1","99999,9",,,,,,,,,,,,"10160,1,99999,9",,,,,,"MET053METAR FACT 221000Z 21006KT 170V250 CAVOK 35/18 Q1016=",
"68816099999","2022-01-22T11:00:00","4","-33.964806","18.601667","46.02","CAPE TOWN INTERNATIONAL, SF","FM-15","99999","V020","190,1,N,0051,1","99999,9,9,Y","009900,5,9,9","+0350,1","+0180,1","99999,9",,,,,,,,,,,,"10150,1,99999,9",,,,,,"MET051METAR FACT 221100Z 19010KT CAVOK 35/18 Q1015 NOSIG=",
"68816099999","2022-01-22T12:00:00","4","-33.964806","18.601667","46.02","CAPE TOWN INTERNATIONAL, SF","FM-12","99999","V020","190,1,N,0057,1","99999,9,9,N","040000,1,9,9","+0355,1","+0170,1","10149,1",,,,,,,,,,"240,N,+0245,1",,"99999,9,10098,1","8,1,011,1,+999,9",,,,"4,99,0077,1,999","SYN07468816 32982 01911 10355 20170 30098 40149 58011 333 20245 91015 555 91014=",
"68816099999","2022-01-22T12:00:00","4","-33.964806","18.601667","46.02","CAPE TOWN INTERNATIONAL, SF","FM-15","99999","V020","190,1,N,0067,1","99999,9,9,Y","009900,5,9,9","+0360,1","+0170,1","99999,9",,,,,,,,,,,,"10150,1,99999,9",,,,,,"MET051METAR FACT 221200Z 19013KT CAVOK 36/17 Q1015 NOSIG=",
"68816099999","2022-01-22T13:00:00","4","-33.964806","18.601667","46.02","CAPE TOWN INTERNATIONAL, SF","FM-15","99999","V020","200,1,V,0062,1","99999,9,9,Y","009900,5,9,9","+0370,1","+0170,1","99999,9",,,,,,,,,,,,"10140,1,99999,9",,,,,,"MET059METAR FACT 221300Z 20012KT 160V220 CAVOK 37/17 Q1014 NOSIG=",
"68816099999","2022-01-22T14:00:00","4","-33.964806","18.601667","46.02","CAPE TOWN INTERNATIONAL, SF","FM-15","99999","V020","210,1,N,0067,1","99999,9,9,N","009999,1,9,9","+0360,1","+0180,1","99999,9",,,,,"02,1,+01524,1,99,9",,,"9,AGL   ,+99999,+99999","99,99,9,02,1,99,9,01524,1,99,9,99,9",,,"10140,1,99999,9",,,,,,"MET057METAR FACT 221400Z 21013KT 9999 FEW050 36/18 Q1014 NOSIG=",
"68816099999","2022-01-22T15:00:00","4","-33.964806","18.601667","46.02","CAPE TOWN INTERNATIONAL, SF","FM-15","99999","V020","200,1,N,0077,1","99999,9,9,N","009999,1,9,9","+0330,1","+0200,1","99999,9",,,,,"02,1,+01829,1,99,9",,,"9,AGL   ,+99999,+99999","99,99,9,02,1,99,9,01829,1,99,9,99,9",,,"10140,1,99999,9",,,,,,"MET057METAR FACT 221500Z 20015KT 9999 FEW060 33/20 Q1014 NOSIG=",
"68816099999","2022-01-22T16:00:00","4","-33.964806","18.601667","46.02","CAPE TOWN INTERNATIONAL, SF","FM-15","99999","V020","190,1,N,0067,1","99999,9,9,N","009999,1,9,9","+0320,1","+0200,1","99999,9",,,,,"02,1,+01829,1,99,9",,,"9,AGL   ,+99999,+99999","99,99,9,02,1,99,9,01829,1,99,9,99,9",,,"10130,1,99999,9",,,,,,"MET057METAR FACT 221600Z 19013KT 9999 FEW060 32/20 Q1013 NOSIG=",
"68816099999","2022-01-22T17:00:00","4","-33.964806","18.601667","46.02","CAPE TOWN INTERNATIONAL, SF","FM-15","99999","V020","210,1,N,0046,1","99999,9,9,N","009999,1,9,9","+0300,1","+0190,1","99999,9",,,,,"02,1,+01829,1,99,9",,,"9,AGL   ,+99999,+99999","99,99,9,02,1,99,9,01829,1,99,9,99,9",,,"10140,1,99999,9",,,,,,"MET057METAR FACT 221700Z 21009KT 9999 FEW060 30/19 Q1014 NOSIG=",
"68816099999","2022-01-22T18:00:00","4","-33.964806","18.601667","46.02","CAPE TOWN INTERNATIONAL, SF","FM-12","99999","V020","220,1,N,0046,1","99999,9,9,N","040000,1,9,9","+0276,1","+0186,1","10142,1",,,,,"01,1,+01750,1,08,1","99,9,+99999,9,03,1",,"9,AGL   ,+99999,+99999","06,99,1,01,1,99,9,01750,1,99,9,99,9","120,M,+0370,1",,"99999,9,10089,1","3,1,005,1,+999,9",,,,"4,99,0067,1,999","SYN08068816 32782 62209 10276 20186 30089 40142 53005 81190 333 10370 91013 555 91014=",
"68816099999","2022-01-22T18:00:00","4","-33.964806","18.601667","46.02","CAPE TOWN INTERNATIONAL, SF","FM-15","99999","V020","210,1,N,0046,1","99999,9,9,N","009999,1,9,9","+0280,1","+0190,1","99999,9",,,,,"02,1,+01829,1,99,9",,,"9,AGL   ,+99999,+99999","99,99,9,02,1,99,9,01829,1,99,9,99,9",,,"10140,1,99999,9",,,,,,"MET057METAR FACT 221800Z 21009KT 9999 FEW060 28/19 Q1014 NOSIG=",
"68816099999","2022-01-22T19:00:00","4","-33.964806","18.601667","46.02","CAPE TOWN INTERNATIONAL, SF","FM-15","99999","V020","220,1,N,0036,1","99999,9,9,Y","009900,5,9,9","+0280,1","+0190,1","99999,9",,,,,,,,,,,,"10140,1,99999,9",,,,,,"MET051METAR FACT 221900Z 22007KT CAVOK 28/19 Q1014 NOSIG=",
"68816099999","2022-01-22T20:00:00","4","-33.964806","18.601667","46.02","CAPE TOWN INTERNATIONAL, SF","FM-15","99999","V020","210,1,N,0036,1","99999,9,9,Y","009900,5,9,9","+0260,1","+0190,1","99999,9",,,,,,,,,,,,"10140,1,99999,9",,,,,,"MET051METAR FACT 222000Z 21007KT CAVOK 26/19 Q1014 NOSIG=",
"68816099999","2022-01-22T21:00:00","4","-33.964806","18.601667","46.02","CAPE TOWN INTERNATIONAL, SF","FM-15","99999","V020","999,9,V,0015,1","99999,9,9,Y","009900,5,9,9","+0250,1","+0190,1","99999,9",,,,,,,,,,,,"10140,1,99999,9",,,,,,"MET051METAR FACT 222100Z VRB03KT CAVOK 25/19 Q1014 NOSIG=",
"68816099999","2022-01-22T22:00:00","4","-33.964806","18.601667","46.02","CAPE TOWN INTERNATIONAL, SF","FM-15","99999","V020","999,9,V,0010,1","99999,9,9,N","009999,1,9,9","+0250,1","+0190,1","99999,9",,,,,"02,1,+01524,1,99,9",,,"9,AGL   ,+99999,+99999","99,99,9,02,1,99,9,01524,1,99,9,99,9",,,"10150,1,99999,9",,,,,,"MET057METAR FACT 222200Z VRB02KT 9999 FEW050 25/19 Q1015 NOSIG=",
"68816099999","2022-01-22T23:00:00","4","-33.964806","18.601667","46.02","CAPE TOWN INTERNATIONAL, SF","FM-15","99999","V020","999,9,V,0010,1","99999,9,9,Y","009900,5,9,9","+0270,1","+0190,1","99999,9",,,,,,,,,,,,"10140,1,99999,9",,,,,,"MET051METAR FACT 222300Z VRB02KT CAVOK 27/19 Q1014 NOSIG=",
"68816099999","2022-01-23T00:00:00","4","-33.964806","18.601667","46.02","CAPE TOWN INTERNATIONAL, SF","FM-12","99999","V020","090,1,N,0015,1","99999,9,9,N","020000,1,9,9","+0270,1","+0196,1","10139,1",,,,,"99,9,+99999,9,03,1",,,"9,AGL   ,+99999,+99999","06,99,1,00,1,99,9,99999,9,99,9,99,9","120,M,+0370,1","120,N,+0250,1","99999,9,10086,1","7,1,004,1,+999,9",,,,"4,99,0015,1,999","SYN08668816 32970 60903 10270 20196 30086 40139 57004 80070 333 10370 20250 91003 555 91013=","Q01    003SCCGA1"
"68816099999","2022-01-23T00:00:00","4","-33.964806","18.601667","46.02","CAPE TOWN INTERNATIONAL, SF","FM-15","99999","V020","070,1,N,0021,1","99999,9,9,Y","009900,5,9,9","+0270,1","+0200,1","99999,9",,,,,,,,,,,,"10140,1,99999,9",,,,,,"MET051METAR FACT 230000Z 07004KT CAVOK 27/20 Q1014 NOSIG=",
"68816099999","2022-01-23T01:00:00","4","-33.964806","18.601667","46.02","CAPE TOWN INTERNATIONAL, SF","FM-15","99999","V020","999,9,V,0010,1","99999,9,9,Y","009900,5,9,9","+0260,1","+0200,1","99999,9",,,,,,,,,,,,"10130,1,99999,9",,,,,,"MET051METAR FACT 230100Z VRB02KT CAVOK 26/20 Q1013 NOSIG=",
"68816099999","2022-01-23T02:00:00","4","-33.964806","18.601667","46.02","CAPE TOWN INTERNATIONAL, SF","FM-15","99999","V020","320,1,N,0026,1","99999,9,9,Y","009900,5,9,9","+0260,1","+0200,1","99999,9",,,,,,,,,,,,"10130,1,99999,9",,,,,,"MET051METAR FACT 230200Z 32005KT CAVOK 26/20 Q1013 NOSIG=",
"68816099999","2022-01-23T03:00:00","4","-33.964806","18.601667","46.02","CAPE TOWN INTERNATIONAL, SF","FM-15","99999","V020","330,1,N,0031,1","99999,9,9,Y","009900,5,9,9","+0250,1","+0190,1","99999,9",,,,,,,,,,,,"10130,1,99999,9",,,,,,"MET051METAR FACT 230300Z 33006KT CAVOK 25/19 Q1013 NOSIG=",
"68816099999","2022-01-23T04:00:00","4","-33.964806","18.601667","46.02","CAPE TOWN INTERNATIONAL, SF","FM-15","99999","V020","330,1,N,0031,1","99999,9,9,Y","009900,5,9,9","+0250,1","+0180,1","99999,9",,,,,,,,,,,,"10130,1,99999,9",,,,,,"MET051METAR FACT 230400Z 33006KT CAVOK 25/18 Q1013 NOSIG=",
"68816099999","2022-01-23T05:00:00","4","-33.964806","18.601667","46.02","CAPE TOWN INTERNATIONAL, SF","FM-15","99999","V020","320,1,N,0046,1","99999,9,9,Y","009900,5,9,9","+0250,1","+0170,1","99999,9",,,,,,,,,,,,"10140,1,99999,9",,,,,,"MET051METAR FACT 230500Z 32009KT CAVOK 25/17 Q1014 NOSIG=",
"68816099999","2022-01-23T05:49:00","4","-33.964806","18.601667","46.02","CAPE TOWN INTERNATIONAL, SF","FM-16","99999","V020","340,1,N,0051,1","99999,9,9,Y","009900,5,9,9","+0280,1","+0160,1","99999,9",,,,,,,,,,,,"10140,1,99999,9",,,,,,"MET051SPECI FACT 230549Z 34010KT CAVOK 28/16 Q1014 NOSIG=",
"68816099999","2022-01-23T06:00:00","4","-33.964806","18.601667","46.02","CAPE TOWN INTERNATIONAL, SF","FM-12","99999","V020","330,1,N,0051,1","99999,9,9,N","030000,1,9,9","+0292,1","+0173,1","10142,1",,,,,,,,,,"240,N,+0241,1",,"99999,9,10089,1","7,1,004,1,+999,9",,,,"4,99,0036,1,999","SYN08068816 32980 03310 10292 20173 30089 40142 57004 333 20241 91007 555 10370 91013=",
"68816099999","2022-01-23T06:00:00","4","-33.964806","18.601667","46.02","CAPE TOWN INTERNATIONAL, SF","FM-15","99999","V020","340,1,N,0051,1","99999,9,9,Y","009900,5,9,9","+0280,1","+0170,1","99999,9",,,,,,,,,,,,"10140,1,99999,9",,,,,,"MET051METAR FACT 230600Z 34010KT CAVOK 28/17 Q1014 NOSIG=",
"68816099999","2022-01-23T06:18:00","4","-33.964806","18.601667","46.02","CAPE TOWN INTERNATIONAL, SF","FM-16","99999","V020","330,1,N,0051,1","99999,9,9,Y","009900,5,9,9","+0300,1","+0180,1","99999,9",,,,,,,,,,,,"10140,1,99999,9",,,,,,"MET051SPECI FACT 230618Z 33010KT CAVOK 30/18 Q1014 NOSIG=",
"68816099999","2022-01-23T07:00:00","4","-33.964806","18.601667","46.02","CAPE TOWN INTERNATIONAL, SF","FM-15","99999","V020","320,1,N,0051,1","99999,9,9,Y","009900,5,9,9","+0310,1","+0190,1","99999,9",,,,,,,,,,,,"10140,1,99999,9",,,,,,"MET051METAR FACT 230700Z 32010KT CAVOK 31/19 Q1014 NOSIG=",
"68816099999","2022-01-23T08:00:00","4","-33.964806","18.601667","46.02","CAPE TOWN INTERNATIONAL, SF","FM-15","99999","V020","310,1,N,0046,1","99999,9,9,Y","009900,5,9,9","+0300,1","+0200,1","99999,9",,,,,,,,,,,,"10140,1,99999,9",,,,,,"MET051METAR FACT 230800Z 31009KT CAVOK 30/20 Q1014 NOSIG=",
"68816099999","2022-01-23T09:00:00","4","-33.964806","18.601667","46.02","CAPE TOWN INTERNATIONAL, SF","FM-15","99999","V020","300,1,N,0051,1","99999,9,9,Y","009900,5,9,9","+0280,1","+0200,1","99999,9",,,,,,,,,,,,"10140,1,99999,9",,,,,,"MET051METAR FACT 230900Z 30010KT CAVOK 28/20 Q1014 NOSIG=",
"68816099999","2022-01-23T10:00:00","4","-33.964806","18.601667","46.02","CAPE TOWN INTERNATIONAL, SF","FM-15","99999","V020","300,1,V,0031,1","99999,9,9,Y","009900,5,9,9","+0290,1","+0200,1","99999,9",,,,,,,,,,,,"10140,1,99999,9",,,,,,"MET059METAR FACT 231000Z 30006KT 270V340 CAVOK 29/20 Q1014 NOSIG=",
"68816099999","2022-01-23T11:00:00","4","-33.964806","18.601667","46.02","CAPE TOWN INTERNATIONAL, SF","FM-15","99999","V020","330,1,V,0041,1","99999,9,9,Y","009900,5,9,9","+0300,1","+0200,1","99999,9",,,,,,,,,,,,"10140,1,99999,9",,,,,,"MET059METAR FACT 231100Z 33008KT 260V360 CAVOK 30/20 Q1014 NOSIG=",
"68816099999","2022-01-23T12:00:00","4","-33.964806","18.601667","46.02","CAPE TOWN INTERNATIONAL, SF","FM-12","99999","V020","300,1,N,0041,1","99999,9,9,N","040000,1,9,9","+0302,1","+0199,1","10138,1",,,,,,,,,,"240,N,+0285,1",,"99999,9,10086,1","7,1,007,1,+999,9",,,,"4,99,0062,1,999","SYN07468816 32982 03008 10302 20199 30086 40138 57007 333 20285 91012 555 91013=",
"68816099999","2022-01-23T12:00:00","4","-33.964806","18.601667","46.02","CAPE TOWN INTERNATIONAL, SF","FM-15","99999","V020","320,1,V,0031,1","99999,9,9,Y","009900,5,9,9","+0300,1","+0200,1","99999,9",,,,,,,,,,,,"10140,1,99999,9",,,,,,"MET059METAR FACT 231200Z 32006KT 290V350 CAVOK 30/20 Q1014 NOSIG=",
"68816099999","2022-01-23T13:00:00","4","-33.964806","18.601667","46.02","CAPE TOWN INTERNATIONAL, SF","FM-15","99999","V020","340,1,N,0041,1","99999,9,9,Y","009900,5,9,9","+0300,1","+0200,1","99999,9",,,,,,,,,,,,"10130,1,99999,9",,,,,,"MET051METAR FACT 231300Z 34008KT CAVOK 30/20 Q1013 NOSIG=",
"68816099999","2022-01-23T13:31:00","4","-33.964806","18.601667","46.02","CAPE TOWN INTERNATIONAL, SF","FM-16","99999","V020","999,9,V,0026,1","99999,9,9,Y","009900,5,9,9","+0320,1","+0200,1","99999,9",,,,,,,,,,,,"10130,1,99999,9",,,,,,"MET051SPECI FACT 231331Z VRB05KT CAVOK 32/20 Q1013 NOSIG=",
"68816099999","2022-01-23T14:00:00","4","-33.964806","18.601667","46.02","CAPE TOWN INTERNATIONAL, SF","FM-15","99999","V020","140,1,V,0046,1","99999,9,9,Y","009900,5,9,9","+0300,1","+0200,1","99999,9",,,,,,,,,,,,"10130,1,99999,9",,,,,,"MET059METAR FACT 231400Z 14009KT 120V180 CAVOK 30/20 Q1013 NOSIG=",
"68816099999","2022-01-23T15:00:00","4","-33.964806","18.601667","46.02","CAPE TOWN INTERNATIONAL, SF","FM-15","99999","V020","140,1,N,0062,1","99999,9,9,Y","009900,5,9,9","+0270,1","+0200,1","99999,9",,,,,,,,,,,,"10130,1,99999,9",,,,,,"MET051METAR FACT 231500Z 14012KT CAVOK 27/20 Q1013 NOSIG=",
"68816099999","2022-01-23T16:00:00","4","-33.964806","18.601667","46.02","CAPE TOWN INTERNATIONAL, SF","FM-15","99999","V020","150,1,N,0072,1","99999,9,9,N","009999,1,9,9","+0240,1","+0190,1","99999,9",,,,,"02,1,+00244,1,99,9",,,"9,AGL   ,+99999,+99999","99,99,9,02,1,99,9,00244,1,99,9,99,9",,,"10130,1,99999,9",,,,,,"MET064METAR FACT 231600Z 15014KT 9999 FEW008 24/19 Q1013 TEMPO BKN004=",
"68816099999","2022-01-23T16:57:00","4","-33.964806","18.601667","46.02","CAPE TOWN INTERNATIONAL, SF","FM-16","99999","V020","160,1,N,0077,1","00152,1,C,N","009999,1,9,9","+0210,1","+0190,1","99999,9",,,,,"07,1,+00152,1,99,9",,,"9,AGL   ,+99999,+99999","99,99,9,07,1,99,9,00152,1,99,9,99,9",,,"10130,1,99999,9",,,,,,"MET057SPECI FACT 231657Z 16015KT 9999 BKN005 21/19 Q1013 NOSIG=",
"68816099999","2022-01-23T17:00:00","4","-33.964806","18.601667","46.02","CAPE TOWN INTERNATIONAL, SF","FM-15","99999","V020","160,1,N,0077,1","00152,1,C,N","009999,1,9,9","+0210,1","+0190,1","99999,9",,,,,"07,1,+00152,1,99,9",,,"9,AGL   ,+99999,+99999","99,99,9,07,1,99,9,00152,1,99,9,99,9",,,"10130,1,99999,9",,,,,,"MET057METAR FACT 231700Z 16015KT 9999 BKN005 21/19 Q1013 NOSIG=",
"68816099999","2022-01-23T18:00:00","4","-33.964806","18.601667","46.02","CAPE TOWN INTERNATIONAL, SF","FM-12","99999","V020","180,1,N,0088,1","99999,9,9,N","006000,1,9,9","+0204,1","+0189,1","10143,1",,"2,1,02,1","2,1,02,1",,"07,1,+00150,1,06,1",,,"9,AGL   ,+99999,+99999","07,99,1,07,1,99,9,00150,1,99,9,99,9","120,M,+0326,1","120,N,+0204,1","99999,9,10089,1","2,1,007,1,+999,9","10,1",,,"4,99,0113,1,999","SYN09268816 31256 71817 10204 20189 30089 40143 52007 71022 875// 333 10326 20204 91022 555 91014=",
"68816099999","2022-01-23T18:00:00","4","-33.964806","18.601667","46.02","CAPE TOWN INTERNATIONAL, SF","FM-15","99999","V020","170,1,N,0082,1","00152,1,C,N","006000,1,9,9","+0200,1","+0190,1","99999,9",,,,,"07,1,+00152,1,99,9",,,"9,AGL   ,+99999,+99999","99,99,9,07,1,99,9,00152,1,99,9,99,9",,,"10140,1,99999,9",,,,,,"MET057METAR FACT 231800Z 17016KT 6000 BKN005 20/19 Q1014 NOSIG=",
"68816099999","2022-01-23T19:00:00","4","-33.964806","18.601667","46.02","CAPE TOWN INTERNATIONAL, SF","FM-15","99999","V020","170,1,N,0082,1","00152,1,C,N","009999,1,9,9","+0200,1","+0190,1","99999,9",,,,,"07,1,+00152,1,99,9",,,"9,AGL   ,+99999,+99999","99,99,9,07,1,99,9,00152,1,99,9,99,9",,,"10140,1,99999,9",,,,,,"MET057METAR FACT 231900Z 17016KT 9999 BKN005 20/19 Q1014 NOSIG=",
"68816099999","2022-01-23T20:00:00","4","-33.964806","18.601667","46.02","CAPE TOWN INTERNATIONAL, SF","FM-15","99999","V020","160,1,N,0067,1","00152,1,C,N","008000,1,9,9","+0200,1","+0190,1","99999,9",,,,,"07,1,+00152,1,99,9",,,"9,AGL   ,+99999,+99999","99,99,9,07,1,99,9,00152,1,99,9,99,9",,,"10150,1,99999,9",,,,,,"MET057METAR FACT 232000Z 16013KT 8000 BKN005 20/19 Q1015 NOSIG=",
"68816099999","2022-01-23T21:00:00","4","-33.964806","18.601667","46.02","CAPE TOWN INTERNATIONAL, SF","FM-15","99999","V020","180,1,N,0057,1","00152,1,C,N","009999,1,9,9","+0200,1","+0190,1","99999,9",,,,,"07,1,+00152,1,99,9",,,"9,AGL   ,+99999,+99999","99,99,9,07,1,99,9,00152,1,99,9,99,9",,,"10150,1,99999,9",,,,,,"MET057METAR FACT 232100Z 18011KT 9999 BKN005 20/19 Q1015 NOSIG=",
"68816099999","2022-01-23T22:00:00","4","-33.964806","18.601667","46.02","CAPE TOWN INTERNATIONAL, SF","FM-15","99999","V020","180,1,N,0057,1","00152,1,C,N","009999,1,9,9","+0200,1","+0190,1","99999,9",,,,,"07,1,+00152,1,99,9",,,"9,AGL   ,+99999,+99999","99,99,9,07,1,99,9,00152,1,99,9,99,9",,,"10150,1,99999,9",,,,,,"MET057METAR FACT 232200Z 18011KT 9999 BKN005 20/19 Q1015 NOSIG=",
"68816099999","2022-01-23T23:00:00","4","-33.964806","18.601667","46.02","CAPE TOWN INTERNATIONAL, SF","FM-15","99999","V020","170,1,N,0046,1","00152,1,C,N","009999,1,9,9","+0200,1","+0190,1","99999,9",,,,,"07,1,+00152,1,99,9",,,"9,AGL   ,+99999,+99999","99,99,9,07,1,99,9,00152,1,99,9,99,9",,,"10150,1,99999,9",,,,,,"MET057METAR FACT 232300Z 17009KT 9999 BKN005 20/19 Q1015 NOSIG=",
"68816099999","2022-01-24T00:00:00","4","-33.964806","18.601667","46.02","CAPE TOWN INTERNATIONAL, SF","FM-12","99999","V020","180,1,N,0031,1","99999,9,9,N","008000,1,9,9","+0202,1","+0182,1","10160,1","18,0000,2,1","5,1,02,1","2,1,02,1",,"07,1,+00250,1,06,1",,,"9,AGL   ,+99999,+99999","07,99,1,07,1,99,9,00250,1,99,9,99,9","120,M,+0326,1",,"99999,9,10106,1","2,1,007,1,+999,9","20,1",,,"4,99,0051,1,999","SYN09868816 12358 71806 10202 20182 30106 40160 52007 69903 72052 875// 333 10326 91010 555 20000 91016=",
"68816099999","2022-01-24T00:00:00","4","-33.964806","18.601667","46.02","CAPE TOWN INTERNATIONAL, SF","FM-15","99999","V020","180,1,N,0041,1","00244,1,C,N","007000,1,9,9","+0200,1","+0180,1","99999,9",,,,,"07,1,+00244,1,99,9",,,"9,AGL   ,+99999,+99999","99,99,9,07,1,99,9,00244,1,99,9,99,9",,,"10150,1,99999,9",,,,,,"MET057METAR FACT 240000Z 18008KT 7000 BKN008 20/18 Q1015 NOSIG=",
"68816099999","2022-01-24T00:01:00","4","-33.964806","18.601667","46.02","CAPE TOWN INTERNATIONAL, SF","FM-16","99999","V020","180,1,N,0041,1","00244,1,C,N","007000,1,9,9","+0200,1","+0180,1","99999,9",,,,,"07,1,+00244,1,99,9",,,"9,AGL   ,+99999,+99999","99,99,9,07,1,99,9,00244,1,99,9,99,9",,,"10150,1,99999,9",,,,,,"MET057SPECI FACT 240001Z 18008KT 7000 BKN008 20/18 Q1015 NOSIG=",
"68816099999","2022-01-24T01:00:00","4","-33.964806","18.601667","46.02","CAPE TOWN INTERNATIONAL, SF","FM-15","99999","V020","140,1,N,0015,1","00244,1,C,N","006000,1,9,9","+0200,1","+0190,1","99999,9",,,,,"08,1,+00244,1,99,9",,,"9,AGL   ,+99999,+99999","99,99,9,08,1,99,9,00244,1,99,9,99,9",,,"10150,1,99999,9",,"51,1",,,,"MET061METAR FACT 240100Z 14003KT 6000 -DZ OVC008 20/19 Q1015 NOSIG=",
"68816099999","2022-01-24T02:00:00","4","-33.964806","18.601667","46.02","CAPE TOWN INTERNATIONAL, SF","FM-15","99999","V020","140,1,N,0021,1","00244,1,C,N","007000,1,9,9","+0200,1","+0190,1","99999,9",,,,,"08,1,+00244,1,99,9",,,"9,AGL   ,+99999,+99999","99,99,9,08,1,99,9,00244,1,99,9,99,9",,,"10150,1,99999,9",,,,,,"MET057METAR FACT 240200Z 14004KT 7000 OVC008 20/19 Q1015 NOSIG=",
"68816099999","2022-01-24T02:28:00","4","-33.964806","18.601667","46.02","CAPE TOWN INTERNATIONAL, SF","FM-16","99999","V020","200,1,N,0031,1","00366,1,9,N","008000,1,9,9","+0200,1","+0190,1","99999,9",,,,,"02,1,+00244,1,99,9","07,1,+00366,1,99,9",,"9,AGL   ,+99999,+99999","99,99,9,02,1,99,9,00244,1,99,9,99,9",,,"10160,1,99999,9",,,,,,"MET064SPECI FACT 240228Z 20006KT 8000 FEW008 BKN012 20/19 Q1016 NOSIG=",
"68816099999","2022-01-24T03:00:00","4","-33.964806","18.601667","46.02","CAPE TOWN INTERNATIONAL, SF","FM-15","99999","V020","180,1,N,0031,1","00366,1,9,N","009999,1,9,9","+0200,1","+0190,1","99999,9",,,,,"02,1,+00244,1,99,9","07,1,+00366,1,99,9",,"9,AGL   ,+99999,+99999","99,99,9,02,1,99,9,00244,1,99,9,99,9",,,"10160,1,99999,9",,,,,,"MET064METAR FACT 240300Z 18006KT 9999 FEW008 BKN012 20/19 Q1016 NOSIG=",
"68816099999","2022-01-24T03:25:00","4","-33.964806","18.601667","46.02","CAPE TOWN INTERNATIONAL, SF","FM-16","99999","V020","160,1,N,0031,1","00610,1,9,N","009999,1,9,9","+0200,1","+0190,1","99999,9",,,,,"02,1,+00183,1,99,9","07,1,+00610,1,99,9",,"9,AGL   ,+99999,+99999","99,99,9,02,1,99,9,00183,1,99,9,99,9",,,"10160,1,99999,9",,,,,,"MET064SPECI FACT 240325Z 16006KT 9999 FEW006 BKN020 20/19 Q1016 NOSIG=",
"68816099999","2022-01-24T04:00:00","4","-33.964806","18.601667","46.02","CAPE TOWN INTERNATIONAL, SF","FM-15","99999","V020","160,1,N,0031,1","00488,1,9,N","006000,1,9,9","+0200,1","+0190,1","99999,9",,,,,"02,1,+00183,1,99,9","07,1,+00488,1,99,9",,"9,AGL   ,+99999,+99999","99,99,9,02,1,99,9,00183,1,99,9,99,9",,,"10160,1,99999,9",,,,,,"MET064METAR FACT 240400Z 16006KT 6000 FEW006 BKN016 20/19 Q1016 NOSIG=",
"68816099999","2022-01-24T05:00:00","4","-33.964806","18.601667","46.02","CAPE TOWN INTERNATIONAL, SF","FM-15","99999","V020","140,1,N,0021,1","00610,1,9,N","009999,1,9,9","+0200,1","+0190,1","99999,9",,,,,"02,1,+00244,1,99,9","07,1,+00610,1,99,9",,"9,AGL   ,+99999,+99999","99,99,9,02,1,99,9,00244,1,99,9,99,9",,,"10170,1,99999,9",,,,,,"MET064METAR FACT 240500Z 14004KT 9999 FEW008 BKN020 20/19 Q1017 NOSIG=",
"68816099999","2022-01-24T06:00:00","4","-33.964806","18.601667","46.02","CAPE TOWN INTERNATIONAL, SF","FM-12","99999","V020","190,1,N,0046,1","99999,9,9,N","020000,1,9,9","+0214,1","+0194,1","10173,1","24,0001,3,1",,,,"06,1,+00450,1,06,1",,,"9,AGL   ,+99999,+99999","06,99,1,06,1,99,9,00450,1,99,9,99,9","240,N,+0194,1",,"99999,9,10118,1",,,,,"4,99,0067,1,999","SYN09868816 12470 61909 10214 20194 30118 40173 54002 69914 86500 333 20194 91013 555 10326 20001 91017=","Q014     3APCTENQ02.2    3APC3  "
"68816099999","2022-01-24T06:00:00","4","-33.964806","18.601667","46.02","CAPE TOWN INTERNATIONAL, SF","FM-15","99999","V020","190,1,N,0046,1","00488,1,9,N","009999,1,9,9","+0210,1","+0190,1","99999,9",,,,,"02,1,+00305,1,99,9","07,1,+00488,1,99,9",,"9,AGL   ,+99999,+99999","99,99,9,02,1,99,9,00305,1,99,9,99,9",,,"10170,1,99999,9",,,,,,"MET064METAR FACT 240600Z 19009KT 9999 FEW010 BKN016 21/19 Q1017 NOSIG=",
"68816099999","2022-01-24T06:26:00","4","-33.964806","18.601667","46.02","CAPE TOWN INTERNATIONAL, SF","FM-16","99999","V020","190,1,N,0051,1","99999,9,9,N","009999,1,9,9","+0230,1","+0190,1","99999,9",,,,,"04,1,+00366,1,99,9",,,"9,AGL   ,+99999,+99999","99,99,9,04,1,99,9,00366,1,99,9,99,9",,,"10170,1,99999,9",,,,,,"MET057SPECI FACT 240626Z 19010KT 9999 SCT012 23/19 Q1017 NOSIG=",
"68816099999","2022-01-24T07:00:00","4","-33.964806","18.601667","46.02","CAPE TOWN INTERNATIONAL, SF","FM-15","99999","V020","170,1,V,0046,1","99999,9,9,N","009999,1,9,9","+0240,1","+0190,1","99999,9",,,,,"04,1,+00366,1,99,9",,,"9,AGL   ,+99999,+99999","99,99,9,04,1,99,9,00366,1,99,9,99,9",,,"10170,1,99999,9",,,,,,"MET065METAR FACT 240700Z 17009KT 130V200 9999 SCT012 24/19 Q1017 NOSIG=",
"68816099999","2022-01-24T08:00:00","4","-33.964806","18.601667","46.02","CAPE TOWN INTERNATIONAL, SF","FM-15","99999","V020","190,1,N,0067,1","99999,9,9,N","009999,1,9,9","+0240,1","+0190,1","99999,9",,,,,"04,1,+00457,1,99,9",,,"9,AGL   ,+99999,+99999","99,99,9,04,1,99,9,00457,1,99,9,99,9",,,"10160,1,99999,9",,,,,,"MET057METAR FACT 240800Z 19013KT 9999 SCT015 24/19 Q1016 NOSIG=",
"68816099999","2022-01-24T09:00:00","4","-33.964806","18.601667","46.02","CAPE TOWN INTERNATIONAL, SF","FM-15","99999","V020","180,1,N,0082,1","99999,9,9,N","009999,1,9,9","+0250,1","+0190,1","99999,9",,,,,"02,1,+00457,1,99,9",,,"9,AGL   ,+99999,+99999","99,99,9,02,1,99,9,00457,1,99,9,99,9",,,"10160,1,99999,9",,,,,,"MET057METAR FACT 240900Z 18016KT 9999 FEW015 25/19 Q1016 NOSIG=",
"68816099999","2022-01-24T10:00:00","4","-33.964806","18.601667","46.02","CAPE TOWN INTERNATIONAL, SF","FM-15","99999","V020","190,1,N,0103,1","99999,9,9,N","009999,1,9,9","+0250,1","+0190,1","99999,9",,,,,"04,1,+00610,1,99,9",,,"9,AGL   ,+99999,+99999","99,99,9,04,1,99,9,00610,1,99,9,99,9",,,"10160,1,99999,9",,,,,,"MET057METAR FACT 241000Z 19020KT 9999 SCT020 25/19 Q1016 NOSIG=",
"68816099999","2022-01-24T11:00:00","4","-33.964806","18.601667","46.02","CAPE TOWN INTERNATIONAL, SF","FM-15","99999","V020","190,1,N,0118,1","00488,1,C,N","009999,1,9,9","+0250,1","+0190,1","99999,9",,,,,"07,1,+00488,1,99,9",,,"9,AGL   ,+99999,+99999","99,99,9,07,1,99,9,00488,1,99,9,99,9",,,"10160,1,99999,9",,,,,,"MET057METAR FACT 241100Z 19023KT 9999 BKN016 25/19 Q1016 NOSIG=",
"68816099999","2022-01-24T12:00:00","4","-33.964806","18.601667","46.02","CAPE TOWN INTERNATIONAL, SF","FM-12","99999","V020","190,1,N,0124,1","22000,1,9,N","020000,1,9,9","+0248,1","+0188,1","10158,1",,,,,"02,1,+00450,1,06,1",,,"9,AGL   ,+99999,+99999","02,99,1,02,1,99,9,00450,1,99,9,99,9","240,M,+0263,1","240,N,+0217,1","99999,9,10105,1","7,1,005,1,+999,9",,,,"4,99,0149,1,999","SYN08668816 32470 21924 10248 20188 30105 40158 57005 82500 333 10263 20217 91029 555 91015=",
"68816099999","2022-01-24T12:00:00","4","-33.964806","18.601667","46.02","CAPE TOWN INTERNATIONAL, SF","FM-15","99999","V020","190,1,N,0113,1","99999,9,9,N","009999,1,9,9","+0250,1","+0190,1","99999,9",,,,,"02,1,+00457,1,99,9",,,"9,AGL   ,+99999,+99999","99,99,9,02,1,99,9,00457,1,99,9,99,9",,,"10160,1,99999,9",,,,,,"MET057METAR FACT 241200Z 19022KT 9999 FEW015 25/19 Q1016 NOSIG=",
"68816099999","2022-01-24T13:00:00","4","-33.964806","18.601667","46.02","CAPE TOWN INTERNATIONAL, SF","FM-15","99999","V020","180,1,N,0108,1","99999,9,9,N","009999,1,9,9","+0250,1","+0180,1","99999,9",,,,,"02,1,+00457,1,99,9",,,"9,AGL   ,+99999,+99999","99,99,9,02,1,99,9,00457,1,99,9,99,9",,,"10160,1,99999,9",,,,,,"MET057METAR FACT 241300Z 18021KT 9999 FEW015 25/18 Q1016 NOSIG=",
"68816099999","2022-01-24T14:00:00","4","-33.964806","18.601667","46.02","CAPE TOWN INTERNATIONAL, SF","FM-15","99999","V020","180,1,N,0113,1","99999,9,9,N","009999,1,9,9","+0250,1","+0180,1","99999,9",,,,,"02,1,+00488,1,99,9",,,"9,AGL   ,+99999,+99999","99,99,9,02,1,99,9,00488,1,99,9,99,9",,,"10150,1,99999,9",,,,,,"MET057METAR FACT 241400Z 18022KT 9999 FEW016 25/18 Q1015 NOSIG=",
"68816099999","2022-01-24T14:57:00","4","-33.964806","18.601667","46.02","CAPE TOWN INTERNATIONAL, SF","FM-16","99999","V020","190,1,N,0118,1","00457,1,C,N","009999,1,9,9","+0230,1","+0180,1","99999,9",,,,,"07,1,+00457,1,99,9",,,"9,AGL   ,+99999,+99999","99,99,9,07,1,99,9,00457,1,99,9,99,9",,,"10150,1,99999,9",,,,,,"MET057SPECI FACT 241457Z 19023KT 9999 BKN015 23/18 Q1015 NOSIG=",
"68816099999","2022-01-24T15:00:00","4","-33.964806","18.601667","46.02","CAPE TOWN INTERNATIONAL, SF","FM-15","99999","V020","190,1,N,0118,1","00457,1,C,N","009999,1,9,9","+0230,1","+0180,1","99999,9",,,,,"07,1,+00457,1,99,9",,,"9,AGL   ,+99999,+99999","99,99,9,07,1,99,9,00457,1,99,9,99,9",,,"10150,1,99999,9",,,,,,"MET057METAR FACT 241500Z 19023KT 9999 BKN015 23/18 Q1015 NOSIG=",
"68816099999","2022-01-24T16:00:00","4","-33.964806","18.601667","46.02","CAPE TOWN INTERNATIONAL, SF","FM-15","99999","V020","190,1,N,0108,1","00457,1,C,N","009999,1,9,9","+0220,1","+0180,1","99999,9",,,,,"07,1,+00457,1,99,9",,,"9,AGL   ,+99999,+99999","99,99,9,07,1,99,9,00457,1,99,9,99,9",,,"10150,1,99999,9",,,,,,"MET064METAR FACT 241600Z 19021KT 9999 BKN015 22/18 Q1015 BECMG BKN008=",
"68816099999","2022-01-24T16:27:00","4","-33.964806","18.601667","46.02","CAPE TOWN INTERNATIONAL, SF","FM-16","99999","V020","190,1,N,0113,1","99999,9,9,N","009999,1,9,9","+0220,1","+0180,1","99999,9",,,,,"04,1,+00396,1,99,9",,,"9,AGL   ,+99999,+99999","99,99,9,04,1,99,9,00396,1,99,9,99,9",,,"10150,1,99999,9",,,,,,"MET057SPECI FACT 241627Z 19022KT 9999 SCT013 22/18 Q1015 NOSIG=",
"68816099999","2022-01-24T17:00:00","4","-33.964806","18.601667","46.02","CAPE TOWN INTERNATIONAL, SF","FM-15","99999","V020","190,1,N,0098,1","99999,9,9,N","009999,1,9,9","+0220,1","+0180,1","99999,9",,,,,"04,1,+00366,1,99,9",,,"9,AGL   ,+99999,+99999","99,99,9,04,1,99,9,00366,1,99,9,99,9",,,"10160,1,99999,9",,,,,,"MET057METAR FACT 241700Z 19019KT 9999 SCT012 22/18 Q1016 NOSIG=",
"68816099999","2022-01-24T18:00:00","4","-33.964806","18.601667","46.02","CAPE TOWN INTERNATIONAL, SF","FM-12","99999","V020","190,1,N,0098,1","22000,1,9,N","020000,1,9,9","+0207,1","+0186,1","10163,1",,,,,"03,1,+00250,1,06,1",,,"9,AGL   ,+99999,+99999","03,99,1,03,1,99,9,00250,1,99,9,99,9","120,M,+0236,1","120,N,+0207,1","99999,9,10109,1","7,1,005,1,+999,9",,,,"4,99,0108,1,999","SYN08668816 32370 31919 10207 20186 30109 40163 57005 83500 333 10236 20207 91021 555 91016=",
"68816099999","2022-01-24T18:00:00","4","-33.964806","18.601667","46.02","CAPE TOWN INTERNATIONAL, SF","FM-15","99999","V020","190,1,N,0098,1","99999,9,9,N","009999,1,9,9","+0210,1","+0180,1","99999,9",,,,,"04,1,+00274,1,99,9",,,"9,AGL   ,+99999,+99999","99,99,9,04,1,99,9,00274,1,99,9,99,9",,,"10160,1,99999,9",,,,,,"MET068METAR COR FACT 241800Z 19019KT 9999 SCT009 21/18 Q1016 BECMG BKN008=",
"68816099999","2022-01-24T18:26:00","4","-33.964806","18.601667","46.02","CAPE TOWN INTERNATIONAL, SF","FM-16","99999","V020","190,1,N,0098,1","00244,1,C,N","009999,1,9,9","+0210,1","+0190,1","99999,9",,,,,"07,1,+00244,1,99,9",,,"9,AGL   ,+99999,+99999","99,99,9,07,1,99,9,00244,1,99,9,99,9",,,"10160,1,99999,9",,,,,,"MET057SPECI FACT 241826Z 19019KT 9999 BKN008 21/19 Q1016 NOSIG=",
"68816099999","2022-01-24T19:00:00","4","-33.964806","18.601667","46.02","CAPE TOWN INTERNATIONAL, SF","FM-15","99999","V020","190,1,N,0093,1","00244,1,C,N","009999,1,9,9","+0200,1","+0190,1","99999,9",,,,,"07,1,+00244,1,99,9",,,"9,AGL   ,+99999,+99999","99,99,9,07,1,99,9,00244,1,99,9,99,9",,,"10160,1,99999,9",,,,,,"MET057METAR FACT 241900Z 19018KT 9999 BKN008 20/19 Q1016 NOSIG=",
"68816099999","2022-01-24T20:00:00","4","-33.964806","18.601667","46.02","CAPE TOWN INTERNATIONAL, SF","FM-15","99999","V020","190,1,N,0093,1","00244,1,C,N","009999,1,9,9","+0200,1","+0190,1","99999,9",,,,,"07,1,+00244,1,99,9",,,"9,AGL   ,+99999,+99999","99,99,9,07,1,99,9,00244,1,99,9,99,9",,,"10160,1,99999,9",,,,,,"MET057METAR FACT 242000Z 19018KT 9999 BKN008 20/19 Q1016 NOSIG=",
"68816099999","2022-01-24T21:00:00","4","-33.964806","18.601667","46.02","CAPE TOWN INTERNATIONAL, SF","FM-15","99999","V020","200,1,N,0088,1","00244,1,C,N","009999,1,9,9","+0200,1","+0180,1","99999,9",,,,,"07,1,+00244,1,99,9",,,"9,AGL   ,+99999,+99999","99,99,9,07,1,99,9,00244,1,99,9,99,9",,,"10160,1,99999,9",,,,,,"MET057METAR FACT 242100Z 20017KT 9999 BKN008 20/18 Q1016 NOSIG=",
"68816099999","2022-01-24T21:59:00","4","-33.964806","18.601667","46.02","CAPE TOWN INTERNATIONAL, SF","FM-16","99999","V020","190,1,N,0082,1","99999,9,9,N","009999,1,9,9","+0200,1","+0180,1","99999,9",,,,,"04,1,+00244,1,99,9",,,"9,AGL   ,+99999,+99999","99,99,9,04,1,99,9,00244,1,99,9,99,9",,,"10160,1,99999,9",,,,,,"MET057SPECI FACT 242159Z 19016KT 9999 SCT008 20/18 Q1016 NOSIG=",
"68816099999","2022-01-24T22:00:00","4","-33.964806","18.601667","46.02","CAPE TOWN INTERNATIONAL, SF","FM-15","99999","V020","190,1,N,0082,1","99999,9,9,N","009999,1,9,9","+0200,1","+0180,1","99999,9",,,,,"04,1,+00244,1,99,9",,,"9,AGL   ,+99999,+99999","99,99,9,04,1,99,9,00244,1,99,9,99,9",,,"10160,1,99999,9",,,,,,"MET057METAR FACT 242200Z 19016KT 9999 SCT008 20/18 Q1016 NOSIG=",
"68816099999","2022-01-24T23:00:00","4","-33.964806","18.601667","46.02","CAPE TOWN INTERNATIONAL, SF","FM-15","99999","V020","190,1,N,0072,1","99999,9,9,N","009999,1,9,9","+0200,1","+0180,1","99999,9",,,,,"04,1,+00244,1,99,9",,,"9,AGL   ,+99999,+99999","99,99,9,04,1,99,9,00244,1,99,9,99,9",,,"10150,1,99999,9",,,,,,"MET057METAR FACT 242300Z 19014KT 9999 SCT008 20/18 Q1015 NOSIG=",
"68816099999","2022-01-25T00:00:00","4","-33.964806","18.601667","46.02","CAPE TOWN INTERNATIONAL, SF","FM-12","99999","V020","190,1,N,0067,1","22000,1,9,N","020000,1,9,9","+0192,1","+0181,1","10153,1",,,,,"02,1,+99999,9,07,1",,,"9,AGL   ,+99999,+99999","02,99,1,02,1,99,9,99999,9,99,9,99,9","120,M,+0236,1",,"99999,9,10098,1","7,1,010,1,+999,9",,,,"4,99,0077,1,999","SYN08068816 32970 21913 10192 20181 30098 40153 57010 82600 333 10236 91015 555 91015=",
"68816099999","2022-01-25T00:00:00","4","-33.964806","18.601667","46.02","CAPE TOWN INTERNATIONAL, SF","FM-15","99999","V020","190,1,N,0067,1","99999,9,9,N","009999,1,9,9","+0190,1","+0180,1","99999,9",,,,,"02,1,+00183,1,99,9",,,"9,AGL   ,+99999,+99999","99,99,9,02,1,99,9,00183,1,99,9,99,9",,,"10150,1,99999,9",,,,,,"MET057METAR FACT 250000Z 19013KT 9999 FEW006 19/18 Q1015 NOSIG=",
"68816099999","2022-01-25T01:00:00","4","-33.964806","18.601667","46.02","CAPE TOWN INTERNATIONAL, SF","FM-15","99999","V020","190,1,N,0062,1","99999,9,9,N","009999,1,9,9","+0190,1","+0180,1","99999,9",,,,,"02,1,+00183,1,99,9",,,"9,AGL   ,+99999,+99999","99,99,9,02,1,99,9,00183,1,99,9,99,9",,,"10150,1,99999,9",,,,,,"MET057METAR FACT 250100Z 19012KT 9999 FEW006 19/18 Q1015 NOSIG=",
"68816099999","2022-01-25T02:00:00","4","-33.964806","18.601667","46.02","CAPE TOWN INTERNATIONAL, SF","FM-15","99999","V020","200,1,N,0057,1","99999,9,9,N","009999,1,9,9","+0190,1","+0180,1","99999,9",,,,,"02,1,+00183,1,99,9",,,"9,AGL   ,+99999,+99999","99,99,9,02,1,99,9,00183,1,99,9,99,9",,,"10140,1,99999,9",,,,,,"MET057METAR FACT 250200Z 20011KT 9999 FEW006 19/18 Q1014 NOSIG=",
"68816099999","2022-01-25T03:00:00","4","-33.964806","18.601667","46.02","CAPE TOWN INTERNATIONAL, SF","FM-15","99999","V020","190,1,N,0062,1","99999,9,9,N","009999,1,9,9","+0190,1","+0170,1","99999,9",,,,,"02,1,+00914,1,99,9",,,"9,AGL   ,+99999,+99999","99,99,9,02,1,99,9,00914,1,99,9,99,9",,,"10140,1,99999,9",,,,,,"MET057METAR FACT 250300Z 19012KT 9999 FEW030 19/17 Q1014 NOSIG=",
"68816099999","2022-01-25T04:00:00","4","-33.964806","18.601667","46.02","CAPE TOWN INTERNATIONAL, SF","FM-15","99999","V020","190,1,N,0062,1","99999,9,9,N","009999,1,9,9","+0200,1","+0170,1","99999,9",,,,,"02,1,+00914,1,99,9",,,"9,AGL   ,+99999,+99999","99,99,9,02,1,99,9,00914,1,99,9,99,9",,,"10150,1,99999,9",,,,,,"MET057METAR FACT 250400Z 19012KT 9999 FEW030 20/17 Q1015 NOSIG=",
"68816099999","2022-01-25T05:00:00","4","-33.964806","18.601667","46.02","CAPE TOWN INTERNATIONAL, SF","FM-15","99999","V020","190,1,N,0067,1","99999,9,9,N","009999,1,9,9","+0200,1","+0170,1","99999,9",,,,,"02,1,+00914,1,99,9",,,"9,AGL   ,+99999,+99999","99,99,9,02,1,99,9,00914,1,99,9,99,9",,,"10150,1,99999,9",,,,,,"MET057METAR FACT 250500Z 19013KT 9999 FEW030 20/17 Q1015 NOSIG=",
"68816099999","2022-01-25T06:00:00","4","-33.964806","18.601667","46.02","CAPE TOWN INTERNATIONAL, SF","FM-15","99999","V020","190,1,N,0082,1","99999,9,9,N","009999,1,9,9","+0210,1","+0170,1","99999,9",,,,,"02,1,+00914,1,99,9",,,"9,AGL   ,+99999,+99999","99,99,9,02,1,99,9,00914,1,99,9,99,9",,,"10150,1,99999,9",,,,,,"MET057METAR FACT 250600Z 19016KT 9999 FEW030 21/17 Q1015 NOSIG=",
"68816099999","2022-01-25T07:00:00","4","-33.964806","18.601667","46.02","CAPE TOWN INTERNATIONAL, SF","FM-15","99999","V020","190,1,N,0082,1","99999,9,9,N","009999,1,9,9","+0230,1","+0170,1","99999,9",,,,,"02,1,+00853,1,99,9",,,"9,AGL   ,+99999,+99999","99,99,9,02,1,99,9,00853,1,99,9,99,9",,,"10150,1,99999,9",,,,,,"MET057METAR FACT 250700Z 19016KT 9999 FEW028 23/17 Q1015 NOSIG=",
"68816099999","2022-01-25T08:00:00","4","-33.964806","18.601667","46.02","CAPE TOWN INTERNATIONAL, SF","FM-15","99999","V020","190,1,N,0098,1","99999,9,9,N","009999,1,9,9","+0230,1","+0160,1","99999,9",,,,,"02,1,+00762,1,99,9",,,"9,AGL   ,+99999,+99999","99,99,9,02,1,99,9,00762,1,99,9,99,9",,,"10160,1,99999,9",,,,,,"MET057METAR FACT 250800Z 19019KT 9999 FEW025 23/16 Q1016 NOSIG=",
"68816099999","2022-01-25T09:00:00","4","-33.964806","18.601667","46.02","CAPE TOWN INTERNATIONAL, SF","FM-15","99999","V020","190,1,N,0093,1","99999,9,9,N","009999,1,9,9","+0240,1","+0160,1","99999,9",,,,,"02,1,+00792,1,99,9",,,"9,AGL   ,+99999,+99999","99,99,9,02,1,99,9,00792,1,99,9,99,9",,,"10160,1,99999,9",,,,,,"MET057METAR FACT 250900Z 19018KT 9999 FEW026 24/16 Q1016 NOSIG=",
"68816099999","2022-01-25T10:00:00","4","-33.964806","18.601667","46.02","CAPE TOWN INTERNATIONAL, SF","FM-15","99999","V020","180,1,N,0093,1","99999,9,9,N","009999,1,9,9","+0250,1","+0160,1","99999,9",,,,,"02,1,+00792,1,99,9",,,"9,AGL   ,+99999,+99999","99,99,9,02,1,99,9,00792,1,99,9,99,9",,,"10160,1,99999,9",,,,,,"MET057METAR FACT 251000Z 18018KT 9999 FEW026 25/16 Q1016 NOSIG=",
"68816099999","2022-01-25T11:00:00","4","-33.964806","18.601667","46.02","CAPE TOWN INTERNATIONAL, SF","FM-15","99999","V020","180,1,N,0098,1","99999,9,9,N","009999,1,9,9","+0250,1","+0150,1","99999,9",,,,,"02,1,+00792,1,99,9",,,"9,AGL   ,+99999,+99999","99,99,9,02,1,99,9,00792,1,99,9,99,9",,,"10160,1,99999,9",,,,,,"MET057METAR FACT 251100Z 18019KT 9999 FEW026 25/15 Q1016 NOSIG=",
"68816099999","2022-01-25T12:00:00","4","-33.964806","18.601667","46.02","CAPE TOWN INTERNATIONAL, SF","FM-12","99999","V020","180,1,N,0108,1","22000,1,9,N","030000,1,9,9","+0247,1","+0142,1","10155,1",,,,,"01,1,+01250,1,06,1",,,"9,AGL   ,+99999,+99999","01,99,1,01,1,99,9,01250,1,99,9,99,9","240,N,+0219,1",,"99999,9,10102,1","2,1,022,1,+999,9",,,,"4,99,0103,1,999","SYN08068816 32680 11821 10247 20142 30102 40155 52022 81500 333 20219 91020 555 91015=",
"68816099999","2022-01-25T12:00:00","4","-33.964806","18.601667","46.02","CAPE TOWN INTERNATIONAL, SF","FM-15","99999","V020","180,1,N,0108,1","99999,9,9,N","009999,1,9,9","+0250,1","+0140,1","99999,9",,,,,"02,1,+01067,1,99,9",,,"9,AGL   ,+99999,+99999","99,99,9,02,1,99,9,01067,1,99,9,99,9",,,"10150,1,99999,9",,,,,,"MET057METAR FACT 251200Z 18021KT 9999 FEW035 25/14 Q1015 NOSIG=",
"68816099999","2022-01-25T13:00:00","4","-33.964806","18.601667","46.02","CAPE TOWN INTERNATIONAL, SF","FM-15","99999","V020","190,1,N,0108,1","99999,9,9,N","009999,1,9,9","+0240,1","+0140,1","99999,9",,,,,"02,1,+01067,1,99,9",,,"9,AGL   ,+99999,+99999","99,99,9,02,1,99,9,01067,1,99,9,99,9",,,"10150,1,99999,9",,,,,,"MET057METAR FACT 251300Z 19021KT 9999 FEW035 24/14 Q1015 NOSIG=",
"68816099999","2022-01-25T14:00:00","4","-33.964806","18.601667","46.02","CAPE TOWN INTERNATIONAL, SF","FM-15","99999","V020","180,1,N,0108,1","99999,9,9,N","009999,1,9,9","+0250,1","+0150,1","99999,9",,,,,"02,1,+01067,1,99,9",,,"9,AGL   ,+99999,+99999","99,99,9,02,1,99,9,01067,1,99,9,99,9",,,"10150,1,99999,9",,,,,,"MET057METAR FACT 251400Z 18021KT 9999 FEW035 25/15 Q1015 NOSIG=",
"68816099999","2022-01-25T15:00:00","4","-33.964806","18.601667","46.02","CAPE TOWN INTERNATIONAL, SF","FM-15","99999","V020","180,1,N,0103,1","99999,9,9,N","009999,1,9,9","+0240,1","+0140,1","99999,9",,,,,"02,1,+01067,1,99,9",,,"9,AGL   ,+99999,+99999","99,99,9,02,1,99,9,01067,1,99,9,99,9",,,"10140,1,99999,9",,,,,,"MET057METAR FACT 251500Z 18020KT 9999 FEW035 24/14 Q1014 NOSIG=",
"68816099999","2022-01-25T16:00:00","4","-33.964806","18.601667","46.02","CAPE TOWN INTERNATIONAL, SF","FM-15","99999","V020","190,1,N,0093,1","99999,9,9,N","009999,1,9,9","+0230,1","+0140,1","99999,9",,,,,"02,1,+01067,1,99,9",,,"9,AGL   ,+99999,+99999","99,99,9,02,1,99,9,01067,1,99,9,99,9",,,"10140,1,99999,9",,,,,,"MET057METAR FACT 251600Z 19018KT 9999 FEW035 23/14 Q1014 NOSIG=",
"68816099999","2022-01-25T17:00:00","4","-33.964806","18.601667","46.02","CAPE TOWN INTERNATIONAL, SF","FM-15","99999","V020","190,1,N,0093,1","99999,9,9,N","009999,1,9,9","+0220,1","+0140,1","99999,9",,,,,"02,1,+01067,1,99,9",,,"9,AGL   ,+99999,+99999","99,99,9,02,1,99,9,01067,1,99,9,99,9",,,"10140,1,99999,9",,,,,,"MET057METAR FACT 251700Z 19018KT 9999 FEW035 22/14 Q1014 NOSIG=",
"68816099999","2022-01-25T18:00:00","4","-33.964806","18.601667","46.02","CAPE TOWN INTERNATIONAL, SF","FM-15","99999","V020","200,1,N,0082,1","99999,9,9,N","009999,1,9,9","+0200,1","+0140,1","99999,9",,,,,"02,1,+01067,1,99,9",,,"9,AGL   ,+99999,+99999","99,99,9,02,1,99,9,01067,1,99,9,99,9",,,"10140,1,99999,9",,,,,,"MET057METAR FACT 251800Z 20016KT 9999 FEW035 20/14 Q1014 NOSIG=",
"68816099999","2022-01-25T19:00:00","4","-33.964806","18.601667","46.02","CAPE TOWN INTERNATIONAL, SF","FM-15","99999","V020","190,1,N,0088,1","99999,9,9,Y","009900,5,9,9","+0200,1","+0140,1","99999,9",,,,,,,,,,,,"10140,1,99999,9",,,,,,"MET051METAR FACT 251900Z 19017KT CAVOK 20/14 Q1014 NOSIG=",
"68816099999","2022-01-25T20:00:00","4","-33.964806","18.601667","46.02","CAPE TOWN INTERNATIONAL, SF","FM-15","99999","V020","180,1,N,0093,1","99999,9,9,Y","009900,5,9,9","+0200,1","+0140,1","99999,9",,,,,,,,,,,,"10150,1,99999,9",,,,,,"MET051METAR FACT 252000Z 18018KT CAVOK 20/14 Q1015 NOSIG=",
"68816099999","2022-01-25T21:00:00","4","-33.964806","18.601667","46.02","CAPE TOWN INTERNATIONAL, SF","FM-15","99999","V020","180,1,N,0093,1","99999,9,9,Y","009900,5,9,9","+0200,1","+0150,1","99999,9",,,,,,,,,,,,"10150,1,99999,9",,,,,,"MET051METAR FACT 252100Z 18018KT CAVOK 20/15 Q1015 NOSIG=",
"68816099999","2022-01-25T22:00:00","4","-33.964806","18.601667","46.02","CAPE TOWN INTERNATIONAL, SF","FM-15","99999","V020","180,1,N,0103,1","99999,9,9,Y","009900,5,9,9","+0200,1","+0140,1","99999,9",,,,,,,,,,,,"10140,1,99999,9",,,,,,"MET051METAR FACT 252200Z 18020KT CAVOK 20/14 Q1014 NOSIG=",
"68816099999","2022-01-25T23:00:00","4","-33.964806","18.601667","46.02","CAPE TOWN INTERNATIONAL, SF","FM-15","99999","V020","180,1,N,0082,1","99999,9,9,Y","009900,5,9,9","+0200,1","+0140,1","99999,9",,,,,,,,,,,,"10140,1,99999,9",,,,,,"MET051METAR FACT 252300Z 18016KT CAVOK 20/14 Q1014 NOSIG=",
"68816099999","2022-01-25T23:53:00","4","-33.964806","18.601667","46.02","CAPE TOWN INTERNATIONAL, SF","FM-16","99999","V020","200,1,N,0077,1","99999,9,9,Y","009900,5,9,9","+0200,1","+0140,1","99999,9",,,,,,,,,,,,"10140,1,99999,9",,,,"0129,1",,"MET054SPECI FACT 252353Z 20015G25KT CAVOK 20/14 Q1014 NOSIG=",
"68816099999","2022-01-26T00:00:00","4","-33.964806","18.601667","46.02","CAPE TOWN INTERNATIONAL, SF","FM-12","99999","V020","210,1,N,0077,1","99999,9,9,N","030000,1,9,9","+0191,1","+0143,1","10140,1",,,,,,,,,,"120,M,+0253,1","120,N,+0191,1","99999,9,10086,1","7,1,009,1,+999,9",,,,"4,99,0088,1,999","SYN08068816 32980 02115 10191 20143 30086 40140 57009 333 10253 20191 91017 555 91014=",
"68816099999","2022-01-26T00:00:00","4","-33.964806","18.601667","46.02","CAPE TOWN INTERNATIONAL, SF","FM-15","99999","V020","200,1,N,0077,1","99999,9,9,Y","009900,5,9,9","+0200,1","+0140,1","99999,9",,,,,,,,,,,,"10140,1,99999,9",,,,"0129,1",,"MET054METAR FACT 260000Z 20015G25KT CAVOK 20/14 Q1014 NOSIG=",
"68816099999","2022-01-26T01:00:00","4","-33.964806","18.601667","46.02","CAPE TOWN INTERNATIONAL, SF","FM-15","99999","V020","200,1,V,0072,1","99999,9,9,Y","009900,5,9,9","+0200,1","+0140,1","99999,9",,,,,,,,,,,,"10130,1,99999,9",,,,,,"MET059METAR FACT 260100Z 20014KT 170V230 CAVOK 20/14 Q1013 NOSIG=",
"68816099999","2022-01-26T02:00:00","4","-33.964806","18.601667","46.02","CAPE TOWN INTERNATIONAL, SF","FM-15","99999","V020","200,1,N,0067,1","99999,9,9,Y","009900,5,9,9","+0190,1","+0140,1","99999,9",,,,,,,,,,,,"10130,1,99999,9",,,,,,"MET051METAR FACT 260200Z 20013KT CAVOK 19/14 Q1013 NOSIG=",
"68816099999","2022-01-26T03:00:00","4","-33.964806","18.601667","46.02","CAPE TOWN INTERNATIONAL, SF","FM-15","99999","V020","210,1,N,0072,1","99999,9,9,Y","009900,5,9,9","+0190,1","+0150,1","99999,9",,,,,,,,,,,,"10120,1,99999,9",,,,,,"MET051METAR FACT 260300Z 21014KT CAVOK 19/15 Q1012 NOSIG=",
"68816099999","2022-01-26T04:00:00","4","-33.964806","18.601667","46.02","CAPE TOWN INTERNATIONAL, SF","FM-15","99999","V020","200,1,N,0077,1","99999,9,9,Y","009900,5,9,9","+0180,1","+0150,1","99999,9",,,,,,,,,,,,"10130,1,99999,9",,,,,,"MET051METAR FACT 260400Z 20015KT CAVOK 18/15 Q1013 NOSIG=",
"68816099999","2022-01-26T05:00:00","4","-33.964806","18.601667","46.02","CAPE TOWN INTERNATIONAL, SF","FM-15","99999","V020","190,1,N,0077,1","99999,9,9,N","009999,1,9,9","+0200,1","+0150,1","99999,9",,,,,"02,1,+00457,1,99,9",,,"9,AGL   ,+99999,+99999","99,99,9,02,1,99,9,00457,1,99,9,99,9",,,"10130,1,99999,9",,,,"0129,1",,"MET060METAR FACT 260500Z 19015G25KT 9999 FEW015 20/15 Q1013 NOSIG=",
"68816099999","2022-01-26T05:01:00","4","-33.964806","18.601667","46.02","CAPE TOWN INTERNATIONAL, SF","FM-16","99999","V020","190,1,N,0077,1","99999,9,9,N","009999,1,9,9","+0200,1","+0150,1","99999,9",,,,,"02,1,+00457,1,99,9",,,"9,AGL   ,+99999,+99999","99,99,9,02,1,99,9,00457,1,99,9,99,9",,,"10130,1,99999,9",,,,"0129,1",,"MET060SPECI FACT 260501Z 19015G25KT 9999 FEW015 20/15 Q1013 NOSIG=",
"68816099999","2022-01-26T05:33:00","4","-33.964806","18.601667","46.02","CAPE TOWN INTERNATIONAL, SF","FM-16","99999","V020","150,1,N,0072,1","99999,9,9,N","009999,1,9,9","+0220,1","+0150,1","99999,9",,,,,"02,1,+00610,1,99,9",,,"9,AGL   ,+99999,+99999","99,99,9,02,1,99,9,00610,1,99,9,99,9",,,"10130,1,99999,9",,,,,,"MET057SPECI FACT 260533Z 15014KT 9999 FEW020 22/15 Q1013 NOSIG=",
"68816099999","2022-01-26T06:00:00","4","-33.964806","18.601667","46.02","CAPE TOWN INTERNATIONAL, SF","FM-12","99999","V020","210,1,N,0057,1","22000,1,9,N","030000,1,9,9","+0217,1","+0157,1","10141,1",,,,,"01,1,+00800,1,06,1",,,"9,AGL   ,+99999,+99999","01,99,1,01,1,99,9,00800,1,99,9,99,9","240,N,+0179,1",,"99999,9,10087,1","7,1,021,1,+999,9",,,,"4,99,0072,1,999","SYN08668816 32580 12111 10217 20157 30087 40141 57021 81500 333 20179 91014 555 10253 91014=",
"68816099999","2022-01-26T06:00:00","4","-33.964806","18.601667","46.02","CAPE TOWN INTERNATIONAL, SF","FM-15","99999","V020","210,1,N,0057,1","99999,9,9,N","009999,1,9,9","+0210,1","+0160,1","99999,9",,,,,"02,1,+00610,1,99,9",,,"9,AGL   ,+99999,+99999","99,99,9,02,1,99,9,00610,1,99,9,99,9",,,"10140,1,99999,9",,,,,,"MET057METAR FACT 260600Z 21011KT 9999 FEW020 21/16 Q1014 NOSIG=",
"68816099999","2022-01-26T06:24:00","4","-33.964806","18.601667","46.02","CAPE TOWN INTERNATIONAL, SF","FM-16","99999","V020","170,1,N,0088,1","99999,9,9,N","009999,1,9,9","+0230,1","+0160,1","99999,9",,,,,"02,1,+00610,1,99,9",,,"9,AGL   ,+99999,+99999","99,99,9,02,1,99,9,00610,1,99,9,99,9",,,"10140,1,99999,9",,,,,,"MET057SPECI FACT 260624Z 17017KT 9999 FEW020 23/16 Q1014 NOSIG=",
"68816099999","2022-01-26T07:00:00","4","-33.964806","18.601667","46.02","CAPE TOWN INTERNATIONAL, SF","FM-15","99999","V020","190,1,N,0077,1","99999,9,9,N","009999,1,9,9","+0230,1","+0160,1","99999,9",,,,,"02,1,+00610,1,99,9",,,"9,AGL   ,+99999,+99999","99,99,9,02,1,99,9,00610,1,99,9,99,9",,,"10140,1,99999,9",,,,,,"MET057METAR FACT 260700Z 19015KT 9999 FEW020 23/16 Q1014 NOSIG=",
"68816099999","2022-01-26T07:29:00","4","-33.964806","18.601667","46.02","CAPE TOWN INTERNATIONAL, SF","FM-16","99999","V020","170,1,N,0103,1","99999,9,9,N","009999,1,9,9","+0250,1","+0160,1","99999,9",,,,,"02,1,+00610,1,99,9",,,"9,AGL   ,+99999,+99999","99,99,9,02,1,99,9,00610,1,99,9,99,9",,,"10130,1,99999,9",,,,,,"MET057SPECI FACT 260729Z 17020KT 9999 FEW020 25/16 Q1013 NOSIG=",
"68816099999","2022-01-26T08:00:00","4","-33.964806","18.601667","46.02","CAPE TOWN INTERNATIONAL, SF","FM-15","99999","V020","190,1,N,0082,1","99999,9,9,N","009999,1,9,9","+0250,1","+0160,1","99999,9",,,,,"02,1,+00610,1,99,9",,,"9,AGL   ,+99999,+99999","99,99,9,02,1,99,9,00610,1,99,9,99,9",,,"10140,1,99999,9",,,,,,"MET057METAR FACT 260800Z 19016KT 9999 FEW020 25/16 Q1014 NOSIG=",
"68816099999","2022-01-26T09:00:00","4","-33.964806","18.601667","46.02","CAPE TOWN INTERNATIONAL, SF","FM-15","99999","V020","190,1,N,0093,1","99999,9,9,N","009999,1,9,9","+0250,1","+0170,1","99999,9",,,,,"02,1,+00610,1,99,9",,,"9,AGL   ,+99999,+99999","99,99,9,02,1,99,9,00610,1,99,9,99,9",,,"10140,1,99999,9",,,,,,"MET057METAR FACT 260900Z 19018KT 9999 FEW020 25/17 Q1014 NOSIG=",
"68816099999","2022-01-26T10:00:00","4","-33.964806","18.601667","46.02","CAPE TOWN INTERNATIONAL, SF","FM-15","99999","V020","190,1,N,0093,1","99999,9,9,N","009999,1,9,9","+0260,1","+0180,1","99999,9",,,,,"02,1,+00610,1,99,9",,,"9,AGL   ,+99999,+99999","99,99,9,02,1,99,9,00610,1,99,9,99,9",,,"10130,1,99999,9",,,,,,"MET057METAR FACT 261000Z 19018KT 9999 FEW020 26/18 Q1013 NOSIG=",
"68816099999","2022-01-26T11:00:00","4","-33.964806","18.601667","46.02","CAPE TOWN INTERNATIONAL, SF","FM-15","99999","V020","190,1,N,0088,1","99999,9,9,N","009999,1,9,9","+0270,1","+0180,1","99999,9",,,,,"02,1,+00762,1,99,9",,,"9,AGL   ,+99999,+99999","99,99,9,02,1,99,9,00762,1,99,9,99,9",,,"10130,1,99999,9",,,,,,"MET057METAR FACT 261100Z 19017KT 9999 FEW025 27/18 Q1013 NOSIG=",
"68816099999","2022-01-26T12:00:00","4","-33.964806","18.601667","46.02","CAPE TOWN INTERNATIONAL, SF","FM-12","99999","V020","190,1,N,0103,1","22000,1,9,N","030000,1,9,9","+0258,1","+0176,1","10123,1",,,,,"01,1,+00800,1,06,1",,,"9,AGL   ,+99999,+99999","01,99,1,01,1,99,9,00800,1,99,9,99,9","240,M,+0269,1","240,N,+0217,1","99999,9,10070,1","7,1,013,1,+999,9",,,,"4,99,0139,1,999","SYN08668816 32580 11920 10258 20176 30070 40123 57013 81500 333 10269 20217 91027 555 91012=",
"68816099999","2022-01-26T12:00:00","4","-33.964806","18.601667","46.02","CAPE TOWN INTERNATIONAL, SF","FM-15","99999","V020","190,1,N,0093,1","99999,9,9,N","009999,1,9,9","+0260,1","+0180,1","99999,9",,,,,"02,1,+00762,1,99,9",,,"9,AGL   ,+99999,+99999","99,99,9,02,1,99,9,00762,1,99,9,99,9",,,"10120,1,99999,9",,,,,,"MET057METAR FACT 261200Z 19018KT 9999 FEW025 26/18 Q1012 NOSIG=",
"68816099999","2022-01-26T13:00:00","4","-33.964806","18.601667","46.02","CAPE TOWN INTERNATIONAL, SF","FM-15","99999","V020","190,1,N,0108,1","99999,9,9,N","009999,1,9,9","+0250,1","+0180,1","99999,9",,,,,"02,1,+00762,1,99,9",,,"9,AGL   ,+99999,+99999","99,99,9,02,1,99,9,00762,1,99,9,99,9",,,"10120,1,99999,9",,,,,,"MET057METAR FACT 261300Z 19021KT 9999 FEW025 25/18 Q1012 NOSIG=",
"68816099999","2022-01-26T14:00:00","4","-33.964806","18.601667","46.02","CAPE TOWN INTERNATIONAL, SF","FM-15","99999","V020","190,1,N,0113,1","99999,9,9,N","009999,1,9,9","+0240,1","+0180,1","99999,9",,,,,"02,1,+00762,1,99,9",,,"9,AGL   ,+99999,+99999","99,99,9,02,1,99,9,00762,1,99,9,99,9",,,"10120,1,99999,9",,,,,,"MET057METAR FACT 261400Z 19022KT 9999 FEW025 24/18 Q1012 NOSIG=",
"68816099999","2022-01-26T15:00:00","4","-33.964806","18.601667","46.02","CAPE TOWN INTERNATIONAL, SF","FM-15","99999","V020","190,1,N,0098,1","99999,9,9,N","009999,1,9,9","+0240,1","+0180,1","99999,9",,,,,"02,1,+00762,1,99,9",,,"9,AGL   ,+99999,+99999","99,99,9,02,1,99,9,00762,1,99,9,99,9",,,"10110,1,99999,9",,,,,,"MET057METAR FACT 261500Z 19019KT 9999 FEW025 24/18 Q1011 NOSIG=",
"68816099999","2022-01-26T16:00:00","4","-33.964806","18.601667","46.02","CAPE TOWN INTERNATIONAL, SF","FM-15","99999","V020","200,1,N,0082,1","99999,9,9,N","009999,1,9,9","+0240,1","+0170,1","99999,9",,,,,"02,1,+00762,1,99,9",,,"9,AGL   ,+99999,+99999","99,99,9,02,1,99,9,00762,1,99,9,99,9",,,"10110,1,99999,9",,,,,,"MET057METAR FACT 261600Z 20016KT 9999 FEW025 24/17 Q1011 NOSIG=",
"68816099999","2022-01-26T17:00:00","4","-33.964806","18.601667","46.02","CAPE TOWN INTERNATIONAL, SF","FM-15","99999","V020","200,1,N,0082,1","99999,9,9,N","009999,1,9,9","+0220,1","+0170,1","99999,9",,,,,"02,1,+00762,1,99,9",,,"9,AGL   ,+99999,+99999","99,99,9,02,1,99,9,00762,1,99,9,99,9",,,"10110,1,99999,9",,,,,,"MET057METAR FACT 261700Z 20016KT 9999 FEW025 22/17 Q1011 NOSIG=",
"68816099999","2022-01-26T18:00:00","4","-33.964806","18.601667","46.02","CAPE TOWN INTERNATIONAL, SF","FM-12","99999","V020","220,1,N,0072,1","22000,1,9,N","020000,1,9,9","+0208,1","+0166,1","10117,1",,,,,"01,1,+00800,1,06,1",,,"9,AGL   ,+99999,+99999","01,99,1,01,1,99,9,00800,1,99,9,99,9","120,M,+0270,1","120,N,+0208,1","99999,9,10063,1","2,1,005,1,+999,9",,,,"4,99,0093,1,999","SYN08668816 32570 12214 10208 20166 30063 40117 52005 81500 333 10270 20208 91018 555 91011=",
"68816099999","2022-01-26T18:00:00","4","-33.964806","18.601667","46.02","CAPE TOWN INTERNATIONAL, SF","FM-15","99999","V020","220,1,N,0067,1","99999,9,9,N","009999,1,9,9","+0210,1","+0170,1","99999,9",,,,,"02,1,+00762,1,99,9",,,"9,AGL   ,+99999,+99999","99,99,9,02,1,99,9,00762,1,99,9,99,9",,,"10110,1,99999,9",,,,,,"MET057METAR FACT 261800Z 22013KT 9999 FEW025 21/17 Q1011 NOSIG=",
"68816099999","2022-01-26T19:00:00","4","-33.964806","18.601667","46.02","CAPE TOWN INTERNATIONAL, SF","FM-15","99999","V020","210,1,N,0067,1","99999,9,9,Y","009900,5,9,9","+0210,1","+0170,1","99999,9",,,,,,,,,,,,"10120,1,99999,9",,,,,,"MET051METAR FACT 261900Z 21013KT CAVOK 21/17 Q1012 NOSIG=",
"68816099999","2022-01-26T20:00:00","4","-33.964806","18.601667","46.02","CAPE TOWN INTERNATIONAL, SF","FM-15","99999","V020","190,1,N,0067,1","99999,9,9,Y","009900,5,9,9","+0220,1","+0170,1","99999,9",,,,,,,,,,,,"10120,1,99999,9",,,,,,"MET051METAR FACT 262000Z 19013KT CAVOK 22/17 Q1012 NOSIG=",
"68816099999","2022-01-26T21:00:00","4","-33.964806","18.601667","46.02","CAPE TOWN INTERNATIONAL, SF","FM-15","99999","V020","180,1,N,0082,1","99999,9,9,Y","009900,5,9,9","+0210,1","+0160,1","99999,9",,,,,,,,,,,,"10120,1,99999,9",,,,,,"MET051METAR FACT 262100Z 18016KT CAVOK 21/16 Q1012 NOSIG=",
"68816099999","2022-01-26T22:00:00","4","-33.964806","18.601667","46.02","CAPE TOWN INTERNATIONAL, SF","FM-15","99999","V020","190,1,N,0062,1","99999,9,9,Y","009900,5,9,9","+0210,1","+0160,1","99999,9",,,,,,,,,,,,"10110,1,99999,9",,,,,,"MET051METAR FACT 262200Z 19012KT CAVOK 21/16 Q1011 NOSIG=",
"68816099999","2022-01-26T23:00:00","4","-33.964806","18.601667","46.02","CAPE TOWN INTERNATIONAL, SF","FM-15","99999","V020","220,1,N,0062,1","99999,9,9,Y","009900,5,9,9","+0200,1","+0160,1","99999,9",,,,,,,,,,,,"10110,1,99999,9",,,,,,"MET051METAR FACT 262300Z 22012KT CAVOK 20/16 Q1011 NOSIG=",
"68816099999","2022-01-27T00:00:00","4","-33.964806","18.601667","46.02","CAPE TOWN INTERNATIONAL, SF","FM-12","99999","V020","180,1,N,0062,1","22000,1,9,N","020000,1,9,9","+0200,1","+0156,1","10110,1",,,,,,,,"9,AGL   ,+99999,+99999","01,99,1,99,9,99,9,99999,9,99,9,99,9","120,M,+0221,1","120,N,+0198,1","99999,9,10056,1","2,1,005,1,+999,9",,,,"4,99,0077,1,999","SYN08068816 32970 11812 10200 20156 30056 40110 52005 333 10221 20198 91015 555 91011=",
"68816099999","2022-01-27T00:00:00","4","-33.964806","18.601667","46.02","CAPE TOWN INTERNATIONAL, SF","FM-15","99999","V020","180,1,N,0062,1","99999,9,9,Y","009900,5,9,9","+0200,1","+0160,1","99999,9",,,,,,,,,,,,"10110,1,99999,9",,,,,,"MET051METAR FACT 270000Z 18012KT CAVOK 20/16 Q1011 NOSIG=",
"68816099999","2022-01-27T01:00:00","4","-33.964806","18.601667","46.02","CAPE TOWN INTERNATIONAL, SF","FM-15","99999","V020","230,1,N,0051,1","99999,9,9,Y","009900,5,9,9","+0190,1","+0150,1","99999,9",,,,,,,,,,,,"10100,1,99999,9",,,,,,"MET051METAR FACT 270100Z 23010KT CAVOK 19/15 Q1010 NOSIG=",
"68816099999","2022-01-27T02:00:00","4","-33.964806","18.601667","46.02","CAPE TOWN INTERNATIONAL, SF","FM-15","99999","V020","190,1,N,0041,1","99999,9,9,Y","009900,5,9,9","+0190,1","+0150,1","99999,9",,,,,,,,,,,,"10100,1,99999,9",,,,,,"MET051METAR FACT 270200Z 19008KT CAVOK 19/15 Q1010 NOSIG=",
"68816099999","2022-01-27T03:00:00","4","-33.964806","18.601667","46.02","CAPE TOWN INTERNATIONAL, SF","FM-15","99999","V020","230,1,N,0051,1","99999,9,9,Y","009900,5,9,9","+0180,1","+0150,1","99999,9",,,,,,,,,,,,"10100,1,99999,9",,,,,,"MET051METAR FACT 270300Z 23010KT CAVOK 18/15 Q1010 NOSIG=",
"68816099999","2022-01-27T04:00:00","4","-33.964806","18.601667","46.02","CAPE TOWN INTERNATIONAL, SF","FM-15","99999","V020","210,1,N,0051,1","99999,9,9,Y","009900,5,9,9","+0180,1","+0150,1","99999,9",,,,,,,,,,,,"10100,1,99999,9",,,,,,"MET051METAR FACT 270400Z 21010KT CAVOK 18/15 Q1010 NOSIG=",
"68816099999","2022-01-27T05:00:00","4","-33.964806","18.601667","46.02","CAPE TOWN INTERNATIONAL, SF","FM-15","99999","V020","210,1,N,0036,1","99999,9,9,Y","009900,5,9,9","+0190,1","+0150,1","99999,9",,,,,,,,,,,,"10110,1,99999,9",,,,,,"MET051METAR FACT 270500Z 21007KT CAVOK 19/15 Q1011 NOSIG=",
"68816099999","2022-01-27T06:00:00","4","-33.964806","18.601667","46.02","CAPE TOWN INTERNATIONAL, SF","FM-15","99999","V020","250,1,V,0026,1","99999,9,9,Y","009900,5,9,9","+0200,1","+0160,1","99999,9",,,,,,,,,,,,"10110,1,99999,9",,,,,,"MET059METAR FACT 270600Z 25005KT 210V280 CAVOK 20/16 Q1011 NOSIG=",
"68816099999","2022-01-27T07:00:00","4","-33.964806","18.601667","46.02","CAPE TOWN INTERNATIONAL, SF","FM-15","99999","V020","230,1,N,0041,1","99999,9,9,Y","009900,5,9,9","+0210,1","+0160,1","99999,9",,,,,,,,,,,,"10110,1,99999,9",,,,,,"MET051METAR FACT 270700Z 23008KT CAVOK 21/16 Q1011 NOSIG=",
"68816099999","2022-01-27T08:00:00","4","-33.964806","18.601667","46.02","CAPE TOWN INTERNATIONAL, SF","FM-15","99999","V020","220,1,N,0051,1","99999,9,9,Y","009900,5,9,9","+0230,1","+0160,1","99999,9",,,,,,,,,,,,"10120,1,99999,9",,,,,,"MET051METAR FACT 270800Z 22010KT CAVOK 23/16 Q1012 NOSIG=",
"68816099999","2022-01-27T09:00:00","4","-33.964806","18.601667","46.02","CAPE TOWN INTERNATIONAL, SF","FM-12","99999","V020","220,1,N,0062,1","99999,9,9,N","020000,1,9,9","+0228,1","+0158,1","10122,1",,,,,,,,,,,,"99999,9,10068,1","2,1,010,1,+999,9",,,,"4,99,0051,1,999","SYN05868816 42970 02212 10228 20158 30068 40122 52010 333 91010=",
"68816099999","2022-01-27T09:00:00","4","-33.964806","18.601667","46.02","CAPE TOWN INTERNATIONAL, SF","FM-15","99999","V020","220,1,V,0057,1","99999,9,9,Y","009900,5,9,9","+0220,1","+0160,1","99999,9",,,,,,,,,,,,"10120,1,99999,9",,,,,,"MET059METAR FACT 270900Z 22011KT 180V250 CAVOK 22/16 Q1012 NOSIG=",
"68816099999","2022-01-27T10:00:00","4","-33.964806","18.601667","46.02","CAPE TOWN INTERNATIONAL, SF","FM-15","99999","V020","190,1,N,0082,1","99999,9,9,Y","009900,5,9,9","+0240,1","+0160,1","99999,9",,,,,,,,,,,,"10120,1,99999,9",,,,,,"MET051METAR FACT 271000Z 19016KT CAVOK 24/16 Q1012 NOSIG=",
"68816099999","2022-01-27T11:00:00","4","-33.964806","18.601667","46.02","CAPE TOWN INTERNATIONAL, SF","FM-15","99999","V020","190,1,N,0108,1","99999,9,9,Y","009900,5,9,9","+0240,1","+0160,1","99999,9",,,,,,,,,,,,"10120,1,99999,9",,,,,,"MET051METAR FACT 271100Z 19021KT CAVOK 24/16 Q1012 NOSIG=",
"68816099999","2022-01-27T12:00:00","4","-33.964806","18.601667","46.02","CAPE TOWN INTERNATIONAL, SF","FM-12","99999","V020","190,1,N,0118,1","99999,9,9,N","040000,1,9,9","+0247,1","+0158,1","10122,1",,,,,,,,,,"240,N,+0195,1",,"99999,9,10069,1","2,1,010,1,+999,9",,,,"4,99,0118,1,999","SYN07468816 32982 01923 10247 20158 30069 40122 52010 333 20195 91023 555 91012=",
"68816099999","2022-01-27T12:00:00","4","-33.964806","18.601667","46.02","CAPE TOWN INTERNATIONAL, SF","FM-15","99999","V020","190,1,N,0113,1","99999,9,9,Y","009900,5,9,9","+0240,1","+0160,1","99999,9",,,,,,,,,,,,"10120,1,99999,9",,,,,,"MET051METAR FACT 271200Z 19022KT CAVOK 24/16 Q1012 NOSIG=",
"68816099999","2022-01-27T13:00:00","4","-33.964806","18.601667","46.02","CAPE TOWN INTERNATIONAL, SF","FM-15","99999","V020","190,1,N,0113,1","99999,9,9,Y","009900,5,9,9","+0240,1","+0160,1","99999,9",,,,,,,,,,,,"10120,1,99999,9",,,,,,"MET051METAR FACT 271300Z 19022KT CAVOK 24/16 Q1012 NOSIG=",
"68816099999","2022-01-27T14:00:00","4","-33.964806","18.601667","46.02","CAPE TOWN INTERNATIONAL, SF","FM-15","99999","V020","190,1,N,0118,1","99999,9,9,Y","009900,5,9,9","+0240,1","+0170,1","99999,9",,,,,,,,,,,,"10120,1,99999,9",,,,,,"MET051METAR FACT 271400Z 19023KT CAVOK 24/17 Q1012 NOSIG=",
"68816099999","2022-01-27T15:00:00","4","-33.964806","18.601667","46.02","CAPE TOWN INTERNATIONAL, SF","FM-15","99999","V020","190,1,N,0103,1","00488,1,C,N","009999,1,9,9","+0240,1","+0170,1","99999,9",,,,,"07,1,+00488,1,99,9",,,"9,AGL   ,+99999,+99999","99,99,9,07,1,99,9,00488,1,99,9,99,9",,,"10120,1,99999,9",,,,,,"MET057METAR FACT 271500Z 19020KT 9999 BKN016 24/17 Q1012 NOSIG=",
"68816099999","2022-01-27T16:00:00","4","-33.964806","18.601667","46.02","CAPE TOWN INTERNATIONAL, SF","FM-15","99999","V020","190,1,N,0108,1","99999,9,9,N","009999,1,9,9","+0220,1","+0170,1","99999,9",,,,,"02,1,+00457,1,99,9",,,"9,AGL   ,+99999,+99999","99,99,9,02,1,99,9,00457,1,99,9,99,9",,,"10120,1,99999,9",,,,,,"MET057METAR FACT 271600Z 19021KT 9999 FEW015 22/17 Q1012 NOSIG=",
"68816099999","2022-01-27T17:00:00","4","-33.964806","18.601667","46.02","CAPE TOWN INTERNATIONAL, SF","FM-15","99999","V020","200,1,N,0088,1","00518,1,C,N","009999,1,9,9","+0210,1","+0160,1","99999,9",,,,,"07,1,+00518,1,99,9",,,"9,AGL   ,+99999,+99999","99,99,9,07,1,99,9,00518,1,99,9,99,9",,,"10120,1,99999,9",,,,,,"MET057METAR FACT 271700Z 20017KT 9999 BKN017 21/16 Q1012 NOSIG=",
"68816099999","2022-01-27T18:00:00","4","-33.964806","18.601667","46.02","CAPE TOWN INTERNATIONAL, SF","FM-12","99999","V020","200,1,N,0098,1","22000,1,9,N","040000,1,9,9","+0199,1","+0161,1","10134,1",,,,,"02,1,+00800,1,06,1",,,"9,AGL   ,+99999,+99999","02,99,1,02,1,99,9,00800,1,99,9,99,9",,,"99999,9,10079,1","2,1,010,1,+999,9",,,,"4,99,0129,1,999","SYN08068816 32582 22019 10199 20161 30079 40134 52010 82500 333 91025 555 10253 91013=",
"68816099999","2022-01-27T18:00:00","4","-33.964806","18.601667","46.02","CAPE TOWN INTERNATIONAL, SF","FM-15","99999","V020","200,1,N,0098,1","99999,9,9,N","009999,1,9,9","+0200,1","+0160,1","99999,9",,,,,"02,1,+00610,1,99,9",,,"9,AGL   ,+99999,+99999","99,99,9,02,1,99,9,00610,1,99,9,99,9",,,"10130,1,99999,9",,,,,,"MET057METAR FACT 271800Z 20019KT 9999 FEW020 20/16 Q1013 NOSIG=",
"68816099999","2022-01-27T19:00:00","4","-33.964806","18.601667","46.02","CAPE TOWN INTERNATIONAL, SF","FM-15","99999","V020","190,1,N,0088,1","99999,9,9,N","009999,1,9,9","+0190,1","+0160,1","99999,9",,,,,"02,1,+00610,1,99,9",,,"9,AGL   ,+99999,+99999","99,99,9,02,1,99,9,00610,1,99,9,99,9",,,"10140,1,99999,9",,,,,,"MET057METAR FACT 271900Z 19017KT 9999 FEW020 19/16 Q1014 NOSIG=",
"68816099999","2022-01-27T20:00:00","4","-33.964806","18.601667","46.02","CAPE TOWN INTERNATIONAL, SF","FM-15","99999","V020","200,1,N,0082,1","99999,9,9,N","009999,1,9,9","+0190,1","+0160,1","99999,9",,,,,"02,1,+00610,1,99,9",,,"9,AGL   ,+99999,+99999","99,99,9,02,1,99,9,00610,1,99,9,99,9",,,"10140,1,99999,9",,,,,,"MET057METAR FACT 272000Z 20016KT 9999 FEW020 19/16 Q1014 NOSIG=",
"68816099999","2022-01-27T21:00:00","4","-33.964806","18.601667","46.02","CAPE TOWN INTERNATIONAL, SF","FM-15","99999","V020","200,1,N,0077,1","99999,9,9,N","009999,1,9,9","+0190,1","+0150,1","99999,9",,,,,"02,1,+00610,1,99,9",,,"9,AGL   ,+99999,+99999","99,99,9,02,1,99,9,00610,1,99,9,99,9",,,"10140,1,99999,9",,,,,,"MET057METAR FACT 272100Z 20015KT 9999 FEW020 19/15 Q1014 NOSIG=",
"68816099999","2022-01-27T22:00:00","4","-33.964806","18.601667","46.02","CAPE TOWN INTERNATIONAL, SF","FM-15","99999","V020","190,1,N,0072,1","99999,9,9,N","009999,1,9,9","+0180,1","+0150,1","99999,9",,,,,"02,1,+00610,1,99,9",,,"9,AGL   ,+99999,+99999","99,99,9,02,1,99,9,00610,1,99,9,99,9",,,"10140,1,99999,9",,,,,,"MET057METAR FACT 272200Z 19014KT 9999 FEW020 18/15 Q1014 NOSIG=",
"68816099999","2022-01-27T23:00:00","4","-33.964806","18.601667","46.02","CAPE TOWN INTERNATIONAL, SF","FM-15","99999","V020","200,1,N,0057,1","99999,9,9,N","009999,1,9,9","+0180,1","+0140,1","99999,9",,,,,"02,1,+00610,1,99,9",,,"9,AGL   ,+99999,+99999","99,99,9,02,1,99,9,00610,1,99,9,99,9",,,"10140,1,99999,9",,,,,,"MET057METAR FACT 272300Z 20011KT 9999 FEW020 18/14 Q1014 NOSIG=",
"68816099999","2022-01-28T00:00:00","4","-33.964806","18.601667","46.02","CAPE TOWN INTERNATIONAL, SF","FM-12","99999","V020","180,1,N,0046,1","22000,1,9,N","030000,1,9,9","+0178,1","+0146,1","10142,1",,,,,"01,1,+00800,1,06,1",,,"9,AGL   ,+99999,+99999","01,99,1,01,1,99,9,00800,1,99,9,99,9","120,M,+0253,1",,"99999,9,10087,1","7,1,003,1,+999,9",,,,"4,99,0057,1,999","SYN08068816 42580 11809 10178 20146 30087 40142 57003 81500 333 10253 91011 555 91014=",
"68816099999","2022-01-28T00:00:00","4","-33.964806","18.601667","46.02","CAPE TOWN INTERNATIONAL, SF","FM-15","99999","V020","180,1,N,0046,1","99999,9,9,N","009999,1,9,9","+0180,1","+0150,1","99999,9",,,,,"02,1,+00610,1,99,9",,,"9,AGL   ,+99999,+99999","99,99,9,02,1,99,9,00610,1,99,9,99,9",,,"10140,1,99999,9",,,,,,"MET057METAR FACT 280000Z 18009KT 9999 FEW020 18/15 Q1014 NOSIG=",
"68816099999","2022-01-28T01:00:00","4","-33.964806","18.601667","46.02","CAPE TOWN INTERNATIONAL, SF","FM-15","99999","V020","180,1,N,0036,1","99999,9,9,N","009999,1,9,9","+0180,1","+0150,1","99999,9",,,,,"02,1,+00610,1,99,9",,,"9,AGL   ,+99999,+99999","99,99,9,02,1,99,9,00610,1,99,9,99,9",,,"10140,1,99999,9",,,,,,"MET057METAR FACT 280100Z 18007KT 9999 FEW020 18/15 Q1014 NOSIG=",
"68816099999","2022-01-28T02:00:00","4","-33.964806","18.601667","46.02","CAPE TOWN INTERNATIONAL, SF","FM-15","99999","V020","200,1,N,0036,1","99999,9,9,N","009999,1,9,9","+0180,1","+0150,1","99999,9",,,,,"02,1,+00610,1,99,9",,,"9,AGL   ,+99999,+99999","99,99,9,02,1,99,9,00610,1,99,9,99,9",,,"10140,1,99999,9",,,,,,"MET057METAR FACT 280200Z 20007KT 9999 FEW020 18/15 Q1014 NOSIG=",
"68816099999","2022-01-28T03:00:00","4","-33.964806","18.601667","46.02","CAPE TOWN INTERNATIONAL, SF","FM-12","99999","V020","220,1,N,0041,1","22000,1,9,N","040000,1,9,9","+0177,1","+0149,1","10140,1",,,,,"01,1,+99999,9,06,1",,,"9,AGL   ,+99999,+99999","01,99,1,01,1,99,9,99999,9,99,9,99,9","240,M,+0253,1",,"99999,9,10085,1","7,1,003,1,+999,9",,,,"4,99,0057,1,999","SYN07068816 43982 12208 10177 20149 30085 40140 57003 81500 333 10253 91011=",
"68816099999","2022-01-28T03:00:00","4","-33.964806","18.601667","46.02","CAPE TOWN INTERNATIONAL, SF","FM-15","99999","V020","210,1,N,0041,1","99999,9,9,N","009999,1,9,9","+0180,1","+0150,1","99999,9",,,,,"02,1,+00610,1,99,9",,,"9,AGL   ,+99999,+99999","99,99,9,02,1,99,9,00610,1,99,9,99,9",,,"10140,1,99999,9",,,,,,"MET057METAR FACT 280300Z 21008KT 9999 FEW020 18/15 Q1014 NOSIG=",
"68816099999","2022-01-28T04:00:00","4","-33.964806","18.601667","46.02","CAPE TOWN INTERNATIONAL, SF","FM-15","99999","V020","190,1,N,0041,1","99999,9,9,N","009999,1,9,9","+0180,1","+0150,1","99999,9",,,,,"02,1,+00610,1,99,9",,,"9,AGL   ,+99999,+99999","99,99,9,02,1,99,9,00610,1,99,9,99,9",,,"10140,1,99999,9",,,,,,"MET057METAR FACT 280400Z 19008KT 9999 FEW020 18/15 Q1014 NOSIG=",
"68816099999","2022-01-28T05:00:00","4","-33.964806","18.601667","46.02","CAPE TOWN INTERNATIONAL, SF","FM-15","99999","V020","180,1,V,0026,1","99999,9,9,N","009999,1,9,9","+0190,1","+0160,1","99999,9",,,,,"02,1,+01067,1,99,9",,,"9,AGL   ,+99999,+99999","99,99,9,02,1,99,9,01067,1,99,9,99,9",,,"10140,1,99999,9",,,,,,"MET065METAR FACT 280500Z 18005KT 130V200 9999 FEW035 19/16 Q1014 NOSIG=",
"68816099999","2022-01-28T06:00:00","4","-33.964806","18.601667","46.02","CAPE TOWN INTERNATIONAL, SF","FM-12","99999","V020","190,1,N,0051,1","22000,1,9,N","050000,1,9,9","+0209,1","+0162,1","10150,1",,,,,"01,1,+00800,1,06,1",,,"9,AGL   ,+99999,+99999","01,99,1,01,1,99,9,00800,1,99,9,99,9","240,N,+0174,1",,"99999,9,10096,1","7,1,003,1,+999,9",,,,"4,99,0051,1,999","SYN08668816 32584 11910 10209 20162 30096 40150 57003 81500 333 20174 91010 555 10253 91014=",
"68816099999","2022-01-28T06:00:00","4","-33.964806","18.601667","46.02","CAPE TOWN INTERNATIONAL, SF","FM-15","99999","V020","190,1,N,0057,1","99999,9,9,N","009999,1,9,9","+0210,1","+0160,1","99999,9",,,,,"02,1,+00610,1,99,9",,,"9,AGL   ,+99999,+99999","99,99,9,02,1,99,9,00610,1,99,9,99,9",,,"10150,1,99999,9",,,,,,"MET057METAR FACT 280600Z 19011KT 9999 FEW020 21/16 Q1015 NOSIG=",
"68816099999","2022-01-28T07:00:00","4","-33.964806","18.601667","46.02","CAPE TOWN INTERNATIONAL, SF","FM-15","99999","V020","180,1,N,0062,1","01067,1,9,N","009999,1,9,9","+0220,1","+0160,1","99999,9",,,,,"02,1,+00762,1,99,9","07,1,+01067,1,99,9",,"9,AGL   ,+99999,+99999","99,99,9,02,1,99,9,00762,1,99,9,99,9",,,"10150,1,99999,9",,,,,,"MET064METAR FACT 280700Z 18012KT 9999 FEW025 BKN035 22/16 Q1015 NOSIG=",
"68816099999","2022-01-28T08:00:00","4","-33.964806","18.601667","46.02","CAPE TOWN INTERNATIONAL, SF","FM-15","99999","V020","200,1,N,0072,1","00488,1,9,N","006000,1,9,9","+0200,1","+0180,1","99999,9",,,,,"04,1,+00183,1,99,9","07,1,+00488,1,99,9","08,1,+00914,1,99,9","9,AGL   ,+99999,+99999","99,99,9,04,1,99,9,00183,1,99,9,99,9",,,"10160,1,99999,9",,"61,1",,,,"MET087METAR FACT 280800Z 20014KT 6000 -RA SCT006 BKN016 OVC030 20/18 Q1016 TEMPO 3000 BKN005=",
"68816099999","2022-01-28T08:01:00","4","-33.964806","18.601667","46.02","CAPE TOWN INTERNATIONAL, SF","FM-16","99999","V020","190,1,N,0067,1","00152,1,C,N","003000,1,9,9","+0200,1","+0180,1","99999,9",,,,,"07,1,+00152,1,99,9","07,1,+00457,1,99,9","08,1,+00914,1,99,9","9,AGL   ,+99999,+99999","99,99,9,07,1,99,9,00152,1,99,9,99,9",,,"10160,1,99999,9",,"61,1",,,,"MET087SPECI FACT 280801Z 19013KT 3000 -RA BKN005 BKN015 OVC030 20/18 Q1016 BECMG 6000 SCT010=",
"68816099999","2022-01-28T08:21:00","4","-33.964806","18.601667","46.02","CAPE TOWN INTERNATIONAL, SF","FM-16","99999","V020","180,1,N,0072,1","00488,1,9,N","008000,1,9,9","+0190,1","+0180,1","99999,9",,,,,"04,1,+00152,1,99,9","07,1,+00488,1,99,9","07,1,+00914,1,99,9","9,AGL   ,+99999,+99999","99,99,9,04,1,99,9,00152,1,99,9,99,9",,,"10160,1,99999,9",,,,,,"MET071SPECI FACT 280821Z 18014KT 8000 SCT005 BKN016 BKN030 19/18 Q1016 NOSIG=",
"68816099999","2022-01-28T08:56:00","4","-33.964806","18.601667","46.02","CAPE TOWN INTERNATIONAL, SF","FM-16","99999","V020","180,1,N,0103,1","00762,1,9,N","009999,1,9,9","+0210,1","+0160,1","99999,9",,,,,"04,1,+00396,1,99,9","07,1,+00762,1,99,9",,"9,AGL   ,+99999,+99999","99,99,9,04,1,99,9,00396,1,99,9,99,9",,,"10160,1,99999,9",,,,,,"MET064SPECI FACT 280856Z 18020KT 9999 SCT013 BKN025 21/16 Q1016 NOSIG=",
"68816099999","2022-01-28T09:00:00","4","-33.964806","18.601667","46.02","CAPE TOWN INTERNATIONAL, SF","FM-15","99999","V020","180,1,N,0103,1","00762,1,9,N","009999,1,9,9","+0210,1","+0160,1","99999,9",,,,,"04,1,+00396,1,99,9","07,1,+00762,1,99,9",,"9,AGL   ,+99999,+99999","99,99,9,04,1,99,9,00396,1,99,9,99,9",,,"10160,1,99999,9",,,,,,"MET064METAR FACT 280900Z 18020KT 9999 SCT013 BKN025 21/16 Q1016 NOSIG=",
"68816099999","2022-01-28T10:00:00","4","-33.964806","18.601667","46.02","CAPE TOWN INTERNATIONAL, SF","FM-15","99999","V020","180,1,N,0108,1","99999,9,9,N","009999,1,9,9","+0230,1","+0150,1","99999,9",,,,,"04,1,+00914,1,99,9",,,"9,AGL   ,+99999,+99999","99,99,9,04,1,99,9,00914,1,99,9,99,9",,,"10160,1,99999,9",,,,,,"MET057METAR FACT 281000Z 18021KT 9999 SCT030 23/15 Q1016 NOSIG=",
"68816099999","2022-01-28T11:00:00","4","-33.964806","18.601667","46.02","CAPE TOWN INTERNATIONAL, SF","FM-15","99999","V020","180,1,N,0093,1","99999,9,9,N","009999,1,9,9","+0240,1","+0140,1","99999,9",,,,,"02,1,+00914,1,99,9",,,"9,AGL   ,+99999,+99999","99,99,9,02,1,99,9,00914,1,99,9,99,9",,,"10160,1,99999,9",,,,,,"MET057METAR FACT 281100Z 18018KT 9999 FEW030 24/14 Q1016 NOSIG=",
"68816099999","2022-01-28T12:00:00","4","-33.964806","18.601667","46.02","CAPE TOWN INTERNATIONAL, SF","FM-12","99999","V020","180,1,N,0129,1","22000,1,9,N","030000,1,9,9","+0233,1","+0136,1","10157,1",,,,,"01,1,+00800,1,06,1","99,9,+99999,9,00,1",,"9,AGL   ,+99999,+99999","01,99,1,01,1,99,9,00800,1,99,9,99,9","240,M,+0246,1","240,N,+0192,1","99999,9,10103,1","7,1,002,1,+999,9",,,,"4,99,0154,1,999","SYN08668816 32580 11825 10233 20136 30103 40157 57002 81502 333 10246 20192 91030 555 91015=",
"68816099999","2022-01-28T12:00:00","4","-33.964806","18.601667","46.02","CAPE TOWN INTERNATIONAL, SF","FM-15","99999","V020","180,1,N,0124,1","99999,9,9,N","009999,1,9,9","+0240,1","+0140,1","99999,9",,,,,"02,1,+00914,1,99,9",,,"9,AGL   ,+99999,+99999","99,99,9,02,1,99,9,00914,1,99,9,99,9",,,"10150,1,99999,9",,,,,,"MET057METAR FACT 281200Z 18024KT 9999 FEW030 24/14 Q1015 NOSIG=",
"68816099999","2022-01-28T12:56:00","4","-33.964806","18.601667","46.02","CAPE TOWN INTERNATIONAL, SF","FM-16","99999","V020","180,1,N,0113,1","99999,9,9,Y","009900,5,9,9","+0240,1","+0130,1","99999,9",,,,,,,,,,,,"10150,1,99999,9",,,,"0165,1",,"MET054SPECI FACT 281256Z 18022G32KT CAVOK 24/13 Q1015 NOSIG=",
"68816099999","2022-01-28T13:00:00","4","-33.964806","18.601667","46.02","CAPE TOWN INTERNATIONAL, SF","FM-15","99999","V020","180,1,N,0113,1","99999,9,9,Y","009900,5,9,9","+0240,1","+0130,1","99999,9",,,,,,,,,,,,"10150,1,99999,9",,,,"0165,1",,"MET054METAR FACT 281300Z 18022G32KT CAVOK 24/13 Q1015 NOSIG=",
"68816099999","2022-01-28T14:00:00","4","-33.964806","18.601667","46.02","CAPE TOWN INTERNATIONAL, SF","FM-15","99999","V020","180,1,N,0129,1","99999,9,9,Y","009900,5,9,9","+0230,1","+0130,1","99999,9",,,,,,,,,,,,"10150,1,99999,9",,,,,,"MET051METAR FACT 281400Z 18025KT CAVOK 23/13 Q1015 NOSIG=",
"68816099999","2022-01-28T15:00:00","4","-33.964806","18.601667","46.02","CAPE TOWN INTERNATIONAL, SF","FM-15","99999","V020","180,1,N,0134,1","99999,9,9,Y","009900,5,9,9","+0230,1","+0130,1","99999,9",,,,,,,,,,,,"10150,1,99999,9",,,,,,"MET051METAR FACT 281500Z 18026KT CAVOK 23/13 Q1015 NOSIG=",
"68816099999","2022-01-28T15:55:00","4","-33.964806","18.601667","46.02","CAPE TOWN INTERNATIONAL, SF","FM-16","99999","V020","180,1,N,0129,1","99999,9,9,Y","009900,5,9,9","+0220,1","+0130,1","99999,9",,,,,,,,,,,,"10140,1,99999,9",,,,"0185,1",,"MET054SPECI FACT 281555Z 18025G36KT CAVOK 22/13 Q1014 NOSIG=",
"68816099999","2022-01-28T16:00:00","4","-33.964806","18.601667","46.02","CAPE TOWN INTERNATIONAL, SF","FM-15","99999","V020","180,1,N,0129,1","99999,9,9,Y","009900,5,9,9","+0220,1","+0130,1","99999,9",,,,,,,,,,,,"10140,1,99999,9",,,,"0185,1",,"MET054METAR FACT 281600Z 18025G36KT CAVOK 22/13 Q1014 NOSIG=",
"68816099999","2022-01-28T17:00:00","4","-33.964806","18.601667","46.02","CAPE TOWN INTERNATIONAL, SF","FM-15","99999","V020","170,1,N,0124,1","99999,9,9,Y","009900,5,9,9","+0210,1","+0140,1","99999,9",,,,,,,,,,,,"10140,1,99999,9",,,,,,"MET051METAR FACT 281700Z 17024KT CAVOK 21/14 Q1014 NOSIG=",
"68816099999","2022-01-28T18:00:00","4","-33.964806","18.601667","46.02","CAPE TOWN INTERNATIONAL, SF","FM-12","99999","V020","180,1,N,0108,1","22000,1,9,N","030000,1,9,9","+0195,1","+0142,1","10151,1",,,,,"01,1,+01250,1,06,1",,,"9,AGL   ,+99999,+99999","01,99,1,01,1,99,9,01250,1,99,9,99,9","120,M,+0245,1","120,N,+0192,1","99999,9,10097,1","2,1,002,1,+999,9",,,,"4,99,0129,1,999","SYN08668816 32680 11821 10195 20142 30097 40151 52002 81500 333 10245 20192 91025 555 91015=",
"68816099999","2022-01-28T18:00:00","4","-33.964806","18.601667","46.02","CAPE TOWN INTERNATIONAL, SF","FM-15","99999","V020","180,1,N,0118,1","99999,9,9,Y","009900,5,9,9","+0200,1","+0140,1","99999,9",,,,,,,,,,,,"10150,1,99999,9",,,,,,"MET051METAR FACT 281800Z 18023KT CAVOK 20/14 Q1015 NOSIG=",
"68816099999","2022-01-28T19:00:00","4","-33.964806","18.601667","46.02","CAPE TOWN INTERNATIONAL, SF","FM-15","99999","V020","180,1,N,0093,1","99999,9,9,N","009999,1,9,9","+0190,1","+0140,1","99999,9",,,,,"02,1,+01067,1,99,9",,,"9,AGL   ,+99999,+99999","99,99,9,02,1,99,9,01067,1,99,9,99,9",,,"10150,1,99999,9",,,,,,"MET057METAR FACT 281900Z 18018KT 9999 FEW035 19/14 Q1015 NOSIG=",
"68816099999","2022-01-28T20:00:00","4","-33.964806","18.601667","46.02","CAPE TOWN INTERNATIONAL, SF","FM-15","99999","V020","170,1,N,0108,1","99999,9,9,Y","009900,5,9,9","+0200,1","+0140,1","99999,9",,,,,,,,,,,,"10150,1,99999,9",,,,,,"MET051METAR FACT 282000Z 17021KT CAVOK 20/14 Q1015 NOSIG=",
"68816099999","2022-01-28T21:00:00","4","-33.964806","18.601667","46.02","CAPE TOWN INTERNATIONAL, SF","FM-15","99999","V020","170,1,N,0124,1","99999,9,9,Y","009900,5,9,9","+0190,1","+0130,1","99999,9",,,,,,,,,,,,"10150,1,99999,9",,,,,,"MET051METAR FACT 282100Z 17024KT CAVOK 19/13 Q1015 NOSIG=",
"68816099999","2022-01-28T22:00:00","4","-33.964806","18.601667","46.02","CAPE TOWN INTERNATIONAL, SF","FM-15","99999","V020","160,1,N,0118,1","99999,9,9,Y","009900,5,9,9","+0190,1","+0130,1","99999,9",,,,,,,,,,,,"10150,1,99999,9",,,,,,"MET051METAR FACT 282200Z 16023KT CAVOK 19/13 Q1015 NOSIG=",
"68816099999","2022-01-28T23:00:00","4","-33.964806","18.601667","46.02","CAPE TOWN INTERNATIONAL, SF","FM-15","99999","V020","150,1,N,0093,1","99999,9,9,Y","009900,5,9,9","+0190,1","+0130,1","99999,9",,,,,,,,,,,,"10140,1,99999,9",,,,,,"MET051METAR FACT 282300Z 15018KT CAVOK 19/13 Q1014 NOSIG=",
"68816099999","2022-01-29T00:00:00","4","-33.964806","18.601667","46.02","CAPE TOWN INTERNATIONAL, SF","FM-12","99999","V020","140,1,N,0072,1","99999,9,9,N","022000,1,9,9","+0189,1","+0130,1","10139,1",,,,,,,,,,,,"99999,9,10085,1","2,1,002,1,+999,9",,,,"4,99,0077,1,999","SYN06868816 32972 01414 10189 20130 30085 40139 52002 333 91015 555 91014=",
"68816099999","2022-01-29T00:00:00","4","-33.964806","18.601667","46.02","CAPE TOWN INTERNATIONAL, SF","FM-15","99999","V020","140,1,N,0077,1","99999,9,9,Y","009900,5,9,9","+0190,1","+0130,1","99999,9",,,,,,,,,,,,"10140,1,99999,9",,,,,,"MET051METAR FACT 290000Z 14015KT CAVOK 19/13 Q1014 NOSIG=",
"68816099999","2022-01-29T01:00:00","4","-33.964806","18.601667","46.02","CAPE TOWN INTERNATIONAL, SF","FM-15","99999","V020","170,1,N,0077,1","99999,9,9,Y","009900,5,9,9","+0190,1","+0130,1","99999,9",,,,,,,,,,,,"10130,1,99999,9",,,,,,"MET051METAR FACT 290100Z 17015KT CAVOK 19/13 Q1013 NOSIG=",
"68816099999","2022-01-29T02:00:00","4","-33.964806","18.601667","46.02","CAPE TOWN INTERNATIONAL, SF","FM-15","99999","V020","200,1,N,0057,1","99999,9,9,Y","009900,5,9,9","+0180,1","+0130,1","99999,9",,,,,,,,,,,,"10120,1,99999,9",,,,,,"MET051METAR FACT 290200Z 20011KT CAVOK 18/13 Q1012 NOSIG=",
"68816099999","2022-01-29T04:00:00","4","-33.964806","18.601667","46.02","CAPE TOWN INTERNATIONAL, SF","FM-15","99999","V020","190,1,N,0062,1","99999,9,9,Y","009900,5,9,9","+0170,1","+0120,1","99999,9",,,,,,,,,,,,"10130,1,99999,9",,,,,,"MET051METAR FACT 290400Z 19012KT CAVOK 17/12 Q1013 NOSIG=",
"68816099999","2022-01-29T05:00:00","4","-33.964806","18.601667","46.02","CAPE TOWN INTERNATIONAL, SF","FM-15","99999","V020","180,1,N,0088,1","99999,9,9,Y","009900,5,9,9","+0190,1","+0130,1","99999,9",,,,,,,,,,,,"10130,1,99999,9",,,,,,"MET051METAR FACT 290500Z 18017KT CAVOK 19/13 Q1013 NOSIG=",
"68816099999","2022-01-29T06:00:00","4","-33.964806","18.601667","46.02","CAPE TOWN INTERNATIONAL, SF","FM-12","99999","V020","210,1,N,0051,1","99999,9,9,N","030000,1,9,9","+0206,1","+0123,1","10142,1","24,0000,2,1",,,,,,,,,"240,N,+0163,1",,"99999,9,10088,1","2,1,006,1,+999,9",,,,"4,99,0082,1,999","SYN09268816 12980 02110 10206 20123 30088 40142 52006 69904 333 20163 91016 555 10245 20000 91014=",
"68816099999","2022-01-29T06:00:00","4","-33.964806","18.601667","46.02","CAPE TOWN INTERNATIONAL, SF","FM-15","99999","V020","210,1,N,0062,1","99999,9,9,Y","009900,5,9,9","+0210,1","+0120,1","99999,9",,,,,,,,,,,,"10140,1,99999,9",,,,,,"MET051METAR FACT 290600Z 21012KT CAVOK 21/12 Q1014 NOSIG=",
"68816099999","2022-01-29T07:00:00","4","-33.964806","18.601667","46.02","CAPE TOWN INTERNATIONAL, SF","FM-15","99999","V020","220,1,V,0051,1","99999,9,9,Y","009900,5,9,9","+0220,1","+0130,1","99999,9",,,,,,,,,,,,"10140,1,99999,9",,,,,,"MET059METAR FACT 290700Z 22010KT 180V250 CAVOK 22/13 Q1014 NOSIG=",
"68816099999","2022-01-29T07:52:00","4","-33.964806","18.601667","46.02","CAPE TOWN INTERNATIONAL, SF","FM-16","99999","V020","220,1,N,0062,1","99999,9,9,Y","009900,5,9,9","+0240,1","+0130,1","99999,9",,,,,,,,,,,,"10140,1,99999,9",,,,,,"MET051SPECI FACT 290752Z 22012KT CAVOK 24/13 Q1014 NOSIG=",
"68816099999","2022-01-29T08:00:00","4","-33.964806","18.601667","46.02","CAPE TOWN INTERNATIONAL, SF","FM-15","99999","V020","220,1,N,0062,1","99999,9,9,Y","009900,5,9,9","+0240,1","+0130,1","99999,9",,,,,,,,,,,,"10140,1,99999,9",,,,,,"MET051METAR FACT 290800Z 22012KT CAVOK 24/13 Q1014 NOSIG=",
"68816099999","2022-01-29T09:00:00","4","-33.964806","18.601667","46.02","CAPE TOWN INTERNATIONAL, SF","FM-12","99999","V020","200,1,N,0041,1","99999,9,9,N","030000,1,9,9","+0260,1","+0118,1","10142,1",,,,,,,,,,,,"99999,9,10089,1","2,1,006,1,+999,9",,,,"4,99,0082,1,999","SYN05868816 42980 02008 10260 20118 30089 40142 52006 333 91016=",
"68816099999","2022-01-29T09:00:00","4","-33.964806","18.601667","46.02","CAPE TOWN INTERNATIONAL, SF","FM-15","99999","V020","210,1,N,0057,1","99999,9,9,Y","009900,5,9,9","+0260,1","+0120,1","99999,9",,,,,,,,,,,,"10140,1,99999,9",,,,,,"MET051METAR FACT 290900Z 21011KT CAVOK 26/12 Q1014 NOSIG=",
"68816099999","2022-01-29T10:00:00","4","-33.964806","18.601667","46.02","CAPE TOWN INTERNATIONAL, SF","FM-15","99999","V020","200,1,N,0046,1","99999,9,9,Y","009900,5,9,9","+0280,1","+0120,1","99999,9",,,,,,,,,,,,"10130,1,99999,9",,,,,,"MET051METAR FACT 291000Z 20009KT CAVOK 28/12 Q1013 NOSIG=",
"68816099999","2022-01-29T11:00:00","4","-33.964806","18.601667","46.02","CAPE TOWN INTERNATIONAL, SF","FM-15","99999","V020","210,1,N,0072,1","99999,9,9,Y","009900,5,9,9","+0270,1","+0120,1","99999,9",,,,,,,,,,,,"10130,1,99999,9",,,,,,"MET051METAR FACT 291100Z 21014KT CAVOK 27/12 Q1013 NOSIG=",
"68816099999","2022-01-29T12:00:00","4","-33.964806","18.601667","46.02","CAPE TOWN INTERNATIONAL, SF","FM-12","99999","V020","210,1,N,0082,1","99999,9,9,N","030000,1,9,9","+0258,1","+0152,1","10132,1",,,,,,,,,,"240,M,+0289,1","240,N,+0200,1","99999,9,10079,1","2,1,006,1,+999,9",,,,"4,99,0088,1,999","SYN08068816 32980 02116 10258 20152 30079 40132 52006 333 10289 20200 91017 555 91013=",
"68816099999","2022-01-29T12:00:00","4","-33.964806","18.601667","46.02","CAPE TOWN INTERNATIONAL, SF","FM-15","99999","V020","210,1,N,0082,1","99999,9,9,Y","009900,5,9,9","+0260,1","+0150,1","99999,9",,,,,,,,,,,,"10130,1,99999,9",,,,,,"MET051METAR FACT 291200Z 21016KT CAVOK 26/15 Q1013 NOSIG=",
"68816099999","2022-01-29T13:00:00","4","-33.964806","18.601667","46.02","CAPE TOWN INTERNATIONAL, SF","FM-15","99999","V020","210,1,N,0082,1","99999,9,9,Y","009900,5,9,9","+0250,1","+0150,1","99999,9",,,,,,,,,,,,"10130,1,99999,9",,,,,,"MET051METAR FACT 291300Z 21016KT CAVOK 25/15 Q1013 NOSIG=",
"68816099999","2022-01-29T14:00:00","4","-33.964806","18.601667","46.02","CAPE TOWN INTERNATIONAL, SF","FM-15","99999","V020","200,1,N,0103,1","99999,9,9,Y","009900,5,9,9","+0240,1","+0150,1","99999,9",,,,,,,,,,,,"10120,1,99999,9",,,,,,"MET051METAR FACT 291400Z 20020KT CAVOK 24/15 Q1012 NOSIG=",
"68816099999","2022-01-29T15:00:00","4","-33.964806","18.601667","46.02","CAPE TOWN INTERNATIONAL, SF","FM-15","99999","V020","200,1,N,0113,1","99999,9,9,Y","009900,5,9,9","+0230,1","+0150,1","99999,9",,,,,,,,,,,,"10120,1,99999,9",,,,,,"MET051METAR FACT 291500Z 20022KT CAVOK 23/15 Q1012 NOSIG=",
"68816099999","2022-01-29T15:29:00","4","-33.964806","18.601667","46.02","CAPE TOWN INTERNATIONAL, SF","FM-16","99999","V020","190,1,N,0103,1","99999,9,9,Y","009900,5,9,9","+0230,1","+0160,1","99999,9",,,,,,,,,,,,"10120,1,99999,9",,,,"0154,1",,"MET054SPECI FACT 291529Z 19020G30KT CAVOK 23/16 Q1012 NOSIG=",
"68816099999","2022-01-29T16:00:00","4","-33.964806","18.601667","46.02","CAPE TOWN INTERNATIONAL, SF","FM-15","99999","V020","190,1,N,0118,1","99999,9,9,Y","009900,5,9,9","+0220,1","+0150,1","99999,9",,,,,,,,,,,,"10120,1,99999,9",,,,,,"MET051METAR FACT 291600Z 19023KT CAVOK 22/15 Q1012 NOSIG=",
"68816099999","2022-01-29T17:00:00","4","-33.964806","18.601667","46.02","CAPE TOWN INTERNATIONAL, SF","FM-15","99999","V020","200,1,N,0093,1","99999,9,9,N","009999,1,9,9","+0220,1","+0150,1","99999,9",,,,,"02,1,+01067,1,99,9",,,"9,AGL   ,+99999,+99999","99,99,9,02,1,99,9,01067,1,99,9,99,9",,,"10120,1,99999,9",,,,,,"MET057METAR FACT 291700Z 20018KT 9999 FEW035 22/15 Q1012 NOSIG=",
"68816099999","2022-01-29T18:00:00","4","-33.964806","18.601667","46.02","CAPE TOWN INTERNATIONAL, SF","FM-12","99999","V020","210,1,N,0093,1","22000,1,9,N","030000,1,9,9","+0204,1","+0155,1","10124,1",,,,,"01,1,+01250,1,06,1",,,"9,AGL   ,+99999,+99999","01,99,1,01,1,99,9,01250,1,99,9,99,9","120,M,+0289,1","120,N,+0204,1","99999,9,10070,1","2,1,006,1,+999,9",,,,"4,99,0108,1,999","SYN08668816 32680 12118 10204 20155 30070 40124 52006 81500 333 10289 20204 91021 555 91012=",
"68816099999","2022-01-29T18:00:00","4","-33.964806","18.601667","46.02","CAPE TOWN INTERNATIONAL, SF","FM-15","99999","V020","210,1,N,0093,1","99999,9,9,N","009999,1,9,9","+0200,1","+0150,1","99999,9",,,,,"02,1,+01067,1,99,9",,,"9,AGL   ,+99999,+99999","99,99,9,02,1,99,9,01067,1,99,9,99,9",,,"10120,1,99999,9",,,,,,"MET057METAR FACT 291800Z 21018KT 9999 FEW035 20/15 Q1012 NOSIG=",
"68816099999","2022-01-29T19:58:00","4","-33.964806","18.601667","46.02","CAPE TOWN INTERNATIONAL, SF","FM-16","99999","V020","200,1,V,0057,1","99999,9,9,N","009999,1,9,9","+0220,1","+0150,1","99999,9",,,,,"02,1,+00914,1,99,9",,,"9,AGL   ,+99999,+99999","99,99,9,02,1,99,9,00914,1,99,9,99,9",,,"10120,1,99999,9",,,,,,"MET065SPECI FACT 291958Z 20011KT 160V230 9999 FEW030 22/15 Q1012 NOSIG=",
"68816099999","2022-01-29T20:00:00","4","-33.964806","18.601667","46.02","CAPE TOWN INTERNATIONAL, SF","FM-15","99999","V020","200,1,V,0057,1","99999,9,9,N","009999,1,9,9","+0220,1","+0150,1","99999,9",,,,,"02,1,+00914,1,99,9",,,"9,AGL   ,+99999,+99999","99,99,9,02,1,99,9,00914,1,99,9,99,9",,,"10120,1,99999,9",,,,,,"MET065METAR FACT 292000Z 20011KT 160V230 9999 FEW030 22/15 Q1012 NOSIG=",
"68816099999","2022-01-29T21:00:00","4","-33.964806","18.601667","46.02","CAPE TOWN INTERNATIONAL, SF","FM-15","99999","V020","180,1,N,0077,1","99999,9,9,Y","009900,5,9,9","+0220,1","+0140,1","99999,9",,,,,,,,,,,,"10120,1,99999,9",,,,,,"MET051METAR FACT 292100Z 18015KT CAVOK 22/14 Q1012 NOSIG=",
"68816099999","2022-01-29T21:56:00","4","-33.964806","18.601667","46.02","CAPE TOWN INTERNATIONAL, SF","FM-16","99999","V020","170,1,N,0103,1","99999,9,9,Y","009900,5,9,9","+0220,1","+0130,1","99999,9",,,,,,,,,,,,"10120,1,99999,9",,,,"0160,1",,"MET054SPECI FACT 292156Z 17020G31KT CAVOK 22/13 Q1012 NOSIG=",
"68816099999","2022-01-29T22:00:00","4","-33.964806","18.601667","46.02","CAPE TOWN INTERNATIONAL, SF","FM-15","99999","V020","170,1,N,0103,1","99999,9,9,Y","009900,5,9,9","+0220,1","+0130,1","99999,9",,,,,,,,,,,,"10120,1,99999,9",,,,"0160,1",,"MET054METAR FACT 292200Z 17020G31KT CAVOK 22/13 Q1012 NOSIG=",
"68816099999","2022-01-29T23:00:00","4","-33.964806","18.601667","46.02","CAPE TOWN INTERNATIONAL, SF","FM-15","99999","V020","190,1,N,0067,1","99999,9,9,Y","009900,5,9,9","+0200,1","+0130,1","99999,9",,,,,,,,,,,,"10110,1,99999,9",,,,,,"MET051METAR FACT 292300Z 19013KT CAVOK 20/13 Q1011 NOSIG=",
"68816099999","2022-01-30T00:00:00","4","-33.964806","18.601667","46.02","CAPE TOWN INTERNATIONAL, SF","FM-12","99999","V020","180,1,N,0108,1","99999,9,9,N","030000,1,9,9","+0213,1","+0130,1","10107,1",,,,,,,,,,"120,M,+0289,1","120,N,+0204,1","99999,9,10053,1","7,1,005,1,+999,9",,,,"4,99,0144,1,999","SYN08068816 32980 01821 10213 20130 30053 40107 57005 333 10289 20204 91028 555 91010=",
"68816099999","2022-01-30T00:00:00","4","-33.964806","18.601667","46.02","CAPE TOWN INTERNATIONAL, SF","FM-15","99999","V020","170,1,N,0108,1","99999,9,9,Y","009900,5,9,9","+0210,1","+0130,1","99999,9",,,,,,,,,,,,"10100,1,99999,9",,,,,,"MET051METAR FACT 300000Z 17021KT CAVOK 21/13 Q1010 NOSIG=",
"68816099999","2022-01-30T01:00:00","4","-33.964806","18.601667","46.02","CAPE TOWN INTERNATIONAL, SF","FM-15","99999","V020","190,1,N,0098,1","99999,9,9,Y","009900,5,9,9","+0210,1","+0130,1","99999,9",,,,,,,,,,,,"10090,1,99999,9",,,,,,"MET051METAR FACT 300100Z 19019KT CAVOK 21/13 Q1009 NOSIG=",
"68816099999","2022-01-30T02:00:00","4","-33.964806","18.601667","46.02","CAPE TOWN INTERNATIONAL, SF","FM-15","99999","V020","200,1,N,0103,1","99999,9,9,Y","009900,5,9,9","+0210,1","+0130,1","99999,9",,,,,,,,,,,,"10090,1,99999,9",,,,,,"MET051METAR FACT 300200Z 20020KT CAVOK 21/13 Q1009 NOSIG=",
"68816099999","2022-01-30T03:00:00","4","-33.964806","18.601667","46.02","CAPE TOWN INTERNATIONAL, SF","FM-15","99999","V020","230,1,N,0072,1","99999,9,9,Y","009900,5,9,9","+0180,1","+0130,1","99999,9",,,,,,,,,,,,"10090,1,99999,9",,,,,,"MET051METAR FACT 300300Z 23014KT CAVOK 18/13 Q1009 NOSIG=",
"68816099999","2022-01-30T04:00:00","4","-33.964806","18.601667","46.02","CAPE TOWN INTERNATIONAL, SF","FM-15","99999","V020","240,1,N,0062,1","99999,9,9,Y","009900,5,9,9","+0170,1","+0140,1","99999,9",,,,,,,,,,,,"10090,1,99999,9",,,,,,"MET051METAR FACT 300400Z 24012KT CAVOK 17/14 Q1009 NOSIG=",
"68816099999","2022-01-30T05:00:00","4","-33.964806","18.601667","46.02","CAPE TOWN INTERNATIONAL, SF","FM-15","99999","V020","230,1,N,0062,1","99999,9,9,Y","009900,5,9,9","+0180,1","+0130,1","99999,9",,,,,,,,,,,,"10090,1,99999,9",,,,,,"MET051METAR FACT 300500Z 23012KT CAVOK 18/13 Q1009 NOSIG=",
"68816099999","2022-01-30T06:00:00","4","-33.964806","18.601667","46.02","CAPE TOWN INTERNATIONAL, SF","FM-12","99999","V020","240,1,N,0057,1","99999,9,9,N","030000,1,9,9","+0199,1","+0137,1","10099,1",,,,,,,,,,"240,N,+0169,1",,"99999,9,10045,1","2,1,007,1,+999,9",,,,"4,99,0072,1,999","SYN08068816 32980 02411 10199 20137 30045 40099 52007 333 20169 91014 555 10289 91009=",
"68816099999","2022-01-30T06:00:00","4","-33.964806","18.601667","46.02","CAPE TOWN INTERNATIONAL, SF","FM-15","99999","V020","240,1,N,0057,1","99999,9,9,Y","009900,5,9,9","+0200,1","+0140,1","99999,9",,,,,,,,,,,,"10090,1,99999,9",,,,,,"MET051METAR FACT 300600Z 24011KT CAVOK 20/14 Q1009 NOSIG=",
"68816099999","2022-01-30T07:00:00","4","-33.964806","18.601667","46.02","CAPE TOWN INTERNATIONAL, SF","FM-15","99999","V020","240,1,N,0067,1","99999,9,9,Y","009900,5,9,9","+0210,1","+0140,1","99999,9",,,,,,,,,,,,"10090,1,99999,9",,,,,,"MET051METAR FACT 300700Z 24013KT CAVOK 21/14 Q1009 NOSIG=",
"68816099999","2022-01-30T07:27:00","4","-33.964806","18.601667","46.02","CAPE TOWN INTERNATIONAL, SF","FM-16","99999","V020","230,1,V,0062,1","99999,9,9,Y","009900,5,9,9","+0230,1","+0140,1","99999,9",,,,,,,,,,,,"10100,1,99999,9",,,,,,"MET059SPECI FACT 300727Z 23012KT 200V260 CAVOK 23/14 Q1010 NOSIG=",
"68816099999","2022-01-30T08:00:00","4","-33.964806","18.601667","46.02","CAPE TOWN INTERNATIONAL, SF","FM-15","99999","V020","220,1,N,0067,1","99999,9,9,Y","009900,5,9,9","+0250,1","+0140,1","99999,9",,,,,,,,,,,,"10100,1,99999,9",,,,,,"MET051METAR FACT 300800Z 22013KT CAVOK 25/14 Q1010 NOSIG=",
"68816099999","2022-01-30T08:00:00","4","-33.964806","18.601667","46.02","CAPE TOWN INTERNATIONAL, SF","FM-16","99999","V020","220,1,N,0067,1","99999,9,9,Y","009900,5,9,9","+0250,1","+0140,1","99999,9",,,,,,,,,,,,"10100,1,99999,9",,,,,,"MET051SPECI FACT 300800Z 22013KT CAVOK 25/14 Q1010 NOSIG=",
"68816099999","2022-01-30T08:24:00","4","-33.964806","18.601667","46.02","CAPE TOWN INTERNATIONAL, SF","FM-16","99999","V020","200,1,N,0077,1","99999,9,9,Y","009900,5,9,9","+0270,1","+0130,1","99999,9",,,,,,,,,,,,"10100,1,99999,9",,,,,,"MET051SPECI FACT 300824Z 20015KT CAVOK 27/13 Q1010 NOSIG=",
"68816099999","2022-01-30T08:54:00","4","-33.964806","18.601667","46.02","CAPE TOWN INTERNATIONAL, SF","FM-16","99999","V020","190,1,V,0088,1","99999,9,9,Y","009900,5,9,9","+0290,1","+0140,1","99999,9",,,,,,,,,,,,"10100,1,99999,9",,,,,,"MET059SPECI FACT 300854Z 19017KT 160V220 CAVOK 29/14 Q1010 NOSIG=",
"68816099999","2022-01-30T09:00:00","4","-33.964806","18.601667","46.02","CAPE TOWN INTERNATIONAL, SF","FM-15","99999","V020","190,1,V,0088,1","99999,9,9,Y","009900,5,9,9","+0290,1","+0140,1","99999,9",,,,,,,,,,,,"10100,1,99999,9",,,,,,"MET059METAR FACT 300900Z 19017KT 160V220 CAVOK 29/14 Q1010 NOSIG=",
"68816099999","2022-01-30T10:00:00","4","-33.964806","18.601667","46.02","CAPE TOWN INTERNATIONAL, SF","FM-15","99999","V020","230,1,N,0067,1","99999,9,9,Y","009900,5,9,9","+0280,1","+0140,1","99999,9",,,,,,,,,,,,"10100,1,99999,9",,,,,,"MET051METAR FACT 301000Z 23013KT CAVOK 28/14 Q1010 NOSIG=",
"68816099999","2022-01-30T11:00:00","4","-33.964806","18.601667","46.02","CAPE TOWN INTERNATIONAL, SF","FM-15","99999","V020","230,1,N,0072,1","99999,9,9,Y","009900,5,9,9","+0270,1","+0150,1","99999,9",,,,,,,,,,,,"10090,1,99999,9",,,,,,"MET051METAR FACT 301100Z 23014KT CAVOK 27/15 Q1009 NOSIG=",
"68816099999","2022-01-30T12:00:00","4","-33.964806","18.601667","46.02","CAPE TOWN INTERNATIONAL, SF","FM-12","99999","V020","220,1,N,0072,1","99999,9,9,N","030000,1,9,9","+0266,1","+0159,1","10092,1",,,,,,,,,,"240,M,+0302,1","240,N,+0198,1","99999,9,10039,1","2,1,007,1,+999,9",,,,"4,99,0077,1,999","SYN08068816 32980 02214 10266 20159 30039 40092 52007 333 10302 20198 91015 555 91009=",
"68816099999","2022-01-30T12:00:00","4","-33.964806","18.601667","46.02","CAPE TOWN INTERNATIONAL, SF","FM-15","99999","V020","220,1,N,0072,1","99999,9,9,Y","009900,5,9,9","+0260,1","+0160,1","99999,9",,,,,,,,,,,,"10090,1,99999,9",,,,,,"MET051METAR FACT 301200Z 22014KT CAVOK 26/16 Q1009 NOSIG=",
"68816099999","2022-01-30T13:00:00","4","-33.964806","18.601667","46.02","CAPE TOWN INTERNATIONAL, SF","FM-15","99999","V020","220,1,N,0072,1","99999,9,9,Y","009900,5,9,9","+0260,1","+0160,1","99999,9",,,,,,,,,,,,"10090,1,99999,9",,,,,,"MET051METAR FACT 301300Z 22014KT CAVOK 26/16 Q1009 NOSIG=",
"68816099999","2022-01-30T14:00:00","4","-33.964806","18.601667","46.02","CAPE TOWN INTERNATIONAL, SF","FM-15","99999","V020","210,1,N,0082,1","99999,9,9,Y","009900,5,9,9","+0240,1","+0160,1","99999,9",,,,,,,,,,,,"10080,1,99999,9",,,,,,"MET051METAR FACT 301400Z 21016KT CAVOK 24/16 Q1008 NOSIG=",
"68816099999","2022-01-30T15:00:00","4","-33.964806","18.601667","46.02","CAPE TOWN INTERNATIONAL, SF","FM-15","99999","V020","220,1,N,0082,1","99999,9,9,Y","009900,5,9,9","+0240,1","+0170,1","99999,9",,,,,,,,,,,,"10070,1,99999,9",,,,,,"MET051METAR FACT 301500Z 22016KT CAVOK 24/17 Q1007 NOSIG=",
"68816099999","2022-01-30T16:00:00","4","-33.964806","18.601667","46.02","CAPE TOWN INTERNATIONAL, SF","FM-15","99999","V020","220,1,N,0088,1","99999,9,9,Y","009900,5,9,9","+0230,1","+0170,1","99999,9",,,,,,,,,,,,"10070,1,99999,9",,,,,,"MET051METAR FACT 301600Z 22017KT CAVOK 23/17 Q1007 NOSIG=",
"68816099999","2022-01-30T17:00:00","4","-33.964806","18.601667","46.02","CAPE TOWN INTERNATIONAL, SF","FM-15","99999","V020","230,1,N,0103,1","99999,9,9,Y","009900,5,9,9","+0210,1","+0160,1","99999,9",,,,,,,,,,,,"10070,1,99999,9",,,,,,"MET051METAR FACT 301700Z 23020KT CAVOK 21/16 Q1007 NOSIG=",
"68816099999","2022-01-30T18:00:00","4","-33.964806","18.601667","46.02","CAPE TOWN INTERNATIONAL, SF","FM-12","99999","V020","230,1,N,0088,1","22000,1,9,N","030000,1,9,9","+0193,1","+0159,1","10079,1",,,,,"99,9,+02250,1,00,1",,,"9,AGL   ,+99999,+99999","03,99,1,00,1,99,9,02250,1,99,9,99,9",,,"99999,9,10025,1","2,1,007,1,+999,9",,,,"4,99,0124,1,999","SYN08068816 32880 32317 10193 20159 30025 40079 52007 80004 333 91024 555 10302 91007=","Q01    003SCCGA1"
"68816099999","2022-01-30T18:00:00","4","-33.964806","18.601667","46.02","CAPE TOWN INTERNATIONAL, SF","FM-15","99999","V020","220,1,N,0088,1","99999,9,9,Y","009900,5,9,9","+0190,1","+0160,1","99999,9",,,,,,,,,,,,"10080,1,99999,9",,,,,,"MET051METAR FACT 301800Z 22017KT CAVOK 19/16 Q1008 NOSIG=",
"68816099999","2022-01-30T19:00:00","4","-33.964806","18.601667","46.02","CAPE TOWN INTERNATIONAL, SF","FM-15","99999","V020","230,1,N,0077,1","99999,9,9,Y","009900,5,9,9","+0180,1","+0150,1","99999,9",,,,,,,,,,,,"10080,1,99999,9",,,,,,"MET051METAR FACT 301900Z 23015KT CAVOK 18/15 Q1008 NOSIG=",
"68816099999","2022-01-30T20:00:00","4","-33.964806","18.601667","46.02","CAPE TOWN INTERNATIONAL, SF","FM-15","99999","V020","230,1,N,0077,1","99999,9,9,Y","009900,5,9,9","+0180,1","+0150,1","99999,9",,,,,,,,,,,,"10090,1,99999,9",,,,,,"MET051METAR FACT 302000Z 23015KT CAVOK 18/15 Q1009 NOSIG=",
"68816099999","2022-01-30T21:00:00","4","-33.964806","18.601667","46.02","CAPE TOWN INTERNATIONAL, SF","FM-12","99999","V020","230,1,N,0067,1","99999,9,9,N","020000,1,9,9","+0191,1","+0162,1","10091,1",,,,,,,,,,"240,M,+0302,1","240,N,+0176,1","99999,9,10037,1","2,1,011,1,+999,9",,,,"4,99,0077,1,999","SYN07068816 42970 02313 10191 20162 30037 40091 52011 333 10302 20176 91015=",
"68816099999","2022-01-30T21:00:00","4","-33.964806","18.601667","46.02","CAPE TOWN INTERNATIONAL, SF","FM-15","99999","V020","230,1,N,0077,1","99999,9,9,Y","009900,5,9,9","+0190,1","+0160,1","99999,9",,,,,,,,,,,,"10090,1,99999,9",,,,,,"MET051METAR FACT 302100Z 23015KT CAVOK 19/16 Q1009 NOSIG=",
"68816099999","2022-01-30T21:54:00","4","-33.964806","18.601667","46.02","CAPE TOWN INTERNATIONAL, SF","FM-16","99999","V020","170,1,N,0098,1","99999,9,9,Y","009900,5,9,9","+0230,1","+0180,1","99999,9",,,,,,,,,,,,"10090,1,99999,9",,,,,,"MET051SPECI FACT 302154Z 17019KT CAVOK 23/18 Q1009 NOSIG=",
"68816099999","2022-01-30T22:00:00","4","-33.964806","18.601667","46.02","CAPE TOWN INTERNATIONAL, SF","FM-15","99999","V020","170,1,N,0098,1","99999,9,9,Y","009900,5,9,9","+0230,1","+0180,1","99999,9",,,,,,,,,,,,"10090,1,99999,9",,,,,,"MET051METAR FACT 302200Z 17019KT CAVOK 23/18 Q1009 NOSIG=",
"68816099999","2022-01-30T23:00:00","4","-33.964806","18.601667","46.02","CAPE TOWN INTERNATIONAL, SF","FM-15","99999","V020","180,1,N,0077,1","99999,9,9,Y","009900,5,9,9","+0210,1","+0170,1","99999,9",,,,,,,,,,,,"10080,1,99999,9",,,,,,"MET051METAR FACT 302300Z 18015KT CAVOK 21/17 Q1008 NOSIG=",
"68816099999","2022-01-30T23:54:00","4","-33.964806","18.601667","46.02","CAPE TOWN INTERNATIONAL, SF","FM-16","99999","V020","190,1,V,0082,1","99999,9,9,Y","009900,5,9,9","+0220,1","+0170,1","99999,9",,,,,,,,,,,,"10080,1,99999,9",,,,"0134,1",,"MET062SPECI FACT 302354Z 19016G26KT 160V230 CAVOK 22/17 Q1008 NOSIG=",
"68816099999","2022-01-31T00:00:00","4","-33.964806","18.601667","46.02","CAPE TOWN INTERNATIONAL, SF","FM-12","99999","V020","210,1,N,0072,1","99999,9,9,N","020000,1,9,9","+0202,1","+0159,1","10085,1",,,,,,,,,,"120,M,+0302,1","120,N,+0176,1","99999,9,10031,1","7,1,008,1,+999,9",,,,"4,99,0082,1,999","SYN08068816 42970 02114 10202 20159 30031 40085 57008 333 10302 20176 91016 555 91008=",
"68816099999","2022-01-31T00:00:00","4","-33.964806","18.601667","46.02","CAPE TOWN INTERNATIONAL, SF","FM-15","99999","V020","190,1,V,0082,1","99999,9,9,Y","009900,5,9,9","+0220,1","+0170,1","99999,9",,,,,,,,,,,,"10080,1,99999,9",,,,"0134,1",,"MET062METAR FACT 310000Z 19016G26KT 160V230 CAVOK 22/17 Q1008 NOSIG=",
"68816099999","2022-01-31T01:00:00","4","-33.964806","18.601667","46.02","CAPE TOWN INTERNATIONAL, SF","FM-15","99999","V020","210,1,V,0082,1","99999,9,9,Y","009900,5,9,9","+0210,1","+0160,1","99999,9",,,,,,,,,,,,"10080,1,99999,9",,,,"0134,1",,"MET062METAR FACT 310100Z 21016G26KT 180V240 CAVOK 21/16 Q1008 NOSIG=",
"68816099999","2022-01-31T02:00:00","4","-33.964806","18.601667","46.02","CAPE TOWN INTERNATIONAL, SF","FM-15","99999","V020","220,1,N,0062,1","99999,9,9,Y","009900,5,9,9","+0180,1","+0160,1","99999,9",,,,,,,,,,,,"10070,1,99999,9",,,,,,"MET051METAR FACT 310200Z 22012KT CAVOK 18/16 Q1007 NOSIG=",
"68816099999","2022-01-31T02:24:00","4","-33.964806","18.601667","46.02","CAPE TOWN INTERNATIONAL, SF","FM-16","99999","V020","190,1,V,0062,1","99999,9,9,Y","009900,5,9,9","+0200,1","+0160,1","99999,9",,,,,,,,,,,,"10070,1,99999,9",,,,,,"MET059SPECI FACT 310224Z 19012KT 150V220 CAVOK 20/16 Q1007 NOSIG=",
"68816099999","2022-01-31T03:00:00","4","-33.964806","18.601667","46.02","CAPE TOWN INTERNATIONAL, SF","FM-12","99999","V020","210,1,N,0067,1","99999,9,9,N","030000,1,9,9","+0188,1","+0157,1","10078,1",,,,,,,,,,,,"99999,9,10024,1","7,1,005,1,+999,9",,,,"4,99,0082,1,999","SYN05868816 42980 02113 10188 20157 30024 40078 57005 333 91016=",
"68816099999","2022-01-31T03:00:00","4","-33.964806","18.601667","46.02","CAPE TOWN INTERNATIONAL, SF","FM-15","99999","V020","210,1,N,0067,1","99999,9,9,Y","009900,5,9,9","+0190,1","+0160,1","99999,9",,,,,,,,,,,,"10070,1,99999,9",,,,,,"MET051METAR FACT 310300Z 21013KT CAVOK 19/16 Q1007 NOSIG=",
"68816099999","2022-01-31T03:53:00","4","-33.964806","18.601667","46.02","CAPE TOWN INTERNATIONAL, SF","FM-16","99999","V020","190,1,N,0036,1","99999,9,9,Y","009900,5,9,9","+0210,1","+0160,1","99999,9",,,,,,,,,,,,"10080,1,99999,9",,,,,,"MET051SPECI FACT 310353Z 19007KT CAVOK 21/16 Q1008 NOSIG=",
"68816099999","2022-01-31T04:00:00","4","-33.964806","18.601667","46.02","CAPE TOWN INTERNATIONAL, SF","FM-15","99999","V020","190,1,N,0036,1","99999,9,9,Y","009900,5,9,9","+0210,1","+0160,1","99999,9",,,,,,,,,,,,"10080,1,99999,9",,,,,,"MET051METAR FACT 310400Z 19007KT CAVOK 21/16 Q1008 NOSIG=",
"68816099999","2022-01-31T05:00:00","4","-33.964806","18.601667","46.02","CAPE TOWN INTERNATIONAL, SF","FM-15","99999","V020","999,9,V,0010,1","99999,9,9,Y","009900,5,9,9","+0190,1","+0160,1","99999,9",,,,,,,,,,,,"10090,1,99999,9",,,,,,"MET051METAR FACT 310500Z VRB02KT CAVOK 19/16 Q1009 NOSIG=",
"68816099999","2022-01-31T06:00:00","4","-33.964806","18.601667","46.02","CAPE TOWN INTERNATIONAL, SF","FM-12","99999","V020","220,1,N,0015,1","22000,1,9,N","030000,1,9,9","+0221,1","+0163,1","10097,1",,,,,"99,9,+99999,9,00,1",,,"9,AGL   ,+99999,+99999","03,99,1,00,1,99,9,99999,9,99,9,99,9","240,N,+0176,1",,"99999,9,10043,1","1,1,018,1,+999,9",,,,"4,99,0041,1,999","SYN08668816 32980 32203 10221 20163 30043 40097 51018 80002 333 20176 91008 555 10302 91009=","Q01    003SCCGA1"
"68816099999","2022-01-31T06:00:00","4","-33.964806","18.601667","46.02","CAPE TOWN INTERNATIONAL, SF","FM-15","99999","V020","180,1,V,0021,1","99999,9,9,Y","009900,5,9,9","+0220,1","+0160,1","99999,9",,,,,,,,,,,,"10090,1,99999,9",,,,,,"MET059METAR FACT 310600Z 18004KT 160V240 CAVOK 22/16 Q1009 NOSIG=",
"68816099999","2022-01-31T06:01:00","4","-33.964806","18.601667","46.02","CAPE TOWN INTERNATIONAL, SF","FM-16","99999","V020","180,1,V,0021,1","99999,9,9,Y","009900,5,9,9","+0220,1","+0160,1","99999,9",,,,,,,,,,,,"10090,1,99999,9",,,,,,"MET059SPECI FACT 310601Z 18004KT 160V240 CAVOK 22/16 Q1009 NOSIG=",
"68816099999","2022-01-31T06:52:00","4","-33.964806","18.601667","46.02","CAPE TOWN INTERNATIONAL, SF","FM-16","99999","V020","190,1,V,0041,1","99999,9,9,Y","009900,5,9,9","+0250,1","+0170,1","99999,9",,,,,,,,,,,,"10090,1,99999,9",,,,,,"MET059SPECI FACT 310652Z 19008KT 170V230 CAVOK 25/17 Q1009 NOSIG=",
"68816099999","2022-01-31T07:00:00","4","-33.964806","18.601667","46.02","CAPE TOWN INTERNATIONAL, SF","FM-15","99999","V020","200,1,V,0036,1","99999,9,9,Y","009900,5,9,9","+0260,1","+0170,1","99999,9",,,,,,,,,,,,"10090,1,99999,9",,,,,,"MET059METAR FACT 310700Z 20007KT 150V240 CAVOK 26/17 Q1009 NOSIG=",
"68816099999","2022-01-31T08:00:00","4","-33.964806","18.601667","46.02","CAPE TOWN INTERNATIONAL, SF","FM-15","99999","V020","190,1,V,0036,1","99999,9,9,Y","009900,5,9,9","+0270,1","+0170,1","99999,9",,,,,,,,,,,,"10090,1,99999,9",,,,,,"MET059METAR FACT 310800Z 19007KT 160V230 CAVOK 27/17 Q1009 NOSIG=",
"68816099999","2022-01-31T09:00:00","4","-33.964806","18.601667","46.02","CAPE TOWN INTERNATIONAL, SF","FM-12","99999","V020","220,1,N,0046,1","22000,1,9,N","040000,1,9,9","+0282,1","+0169,1","10095,1",,,,,"99,9,+99999,9,00,1",,,"9,AGL   ,+99999,+99999","03,99,1,00,1,99,9,99999,9,99,9,99,9",,,"99999,9,10040,1","7,1,004,1,+999,9",,,,"4,99,0067,1,999","SYN06468816 42982 32209 10282 20169 30040 40095 57004 80002 333 91013=","Q01    003SCCGA1"
"68816099999","2022-01-31T09:00:00","4","-33.964806","18.601667","46.02","CAPE TOWN INTERNATIONAL, SF","FM-15","99999","V020","220,1,N,0046,1","99999,9,9,Y","009900,5,9,9","+0280,1","+0170,1","99999,9",,,,,,,,,,,,"10090,1,99999,9",,,,,,"MET051METAR FACT 310900Z 22009KT CAVOK 28/17 Q1009 NOSIG=",
"68816099999","2022-01-31T10:00:00","4","-33.964806","18.601667","46.02","CAPE TOWN INTERNATIONAL, SF","FM-15","99999","V020","220,1,N,0057,1","99999,9,9,Y","009900,5,9,9","+0290,1","+0170,1","99999,9",,,,,,,,,,,,"10090,1,99999,9",,,,,,"MET051METAR FACT 311000Z 22011KT CAVOK 29/17 Q1009 NOSIG=",
"68816099999","2022-01-31T11:00:00","4","-33.964806","18.601667","46.02","CAPE TOWN INTERNATIONAL, SF","FM-15","99999","V020","220,1,N,0062,1","99999,9,9,Y","009900,5,9,9","+0270,1","+0170,1","99999,9",,,,,,,,,,,,"10090,1,99999,9",,,,,,"MET051METAR FACT 311100Z 22012KT CAVOK 27/17 Q1009 NOSIG=",
"68816099999","2022-01-31T12:00:00","4","-33.964806","18.601667","46.02","CAPE TOWN INTERNATIONAL, SF","FM-12","99999","V020","210,1,N,0067,1","22000,1,9,N","030000,1,9,9","+0275,1","+0177,1","10084,1",,,,,"99,9,+99999,9,00,1",,,"9,AGL   ,+99999,+99999","03,99,1,00,1,99,9,99999,9,99,9,99,9","240,N,+0218,1",,"99999,9,10032,1","7,1,004,1,+999,9",,,,"4,99,0072,1,999","SYN08068816 32980 32113 10275 20177 30032 40084 57004 80002 333 20218 91014 555 91008=","Q01    003SCCGA1"
"68816099999","2022-01-31T12:00:00","4","-33.964806","18.601667","46.02","CAPE TOWN INTERNATIONAL, SF","FM-15","99999","V020","220,1,N,0062,1","99999,9,9,Y","009900,5,9,9","+0280,1","+0180,1","99999,9",,,,,,,,,,,,"10080,1,99999,9",,,,,,"MET051METAR FACT 311200Z 22012KT CAVOK 28/18 Q1008 NOSIG=",
"68816099999","2022-01-31T13:00:00","4","-33.964806","18.601667","46.02","CAPE TOWN INTERNATIONAL, SF","FM-15","99999","V020","210,1,N,0067,1","99999,9,9,Y","009900,5,9,9","+0270,1","+0180,1","99999,9",,,,,,,,,,,,"10070,1,99999,9",,,,,,"MET051METAR FACT 311300Z 21013KT CAVOK 27/18 Q1007 NOSIG=",
"68816099999","2022-01-31T14:00:00","4","-33.964806","18.601667","46.02","CAPE TOWN INTERNATIONAL, SF","FM-15","99999","V020","220,1,N,0077,1","99999,9,9,Y","009900,5,9,9","+0260,1","+0180,1","99999,9",,,,,,,,,,,,"10070,1,99999,9",,,,,,"MET051METAR FACT 311400Z 22015KT CAVOK 26/18 Q1007 NOSIG=",
"68816099999","2022-01-31T15:00:00","4","-33.964806","18.601667","46.02","CAPE TOWN INTERNATIONAL, SF","FM-12","99999","V020","210,1,N,0077,1","22000,1,9,N","030000,1,9,9","+0248,1","+0175,1","10067,1",,,,,"03,1,+99999,9,03,1","99,9,+99999,9,00,1",,"9,AGL   ,+99999,+99999","04,99,1,03,1,99,9,99999,9,99,9,99,9","240,M,+0290,1","240,N,+0242,1","99999,9,10013,1","7,1,013,1,+999,9",,,,"4,99,0093,1,999","SYN07668816 42980 42115 10248 20175 30013 40067 57013 83052 333 10290 20242 91018=",
"68816099999","2022-01-31T15:00:00","4","-33.964806","18.601667","46.02","CAPE TOWN INTERNATIONAL, SF","FM-15","99999","V020","210,1,N,0077,1","99999,9,9,Y","009900,5,9,9","+0250,1","+0180,1","99999,9",,,,,,,,,,,,"10060,1,99999,9",,,,,,"MET051METAR FACT 311500Z 21015KT CAVOK 25/18 Q1006 NOSIG=",
"68816099999","2022-01-31T16:00:00","4","-33.964806","18.601667","46.02","CAPE TOWN INTERNATIONAL, SF","FM-15","99999","V020","230,1,N,0072,1","99999,9,9,Y","009900,5,9,9","+0230,1","+0170,1","99999,9",,,,,,,,,,,,"10060,1,99999,9",,,,,,"MET051METAR FACT 311600Z 23014KT CAVOK 23/17 Q1006 NOSIG=",
"68816099999","2022-01-31T17:00:00","4","-33.964806","18.601667","46.02","CAPE TOWN INTERNATIONAL, SF","FM-15","99999","V020","220,1,N,0072,1","99999,9,9,Y","009900,5,9,9","+0220,1","+0170,1","99999,9",,,,,,,,,,,,"10060,1,99999,9",,,,,,"MET051METAR FACT 311700Z 22014KT CAVOK 22/17 Q1006 NOSIG=",
"68816099999","2022-01-31T18:00:00","4","-33.964806","18.601667","46.02","CAPE TOWN INTERNATIONAL, SF","FM-12","99999","V020","230,1,N,0057,1","99999,9,9,N","030000,1,9,9","+0207,1","+0167,1","10069,1",,,,,"03,1,+99999,9,03,1","99,9,+99999,9,00,1",,"9,AGL   ,+99999,+99999","05,99,1,03,1,99,9,99999,9,99,9,99,9","120,M,+0290,1",,"99999,9,10015,1","7,1,001,1,+999,9",,,,"4,99,0072,1,999","SYN08068816 32980 52311 10207 20167 30015 40069 57001 83052 333 10290 91014 555 91006=",
"68816099999","2022-01-31T18:00:00","4","-33.964806","18.601667","46.02","CAPE TOWN INTERNATIONAL, SF","FM-15","99999","V020","230,1,N,0057,1","99999,9,9,Y","009900,5,9,9","+0210,1","+0170,1","99999,9",,,,,,,,,,,,"10070,1,99999,9",,,,,,"MET051METAR FACT 311800Z 23011KT CAVOK 21/17 Q1007 NOSIG=",
"68816099999","2022-01-31T19:00:00","4","-33.964806","18.601667","46.02","CAPE TOWN INTERNATIONAL, SF","FM-15","99999","V020","220,1,N,0057,1","99999,9,9,Y","009900,5,9,9","+0210,1","+0170,1","99999,9",,,,,,,,,,,,"10070,1,99999,9",,,,,,"MET051METAR FACT 311900Z 22011KT CAVOK 21/17 Q1007 NOSIG=",
"68816099999","2022-01-31T20:00:00","4","-33.964806","18.601667","46.02","CAPE TOWN INTERNATIONAL, SF","FM-15","99999","V020","220,1,N,0051,1","99999,9,9,Y","009900,5,9,9","+0210,1","+0170,1","99999,9",,,,,,,,,,,,"10070,1,99999,9",,,,,,"MET051METAR FACT 312000Z 22010KT CAVOK 21/17 Q1007 NOSIG=",
"68816099999","2022-01-31T21:00:00","4","-33.964806","18.601667","46.02","CAPE TOWN INTERNATIONAL, SF","FM-12","99999","V020","230,1,N,0036,1","22000,1,9,N","030000,1,9,9","+0210,1","+0169,1","10077,1",,,,,"02,1,+99999,9,03,1",,,"9,AGL   ,+99999,+99999","02,99,1,02,1,99,9,99999,9,99,9,99,9",,,"99999,9,10023,1","2,1,008,1,+999,9",,,,"4,99,0046,1,999","SYN06468816 42980 22307 10210 20169 30023 40077 52008 82050 333 91009=",
"68816099999","2022-01-31T21:00:00","4","-33.964806","18.601667","46.02","CAPE TOWN INTERNATIONAL, SF","FM-15","99999","V020","200,1,N,0026,1","99999,9,9,Y","009900,5,9,9","+0210,1","+0170,1","99999,9",,,,,,,,,,,,"10070,1,99999,9",,,,,,"MET051METAR FACT 312100Z 20005KT CAVOK 21/17 Q1007 NOSIG=",
"68816099999","2022-01-31T22:00:00","4","-33.964806","18.601667","46.02","CAPE TOWN INTERNATIONAL, SF","FM-15","99999","V020","999,9,V,0026,1","99999,9,9,Y","009900,5,9,9","+0210,1","+0170,1","99999,9",,,,,,,,,,,,"10070,1,99999,9",,,,,,"MET051METAR FACT 312200Z VRB05KT CAVOK 21/17 Q1007 NOSIG=",
"68816099999","2022-01-31T23:00:00","4","-33.964806","18.601667","46.02","CAPE TOWN INTERNATIONAL, SF","FM-15","99999","V020","999,9,V,0010,1","99999,9,9,Y","009900,5,9,9","+0200,1","+0170,1","99999,9",,,,,,,,,,,,"10070,1,99999,9",,,,,,"MET051METAR FACT 312300Z VRB02KT CAVOK 20/17 Q1007 NOSIG=",
"68816099999","2022-02-01T00:00:00","4","-33.964806","18.601667","46.02","CAPE TOWN INTERNATIONAL, SF","FM-15","99999","V020","999,9,V,0005,1","99999,9,9,Y","009900,5,9,9","+0200,1","+0170,1","99999,9",,,,,,,,,,,,"10070,1,99999,9",,,,,,"MET051METAR FACT 010000Z VRB01KT CAVOK 20/17 Q1007 NOSIG=",
"68816099999","2022-02-01T01:00:00","4","-33.964806","18.601667","46.02","CAPE TOWN INTERNATIONAL, SF","FM-15","99999","V020","200,1,N,0015,1","99999,9,9,Y","009900,5,9,9","+0200,1","+0170,1","99999,9",,,,,,,,,,,,"10060,1,99999,9",,,,,,"MET051METAR FACT 010100Z 20003KT CAVOK 20/17 Q1006 NOSIG=",
"68816099999","2022-02-01T02:00:00","4","-33.964806","18.601667","46.02","CAPE TOWN INTERNATIONAL, SF","FM-15","99999","V020","999,9,V,0010,1","99999,9,9,Y","009900,5,9,9","+0190,1","+0160,1","99999,9",,,,,,,,,,,,"10060,1,99999,9",,,,,,"MET051METAR FACT 010200Z VRB02KT CAVOK 19/16 Q1006 NOSIG=",
"68816099999","2022-02-01T03:00:00","4","-33.964806","18.601667","46.02","CAPE TOWN INTERNATIONAL, SF","FM-15","99999","V020","300,1,N,0041,1","99999,9,9,Y","009900,5,9,9","+0200,1","+0160,1","99999,9",,,,,,,,,,,,"10070,1,99999,9",,,,,,"MET051METAR FACT 010300Z 30008KT CAVOK 20/16 Q1007 NOSIG=",
"68816099999","2022-02-01T04:00:00","4","-33.964806","18.601667","46.02","CAPE TOWN INTERNATIONAL, SF","FM-15","99999","V020","330,1,N,0057,1","99999,9,9,Y","009900,5,9,9","+0190,1","+0140,1","99999,9",,,,,,,,,,,,"10070,1,99999,9",,,,,,"MET051METAR FACT 010400Z 33011KT CAVOK 19/14 Q1007 NOSIG=",
"68816099999","2022-02-01T05:00:00","4","-33.964806","18.601667","46.02","CAPE TOWN INTERNATIONAL, SF","FM-15","99999","V020","360,1,V,0021,1","99999,9,9,Y","009900,5,9,9","+0200,1","+0150,1","99999,9",,,,,,,,,,,,"10070,1,99999,9",,,,,,"MET059METAR FACT 010500Z 36004KT 320V020 CAVOK 20/15 Q1007 NOSIG=",
"68816099999","2022-02-01T05:25:00","4","-33.964806","18.601667","46.02","CAPE TOWN INTERNATIONAL, SF","FM-16","99999","V020","030,1,N,0026,1","99999,9,9,Y","009900,5,9,9","+0220,1","+0150,1","99999,9",,,,,,,,,,,,"10080,1,99999,9",,,,,,"MET051SPECI FACT 010525Z 03005KT CAVOK 22/15 Q1008 NOSIG=",
"68816099999","2022-02-01T05:57:00","4","-33.964806","18.601667","46.02","CAPE TOWN INTERNATIONAL, SF","FM-16","99999","V020","030,1,V,0026,1","99999,9,9,Y","009900,5,9,9","+0240,1","+0160,1","99999,9",,,,,,,,,,,,"10080,1,99999,9",,,,,,"MET059SPECI FACT 010557Z 03005KT 350V060 CAVOK 24/16 Q1008 NOSIG=",
"68816099999","2022-02-01T06:00:00","4","-33.964806","18.601667","46.02","CAPE TOWN INTERNATIONAL, SF","FM-15","99999","V020","030,1,V,0026,1","99999,9,9,Y","009900,5,9,9","+0240,1","+0160,1","99999,9",,,,,,,,,,,,"10080,1,99999,9",,,,,,"MET059METAR FACT 010600Z 03005KT 350V060 CAVOK 24/16 Q1008 NOSIG=",
"68816099999","2022-02-01T07:00:00","4","-33.964806","18.601667","46.02","CAPE TOWN INTERNATIONAL, SF","FM-15","99999","V020","320,1,V,0031,1","99999,9,9,Y","009900,5,9,9","+0260,1","+0150,1","99999,9",,,,,,,,,,,,"10090,1,99999,9",,,,,,"MET059METAR FACT 010700Z 32006KT 280V340 CAVOK 26/15 Q1009 NOSIG=",
"68816099999","2022-02-01T08:00:00","4","-33.964806","18.601667","46.02","CAPE TOWN INTERNATIONAL, SF","FM-15","99999","V020","320,1,V,0041,1","99999,9,9,Y","009900,5,9,9","+0280,1","+0150,1","99999,9",,,,,,,,,,,,"10080,1,99999,9",,,,,,"MET059METAR FACT 010800Z 32008KT 290V350 CAVOK 28/15 Q1008 NOSIG=",
"68816099999","2022-02-01T08:25:00","4","-33.964806","18.601667","46.02","CAPE TOWN INTERNATIONAL, SF","FM-16","99999","V020","310,1,V,0031,1","99999,9,9,Y","009900,5,9,9","+0300,1","+0160,1","99999,9",,,,,,,,,,,,"10080,1,99999,9",,,,,,"MET059SPECI FACT 010825Z 31006KT 260V010 CAVOK 30/16 Q1008 NOSIG=",
"68816099999","2022-02-01T09:00:00","4","-33.964806","18.601667","46.02","CAPE TOWN INTERNATIONAL, SF","FM-15","99999","V020","330,1,V,0036,1","99999,9,9,Y","009900,5,9,9","+0310,1","+0160,1","99999,9",,,,,,,,,,,,"10080,1,99999,9",,,,,,"MET059METAR FACT 010900Z 33007KT 290V360 CAVOK 31/16 Q1008 NOSIG=",
"68816099999","2022-02-01T10:00:00","4","-33.964806","18.601667","46.02","CAPE TOWN INTERNATIONAL, SF","FM-15","99999","V020","310,1,N,0051,1","99999,9,9,Y","009900,5,9,9","+0300,1","+0160,1","99999,9",,,,,,,,,,,,"10080,1,99999,9",,,,,,"MET051METAR FACT 011000Z 31010KT CAVOK 30/16 Q1008 NOSIG=",
"68816099999","2022-02-01T11:00:00","4","-33.964806","18.601667","46.02","CAPE TOWN INTERNATIONAL, SF","FM-15","99999","V020","310,1,N,0062,1","99999,9,9,Y","009900,5,9,9","+0310,1","+0160,1","99999,9",,,,,,,,,,,,"10070,1,99999,9",,,,,,"MET051METAR FACT 011100Z 31012KT CAVOK 31/16 Q1007 NOSIG=",
"68816099999","2022-02-01T12:00:00","4","-33.964806","18.601667","46.02","CAPE TOWN INTERNATIONAL, SF","FM-12","99999","V020","310,1,N,0057,1","22000,1,9,N","021000,1,9,9","+0303,1","+0161,1","10075,1",,,,,"01,1,+00800,1,06,1",,,"9,AGL   ,+99999,+99999","01,99,1,01,1,99,9,00800,1,99,9,99,9","240,N,+0241,1",,"99999,9,10023,1","2,1,008,1,+999,9",,,,"4,99,0077,1,999","SYN08068816 32571 13111 10303 20161 30023 40075 52008 81500 333 20241 91015 555 91007=",
"68816099999","2022-02-01T12:00:00","4","-33.964806","18.601667","46.02","CAPE TOWN INTERNATIONAL, SF","FM-15","99999","V020","310,1,N,0072,1","99999,9,9,N","009999,1,9,9","+0300,1","+0160,1","99999,9",,,,,"02,1,+01219,1,08,1",,,"9,AGL   ,+99999,+99999","99,99,9,02,1,99,9,01219,1,99,9,99,9",,,"10070,1,99999,9",,,,,,"MET060METAR FACT 011200Z 31014KT 9999 FEW040TCU 30/16 Q1007 NOSIG=",
"68816099999","2022-02-01T13:00:00","4","-33.964806","18.601667","46.02","CAPE TOWN INTERNATIONAL, SF","FM-15","99999","V020","999,9,V,0036,1","99999,9,9,N","009999,1,9,9","+0300,1","+0160,1","99999,9",,,,,"02,1,+01219,1,08,1",,,"9,AGL   ,+99999,+99999","99,99,9,02,1,99,9,01219,1,99,9,99,9",,,"10070,1,99999,9",,,,,,"MET060METAR FACT 011300Z VRB07KT 9999 FEW040TCU 30/16 Q1007 NOSIG=",
"68816099999","2022-02-01T14:00:00","4","-33.964806","18.601667","46.02","CAPE TOWN INTERNATIONAL, SF","FM-15","99999","V020","330,1,N,0098,1","99999,9,9,N","009999,1,9,9","+0250,1","+0160,1","99999,9",,,,,"02,1,+01219,1,08,1",,,"9,AGL   ,+99999,+99999","99,99,9,02,1,99,9,01219,1,99,9,99,9",,,"10060,1,99999,9",,,,,,"MET060METAR FACT 011400Z 33019KT 9999 FEW040TCU 25/16 Q1006 NOSIG=",
"68816099999","2022-02-01T15:00:00","4","-33.964806","18.601667","46.02","CAPE TOWN INTERNATIONAL, SF","FM-15","99999","V020","330,1,N,0072,1","99999,9,9,N","009999,1,9,9","+0230,1","+0160,1","99999,9",,,,,"02,1,+01219,1,08,1",,,"9,AGL   ,+99999,+99999","99,99,9,02,1,99,9,01219,1,99,9,99,9",,,"10060,1,99999,9",,,,,,"MET060METAR FACT 011500Z 33014KT 9999 FEW040TCU 23/16 Q1006 NOSIG=",
"68816099999","2022-02-01T16:00:00","4","-33.964806","18.601667","46.02","CAPE TOWN INTERNATIONAL, SF","FM-15","99999","V020","320,1,N,0062,1","99999,9,9,N","009999,1,9,9","+0230,1","+0170,1","99999,9",,,,,"02,1,+01219,1,08,1",,,"9,AGL   ,+99999,+99999","99,99,9,02,1,99,9,01219,1,99,9,99,9",,,"10060,1,99999,9",,,,,,"MET060METAR FACT 011600Z 32012KT 9999 FEW040TCU 23/17 Q1006 NOSIG=",
"68816099999","2022-02-01T16:10:00","4","-33.964806","18.601667","46.02","CAPE TOWN INTERNATIONAL, SF","FM-16","99999","V020","320,1,V,0051,1","22000,1,9,N","004000,1,9,9","+0230,1","+0170,1","99999,9",,,,,,,,,"00,99,1,99,9,99,9,99999,9,99,9,99,9",,,"10070,1,99999,9",,"04,1",,,,"MET065SPECI FACT 011610Z 32010KT 290V350 4000 FU NSC 23/17 Q1007 NOSIG=",
"68816099999","2022-02-01T17:00:00","4","-33.964806","18.601667","46.02","CAPE TOWN INTERNATIONAL, SF","FM-15","99999","V020","320,1,N,0062,1","99999,9,9,Y","009900,5,9,9","+0210,1","+0170,1","99999,9",,,,,,,,,,,,"10070,1,99999,9",,,,,,"MET051METAR FACT 011700Z 32012KT CAVOK 21/17 Q1007 NOSIG=",
"68816099999","2022-02-01T18:00:00","4","-33.964806","18.601667","46.02","CAPE TOWN INTERNATIONAL, SF","FM-12","99999","V020","300,1,N,0062,1","22000,1,9,N","050000,1,9,9","+0196,1","+0173,1","10074,1",,,,,"02,1,+00800,1,06,1",,,"9,AGL   ,+99999,+99999","02,99,1,02,1,99,9,00800,1,99,9,99,9","120,M,+0317,1","120,N,+0184,1","99999,9,10021,1","2,1,008,1,+999,9",,,,"4,99,0051,1,999","SYN08668816 32584 23012 10196 20173 30021 40074 52008 82500 333 10317 20184 91010 555 91007=",
"68816099999","2022-02-01T18:00:00","4","-33.964806","18.601667","46.02","CAPE TOWN INTERNATIONAL, SF","FM-15","99999","V020","310,1,N,0046,1","99999,9,9,N","009999,1,9,9","+0200,1","+0170,1","99999,9",,,,,"02,1,+00610,1,99,9",,,"9,AGL   ,+99999,+99999","99,99,9,02,1,99,9,00610,1,99,9,99,9",,,"10070,1,99999,9",,,,,,"MET057METAR FACT 011800Z 31009KT 9999 FEW020 20/17 Q1007 NOSIG=",
"68816099999","2022-02-01T19:00:00","4","-33.964806","18.601667","46.02","CAPE TOWN INTERNATIONAL, SF","FM-15","99999","V020","310,1,N,0041,1","99999,9,9,N","009999,1,9,9","+0190,1","+0180,1","99999,9",,,,,"02,1,+00610,1,99,9",,,"9,AGL   ,+99999,+99999","99,99,9,02,1,99,9,00610,1,99,9,99,9",,,"10080,1,99999,9",,,,,,"MET057METAR FACT 011900Z 31008KT 9999 FEW020 19/18 Q1008 NOSIG=",
"68816099999","2022-02-01T20:00:00","4","-33.964806","18.601667","46.02","CAPE TOWN INTERNATIONAL, SF","FM-15","99999","V020","330,1,N,0036,1","99999,9,9,N","009999,1,9,9","+0190,1","+0180,1","99999,9",,,,,"02,1,+00610,1,99,9",,,"9,AGL   ,+99999,+99999","99,99,9,02,1,99,9,00610,1,99,9,99,9",,,"10080,1,99999,9",,,,,,"MET057METAR FACT 012000Z 33007KT 9999 FEW020 19/18 Q1008 NOSIG=",
"68816099999","2022-02-01T21:00:00","4","-33.964806","18.601667","46.02","CAPE TOWN INTERNATIONAL, SF","FM-15","99999","V020","320,1,N,0041,1","99999,9,9,N","009999,1,9,9","+0200,1","+0180,1","99999,9",,,,,"02,1,+00610,1,99,9",,,"9,AGL   ,+99999,+99999","99,99,9,02,1,99,9,00610,1,99,9,99,9",,,"10080,1,99999,9",,,,,,"MET057METAR FACT 012100Z 32008KT 9999 FEW020 20/18 Q1008 NOSIG=",
"68816099999","2022-02-01T22:00:00","4","-33.964806","18.601667","46.02","CAPE TOWN INTERNATIONAL, SF","FM-15","99999","V020","330,1,N,0046,1","99999,9,9,N","009999,1,9,9","+0190,1","+0180,1","99999,9",,,,,"02,1,+00610,1,99,9",,,"9,AGL   ,+99999,+99999","99,99,9,02,1,99,9,00610,1,99,9,99,9",,,"10080,1,99999,9",,,,,,"MET057METAR FACT 012200Z 33009KT 9999 FEW020 19/18 Q1008 NOSIG=",
"68816099999","2022-02-01T23:00:00","4","-33.964806","18.601667","46.02","CAPE TOWN INTERNATIONAL, SF","FM-15","99999","V020","320,1,N,0036,1","99999,9,9,N","009999,1,9,9","+0190,1","+0180,1","99999,9",,,,,"02,1,+00610,1,99,9",,,"9,AGL   ,+99999,+99999","99,99,9,02,1,99,9,00610,1,99,9,99,9",,,"10080,1,99999,9",,,,,,"MET057METAR FACT 012300Z 32007KT 9999 FEW020 19/18 Q1008 NOSIG=",
"68816099999","2022-02-02T00:00:00","4","-33.964806","18.601667","46.02","CAPE TOWN INTERNATIONAL, SF","FM-12","99999","V020","340,1,N,0057,1","22000,1,9,N","020000,1,9,9","+0196,1","+0172,1","10074,1",,,,,"01,1,+00800,1,06,1",,,"9,AGL   ,+99999,+99999","01,99,1,01,1,99,9,00800,1,99,9,99,9","120,M,+0317,1",,"99999,9,10020,1","7,1,007,1,+999,9",,,,"4,99,0067,1,999","SYN08068816 32570 13411 10196 20172 30020 40074 57007 81500 333 10317 91013 555 91007=",
"68816099999","2022-02-02T00:00:00","4","-33.964806","18.601667","46.02","CAPE TOWN INTERNATIONAL, SF","FM-15","99999","V020","340,1,N,0057,1","99999,9,9,N","009999,1,9,9","+0200,1","+0170,1","99999,9",,,,,"02,1,+00610,1,99,9",,,"9,AGL   ,+99999,+99999","99,99,9,02,1,99,9,00610,1,99,9,99,9",,,"10070,1,99999,9",,,,,,"MET057METAR FACT 020000Z 34011KT 9999 FEW020 20/17 Q1007 NOSIG=",
"68816099999","2022-02-02T01:00:00","4","-33.964806","18.601667","46.02","CAPE TOWN INTERNATIONAL, SF","FM-15","99999","V020","340,1,N,0072,1","99999,9,9,N","009999,1,9,9","+0190,1","+0170,1","99999,9",,,,,"02,1,+00366,1,99,9",,,"9,AGL   ,+99999,+99999","99,99,9,02,1,99,9,00366,1,99,9,99,9",,,"10070,1,99999,9",,,,,,"MET057METAR FACT 020100Z 34014KT 9999 FEW012 19/17 Q1007 NOSIG=",
"68816099999","2022-02-02T01:55:00","4","-33.964806","18.601667","46.02","CAPE TOWN INTERNATIONAL, SF","FM-16","99999","V020","330,1,N,0057,1","00366,1,C,N","009999,1,9,9","+0190,1","+0170,1","99999,9",,,,,"07,1,+00366,1,99,9",,,"9,AGL   ,+99999,+99999","99,99,9,07,1,99,9,00366,1,99,9,99,9",,,"10070,1,99999,9",,,,,,"MET057SPECI FACT 020155Z 33011KT 9999 BKN012 19/17 Q1007 NOSIG=",
"68816099999","2022-02-02T02:00:00","4","-33.964806","18.601667","46.02","CAPE TOWN INTERNATIONAL, SF","FM-15","99999","V020","330,1,N,0057,1","00366,1,C,N","009999,1,9,9","+0190,1","+0170,1","99999,9",,,,,"07,1,+00366,1,99,9",,,"9,AGL   ,+99999,+99999","99,99,9,07,1,99,9,00366,1,99,9,99,9",,,"10070,1,99999,9",,,,,,"MET057METAR FACT 020200Z 33011KT 9999 BKN012 19/17 Q1007 NOSIG=",
"68816099999","2022-02-02T03:00:00","4","-33.964806","18.601667","46.02","CAPE TOWN INTERNATIONAL, SF","FM-15","99999","V020","340,1,N,0057,1","00366,1,C,N","009999,1,9,9","+0200,1","+0170,1","99999,9",,,,,"07,1,+00366,1,99,9",,,"9,AGL   ,+99999,+99999","99,99,9,07,1,99,9,00366,1,99,9,99,9",,,"10070,1,99999,9",,,,,,"MET057METAR FACT 020300Z 34011KT 9999 BKN012 20/17 Q1007 NOSIG=",
"68816099999","2022-02-02T04:00:00","4","-33.964806","18.601667","46.02","CAPE TOWN INTERNATIONAL, SF","FM-15","99999","V020","350,1,N,0082,1","00366,1,C,N","009999,1,9,9","+0200,1","+0170,1","99999,9",,,,,"07,1,+00366,1,99,9",,,"9,AGL   ,+99999,+99999","99,99,9,07,1,99,9,00366,1,99,9,99,9",,,"10070,1,99999,9",,,,,,"MET057METAR FACT 020400Z 35016KT 9999 BKN012 20/17 Q1007 NOSIG=",
"68816099999","2022-02-02T05:00:00","4","-33.964806","18.601667","46.02","CAPE TOWN INTERNATIONAL, SF","FM-15","99999","V020","350,1,N,0077,1","00366,1,C,N","009999,1,9,9","+0200,1","+0180,1","99999,9",,,,,"07,1,+00366,1,99,9",,,"9,AGL   ,+99999,+99999","99,99,9,07,1,99,9,00366,1,99,9,99,9",,,"10070,1,99999,9",,,,,,"MET057METAR FACT 020500Z 35015KT 9999 BKN012 20/18 Q1007 NOSIG=",
"68816099999","2022-02-02T05:24:00","4","-33.964806","18.601667","46.02","CAPE TOWN INTERNATIONAL, SF","FM-16","99999","V020","360,1,N,0077,1","00457,1,C,N","009999,1,9,9","+0200,1","+0170,1","99999,9",,,,,"07,1,+00457,1,99,9",,,"9,AGL   ,+99999,+99999","99,99,9,07,1,99,9,00457,1,99,9,99,9",,,"10070,1,99999,9",,,,,,"MET057SPECI FACT 020524Z 36015KT 9999 BKN015 20/17 Q1007 NOSIG=",
"68816099999","2022-02-02T06:00:00","4","-33.964806","18.601667","46.02","CAPE TOWN INTERNATIONAL, SF","FM-12","99999","V020","360,1,N,0067,1","99999,9,9,N","020000,1,9,9","+0208,1","+0174,1","10076,1",,,,,"07,1,+00450,1,06,1",,,"9,AGL   ,+99999,+99999","07,99,1,07,1,99,9,00450,1,99,9,99,9","240,N,+0190,1",,"99999,9,10022,1","2,1,005,1,+999,9",,,,"4,99,0088,1,999","SYN08668816 32470 73613 10208 20174 30022 40076 52005 875// 333 20190 91017 555 10317 91007=",
"68816099999","2022-02-02T06:00:00","4","-33.964806","18.601667","46.02","CAPE TOWN INTERNATIONAL, SF","FM-15","99999","V020","360,1,V,0067,1","00457,1,C,N","009999,1,9,9","+0210,1","+0170,1","99999,9",,,,,"07,1,+00457,1,99,9",,,"9,AGL   ,+99999,+99999","99,99,9,07,1,99,9,00457,1,99,9,99,9",,,"10070,1,99999,9",,,,,,"MET065METAR FACT 020600Z 36013KT 330V030 9999 BKN015 21/17 Q1007 NOSIG=",
"68816099999","2022-02-02T07:00:00","4","-33.964806","18.601667","46.02","CAPE TOWN INTERNATIONAL, SF","FM-15","99999","V020","350,1,N,0067,1","00457,1,C,N","009999,1,9,9","+0210,1","+0180,1","99999,9",,,,,"07,1,+00457,1,99,9",,,"9,AGL   ,+99999,+99999","99,99,9,07,1,99,9,00457,1,99,9,99,9",,,"10080,1,99999,9",,,,,,"MET057METAR FACT 020700Z 35013KT 9999 BKN015 21/18 Q1008 NOSIG=",
"68816099999","2022-02-02T08:00:00","4","-33.964806","18.601667","46.02","CAPE TOWN INTERNATIONAL, SF","FM-15","99999","V020","350,1,N,0072,1","00457,1,C,N","009999,1,9,9","+0220,1","+0180,1","99999,9",,,,,"07,1,+00457,1,99,9",,,"9,AGL   ,+99999,+99999","99,99,9,07,1,99,9,00457,1,99,9,99,9",,,"10070,1,99999,9",,,,,,"MET057METAR FACT 020800Z 35014KT 9999 BKN015 22/18 Q1007 NOSIG=",
"68816099999","2022-02-02T09:00:00","4","-33.964806","18.601667","46.02","CAPE TOWN INTERNATIONAL, SF","FM-15","99999","V020","340,1,N,0072,1","00488,1,C,N","009999,1,9,9","+0230,1","+0180,1","99999,9",,,,,"07,1,+00488,1,99,9","07,1,+00914,1,99,9",,"9,AGL   ,+99999,+99999","99,99,9,07,1,99,9,00488,1,99,9,99,9",,,"10080,1,99999,9",,"61,1",,,,"MET068METAR FACT 020900Z 34014KT 9999 -RA BKN016 BKN030 23/18 Q1008 NOSIG=",
"68816099999","2022-02-02T10:00:00","4","-33.964806","18.601667","46.02","CAPE TOWN INTERNATIONAL, SF","FM-15","99999","V020","330,1,N,0072,1","00457,1,C,N","009999,1,9,9","+0220,1","+0180,1","99999,9",,,,,"07,1,+00457,1,99,9","08,1,+00914,1,99,9",,"9,AGL   ,+99999,+99999","99,99,9,07,1,99,9,00457,1,99,9,99,9",,,"10080,1,99999,9",,,,,,"MET064METAR FACT 021000Z 33014KT 9999 BKN015 OVC030 22/18 Q1008 NOSIG=",
"68816099999","2022-02-02T11:00:00","4","-33.964806","18.601667","46.02","CAPE TOWN INTERNATIONAL, SF","FM-15","99999","V020","340,1,N,0072,1","00914,1,9,N","009999,1,9,9","+0220,1","+0190,1","99999,9",,,,,"04,1,+00305,1,99,9","08,1,+00914,1,99,9",,"9,AGL   ,+99999,+99999","99,99,9,04,1,99,9,00305,1,99,9,99,9",,,"10080,1,99999,9",,,,,,"MET064METAR FACT 021100Z 34014KT 9999 SCT010 OVC030 22/19 Q1008 NOSIG=",
"68816099999","2022-02-02T12:00:00","4","-33.964806","18.601667","46.02","CAPE TOWN INTERNATIONAL, SF","FM-12","99999","V020","320,1,N,0098,1","99999,9,9,N","020000,1,9,9","+0213,1","+0189,1","10078,1","06,0000,2,1",,,,"08,1,+00800,1,06,1",,,"9,AGL   ,+99999,+99999","08,99,1,08,1,99,9,00800,1,99,9,99,9","240,N,+0208,1",,"99999,9,10024,1","7,1,007,1,+999,9",,,,"4,99,0129,1,999","SYN09268816 32570 83219 10213 20189 30024 40078 57007 69901 885// 333 20208 91025 555 20000 91008=",
"68816099999","2022-02-02T12:00:00","4","-33.964806","18.601667","46.02","CAPE TOWN INTERNATIONAL, SF","FM-15","99999","V020","320,1,N,0072,1","00305,1,C,N","009999,1,9,9","+0220,1","+0190,1","99999,9",,,,,"07,1,+00305,1,99,9","08,1,+00914,1,99,9",,"9,AGL   ,+99999,+99999","99,99,9,07,1,99,9,00305,1,99,9,99,9",,,"10070,1,99999,9",,,,,,"MET064METAR FACT 021200Z 32014KT 9999 BKN010 OVC030 22/19 Q1007 NOSIG=",
"68816099999","2022-02-02T12:01:00","4","-33.964806","18.601667","46.02","CAPE TOWN INTERNATIONAL, SF","FM-16","99999","V020","320,1,N,0072,1","00305,1,C,N","009999,1,9,9","+0220,1","+0190,1","99999,9",,,,,"07,1,+00305,1,99,9","08,1,+00914,1,99,9",,"9,AGL   ,+99999,+99999","99,99,9,07,1,99,9,00305,1,99,9,99,9",,,"10070,1,99999,9",,,,,,"MET064SPECI FACT 021201Z 32014KT 9999 BKN010 OVC030 22/19 Q1007 NOSIG=",
"68816099999","2022-02-02T12:26:00","4","-33.964806","18.601667","46.02","CAPE TOWN INTERNATIONAL, SF","FM-16","99999","V020","320,1,N,0088,1","00274,1,C,N","003000,1,9,9","+0210,1","+0190,1","99999,9",,,,,"07,1,+00274,1,99,9","08,1,+00914,1,99,9",,"9,AGL   ,+99999,+99999","99,99,9,07,1,99,9,00274,1,99,9,99,9",,,"10070,1,99999,9",,"61,1",,,,"MET068SPECI FACT 021226Z 32017KT 3000 -RA BKN009 OVC030 21/19 Q1007 NOSIG=",
"68816099999","2022-02-02T12:59:00","4","-33.964806","18.601667","46.02","CAPE TOWN INTERNATIONAL, SF","FM-16","99999","V020","330,1,N,0072,1","00274,1,C,N","004000,1,9,9","+0210,1","+0200,1","99999,9",,,,,"07,1,+00274,1,99,9","08,1,+00914,1,99,9",,"9,AGL   ,+99999,+99999","99,99,9,07,1,99,9,00274,1,99,9,99,9",,,"10070,1,99999,9",,"61,1",,,,"MET068SPECI FACT 021259Z 33014KT 4000 -RA BKN009 OVC030 21/20 Q1007 NOSIG=",
"68816099999","2022-02-02T13:00:00","4","-33.964806","18.601667","46.02","CAPE TOWN INTERNATIONAL, SF","FM-15","99999","V020","330,1,N,0072,1","00274,1,C,N","004000,1,9,9","+0210,1","+0200,1","99999,9",,,,,"07,1,+00274,1,99,9","08,1,+00914,1,99,9",,"9,AGL   ,+99999,+99999","99,99,9,07,1,99,9,00274,1,99,9,99,9",,,"10070,1,99999,9",,"61,1",,,,"MET068METAR FACT 021300Z 33014KT 4000 -RA BKN009 OVC030 21/20 Q1007 NOSIG=",
"68816099999","2022-02-02T13:31:00","4","-33.964806","18.601667","46.02","CAPE TOWN INTERNATIONAL, SF","FM-16","99999","V020","340,1,N,0072,1","00488,1,9,N","006000,1,9,9","+0210,1","+0200,1","99999,9",,,,,"04,1,+00152,1,99,9","07,1,+00488,1,99,9","08,1,+00914,1,99,9","9,AGL   ,+99999,+99999","99,99,9,04,1,99,9,00152,1,99,9,99,9",,,"10070,1,99999,9",,,,,,"MET071SPECI FACT 021331Z 34014KT 6000 SCT005 BKN016 OVC030 21/20 Q1007 NOSIG=",
"68816099999","2022-02-02T14:00:00","4","-33.964806","18.601667","46.02","CAPE TOWN INTERNATIONAL, SF","FM-15","99999","V020","330,1,N,0057,1","00488,1,9,N","009999,1,9,9","+0210,1","+0200,1","99999,9",,,,,"02,1,+00183,1,99,9","07,1,+00488,1,99,9",,"9,AGL   ,+99999,+99999","99,99,9,02,1,99,9,00183,1,99,9,99,9",,,"10070,1,99999,9",,,,,,"MET064METAR FACT 021400Z 33011KT 9999 FEW006 BKN016 21/20 Q1007 NOSIG=",
"68816099999","2022-02-02T15:00:00","4","-33.964806","18.601667","46.02","CAPE TOWN INTERNATIONAL, SF","FM-15","99999","V020","300,1,N,0077,1","00914,1,9,N","009999,1,9,9","+0210,1","+0190,1","99999,9",,,,,"04,1,+00305,1,99,9","07,1,+00914,1,99,9",,"9,AGL   ,+99999,+99999","99,99,9,04,1,99,9,00305,1,99,9,99,9",,,"10070,1,99999,9",,,,,,"MET064METAR FACT 021500Z 30015KT 9999 SCT010 BKN030 21/19 Q1007 NOSIG=",
"68816099999","2022-02-02T15:31:00","4","-33.964806","18.601667","46.02","CAPE TOWN INTERNATIONAL, SF","FM-16","99999","V020","310,1,N,0072,1","00183,1,C,N","003000,1,9,9","+0200,1","+0190,1","99999,9",,,,,"07,1,+00183,1,99,9","08,1,+00610,1,99,9",,"9,AGL   ,+99999,+99999","99,99,9,07,1,99,9,00183,1,99,9,99,9",,,"10070,1,99999,9",,"61,1",,,,"MET075SPECI FACT 021531Z 31014KT 3000 -RA BKN006 OVC020 20/19 Q1007 TEMPO BKN004=",
"68816099999","2022-02-02T15:58:00","4","-33.964806","18.601667","46.02","CAPE TOWN INTERNATIONAL, SF","FM-16","99999","V020","320,1,N,0067,1","00122,1,C,N","003000,1,9,9","+0200,1","+0190,1","99999,9",,,,,"07,1,+00122,1,99,9","08,1,+00366,1,99,9",,"9,AGL   ,+99999,+99999","99,99,9,07,1,99,9,00122,1,99,9,99,9",,,"10070,1,99999,9",,"61,1",,,,"MET068SPECI FACT 021558Z 32013KT 3000 -RA BKN004 OVC012 20/19 Q1007 NOSIG=",
"68816099999","2022-02-02T16:00:00","4","-33.964806","18.601667","46.02","CAPE TOWN INTERNATIONAL, SF","FM-15","99999","V020","320,1,N,0067,1","00122,1,C,N","003000,1,9,9","+0200,1","+0190,1","99999,9",,,,,"07,1,+00122,1,99,9","08,1,+00366,1,99,9",,"9,AGL   ,+99999,+99999","99,99,9,07,1,99,9,00122,1,99,9,99,9",,,"10070,1,99999,9",,"61,1",,,,"MET068METAR FACT 021600Z 32013KT 3000 -RA BKN004 OVC012 20/19 Q1007 NOSIG=",
"68816099999","2022-02-02T16:25:00","4","-33.964806","18.601667","46.02","CAPE TOWN INTERNATIONAL, SF","FM-16","99999","V020","320,1,V,0067,1","00122,1,C,N","003000,1,9,9","+0190,1","+0190,1","99999,9",,,,,"07,1,+00122,1,99,9","08,1,+00366,1,99,9",,"9,AGL   ,+99999,+99999","99,99,9,07,1,99,9,00122,1,99,9,99,9",,,"10070,1,99999,9",,"61,1",,,,"MET076SPECI FACT 021625Z 32013KT 290V350 3000 -RA BKN004 OVC012 19/19 Q1007 NOSIG=",
"68816099999","2022-02-02T17:00:00","4","-33.964806","18.601667","46.02","CAPE TOWN INTERNATIONAL, SF","FM-15","99999","V020","320,1,N,0062,1","00061,1,C,N","002000,1,9,9","+0190,1","+0180,1","99999,9",,,,,"07,1,+00061,1,99,9",,,"9,AGL   ,+99999,+99999","99,99,9,07,1,99,9,00061,1,99,9,99,9",,,"10080,1,99999,9",,"55,1",,,,"MET073METAR FACT 021700Z 32012KT 2000 +DZ BKN002 19/18 Q1008 TEMPO 3500 BKN004=",
"68816099999","2022-02-02T17:01:00","4","-33.964806","18.601667","46.02","CAPE TOWN INTERNATIONAL, SF","FM-16","99999","V020","320,1,N,0062,1","00061,1,C,N","002000,1,9,9","+0190,1","+0180,1","99999,9",,,,,"07,1,+00061,1,99,9",,,"9,AGL   ,+99999,+99999","99,99,9,07,1,99,9,00061,1,99,9,99,9",,,"10080,1,99999,9",,"55,1",,,,"MET073SPECI FACT 021701Z 32012KT 2000 +DZ BKN002 19/18 Q1008 TEMPO 3500 BKN004=",
"68816099999","2022-02-02T17:31:00","4","-33.964806","18.601667","46.02","CAPE TOWN INTERNATIONAL, SF","FM-16","99999","V020","320,1,N,0062,1","00061,1,C,N","004000,1,9,9","+0180,1","+0180,1","99999,9",,,,,"07,1,+00061,1,99,9",,,"9,AGL   ,+99999,+99999","99,99,9,07,1,99,9,00061,1,99,9,99,9",,,"10080,1,99999,9",,"51,1",,,,"MET061SPECI FACT 021731Z 32012KT 4000 -DZ BKN002 18/18 Q1008 NOSIG=",
"68816099999","2022-02-02T18:00:00","4","-33.964806","18.601667","46.02","CAPE TOWN INTERNATIONAL, SF","FM-12","99999","V020","310,1,N,0067,1","99999,9,9,N","004000,1,9,9","+0180,1","+0176,1","10088,1",,"5,1,02,1","5,1,02,1",,"07,1,+00075,1,07,1",,,"9,AGL   ,+99999,+99999","07,99,1,07,1,99,9,00075,1,99,9,99,9","120,M,+0232,1",,"99999,9,10034,1","7,1,007,1,+999,9","25,1",,,"4,99,0077,1,999","SYN09268816 11140 73113 10180 20176 30034 40088 57007 72555 877// 333 10232 91015 555 20007 91008=",
"68816099999","2022-02-02T18:00:00","4","-33.964806","18.601667","46.02","CAPE TOWN INTERNATIONAL, SF","FM-15","99999","V020","320,1,N,0067,1","00061,1,C,N","004000,1,9,9","+0180,1","+0180,1","99999,9",,,,,"07,1,+00061,1,99,9",,,"9,AGL   ,+99999,+99999","99,99,9,07,1,99,9,00061,1,99,9,99,9",,,"10080,1,99999,9",,"10,1",,,,"MET060METAR FACT 021800Z 32013KT 4000 BR BKN002 18/18 Q1008 NOSIG=",
"68816099999","2022-02-02T18:24:00","4","-33.964806","18.601667","46.02","CAPE TOWN INTERNATIONAL, SF","FM-16","99999","V020","310,1,N,0067,1","00061,1,C,N","002000,1,9,9","+0170,1","+0170,1","99999,9",,,,,"07,1,+00061,1,99,9",,,"9,AGL   ,+99999,+99999","99,99,9,07,1,99,9,00061,1,99,9,99,9",,,"10090,1,99999,9",,"10,1",,,,"MET060SPECI FACT 021824Z 31013KT 2000 BR BKN002 17/17 Q1009 NOSIG=",
"68816099999","2022-02-02T18:58:00","4","-33.964806","18.601667","46.02","CAPE TOWN INTERNATIONAL, SF","FM-16","99999","V020","310,1,N,0057,1","00061,1,C,N","003000,1,9,9","+0170,1","+0170,1","99999,9",,,,,"07,1,+00061,1,99,9",,,"9,AGL   ,+99999,+99999","99,99,9,07,1,99,9,00061,1,99,9,99,9",,,"10090,1,99999,9",,"10,1",,,,"MET060SPECI FACT 021858Z 31011KT 3000 BR BKN002 17/17 Q1009 NOSIG=",
"68816099999","2022-02-02T19:00:00","4","-33.964806","18.601667","46.02","CAPE TOWN INTERNATIONAL, SF","FM-15","99999","V020","310,1,N,0057,1","00061,1,C,N","003000,1,9,9","+0170,1","+0170,1","99999,9",,,,,"07,1,+00061,1,99,9",,,"9,AGL   ,+99999,+99999","99,99,9,07,1,99,9,00061,1,99,9,99,9",,,"10090,1,99999,9",,"10,1",,,,"MET060METAR FACT 021900Z 31011KT 3000 BR BKN002 17/17 Q1009 NOSIG=",
"68816099999","2022-02-02T19:53:00","4","-33.964806","18.601667","46.02","CAPE TOWN INTERNATIONAL, SF","FM-16","99999","V020","320,1,V,0031,1","00152,1,C,N","007000,1,9,9","+0180,1","+0170,1","99999,9",,,,,"07,1,+00152,1,99,9",,,"9,AGL   ,+99999,+99999","99,99,9,07,1,99,9,00152,1,99,9,99,9",,,"10100,1,99999,9",,,,,,"MET080SPECI FACT 021953Z 32006KT 280V350 7000 BKN005 18/17 Q1010 TEMPO 3000 BR BKN002=",
"68816099999","2022-02-02T20:00:00","4","-33.964806","18.601667","46.02","CAPE TOWN INTERNATIONAL, SF","FM-15","99999","V020","320,1,V,0031,1","00152,1,C,N","007000,1,9,9","+0180,1","+0170,1","99999,9",,,,,"07,1,+00152,1,99,9",,,"9,AGL   ,+99999,+99999","99,99,9,07,1,99,9,00152,1,99,9,99,9",,,"10100,1,99999,9",,,,,,"MET080METAR FACT 022000Z 32006KT 280V350 7000 BKN005 18/17 Q1010 TEMPO 3000 BR BKN002=",
"68816099999","2022-02-02T20:56:00","4","-33.964806","18.601667","46.02","CAPE TOWN INTERNATIONAL, SF","FM-16","99999","V020","340,1,N,0036,1","99999,9,9,N","008000,1,9,9","+0180,1","+0180,1","99999,9",,,,,"04,1,+00152,1,99,9",,,"9,AGL   ,+99999,+99999","99,99,9,04,1,99,9,00152,1,99,9,99,9",,,"10100,1,99999,9",,,,,,"MET072SPECI FACT 022056Z 34007KT 8000 SCT005 18/18 Q1010 TEMPO 4000 BR BKN003=",
"68816099999","2022-02-02T21:00:00","4","-33.964806","18.601667","46.02","CAPE TOWN INTERNATIONAL, SF","FM-15","99999","V020","340,1,N,0036,1","99999,9,9,N","008000,1,9,9","+0180,1","+0180,1","99999,9",,,,,"04,1,+00152,1,99,9",,,"9,AGL   ,+99999,+99999","99,99,9,04,1,99,9,00152,1,99,9,99,9",,,"10100,1,99999,9",,,,,,"MET072METAR FACT 022100Z 34007KT 8000 SCT005 18/18 Q1010 TEMPO 4000 BR BKN003=",
"68816099999","2022-02-02T22:00:00","4","-33.964806","18.601667","46.02","CAPE TOWN INTERNATIONAL, SF","FM-15","99999","V020","330,1,N,0046,1","00152,1,C,N","009999,1,9,9","+0180,1","+0170,1","99999,9",,,,,"02,1,+00091,1,99,9","04,1,+00152,1,99,9",,"9,AGL   ,+99999,+99999","99,99,9,02,1,99,9,00091,1,99,9,99,9",,,"10100,1,99999,9",,,,,,"MET079METAR FACT 022200Z 33009KT 9999 FEW003 SCT005 18/17 Q1010 TEMPO 4000 BR BKN003=",
"68816099999","2022-02-02T23:00:00","4","-33.964806","18.601667","46.02","CAPE TOWN INTERNATIONAL, SF","FM-15","99999","V020","330,1,N,0077,1","00152,1,C,N","009999,1,9,9","+0180,1","+0170,1","99999,9",,,,,"07,1,+00152,1,99,9",,,"9,AGL   ,+99999,+99999","99,99,9,07,1,99,9,00152,1,99,9,99,9",,,"10100,1,99999,9",,,,,,"MET072METAR FACT 022300Z 33015KT 9999 BKN005 18/17 Q1010 TEMPO 4000 BR BKN002=",
"68816099999","2022-02-02T23:03:00","4","-33.964806","18.601667","46.02","CAPE TOWN INTERNATIONAL, SF","FM-16","99999","V020","330,1,N,0077,1","00152,1,C,N","009999,1,9,9","+0180,1","+0170,1","99999,9",,,,,"07,1,+00152,1,99,9",,,"9,AGL   ,+99999,+99999","99,99,9,07,1,99,9,00152,1,99,9,99,9",,,"10100,1,99999,9",,,,,,"MET072SPECI FACT 022303Z 33015KT 9999 BKN005 18/17 Q1010 TEMPO 4000 BR BKN002=",
"68816099999","2022-02-03T00:00:00","4","-33.964806","18.601667","46.02","CAPE TOWN INTERNATIONAL, SF","FM-15","99999","V020","340,1,N,0041,1","00152,1,C,N","009999,1,9,9","+0180,1","+0170,1","99999,9",,,,,"07,1,+00152,1,99,9",,,"9,AGL   ,+99999,+99999","99,99,9,07,1,99,9,00152,1,99,9,99,9",,,"10100,1,99999,9",,,,,,"MET072METAR FACT 030000Z 34008KT 9999 BKN005 18/17 Q1010 TEMPO 4000 BR BKN002=",
"68816099999","2022-02-03T01:00:00","4","-33.964806","18.601667","46.02","CAPE TOWN INTERNATIONAL, SF","FM-15","99999","V020","020,1,V,0031,1","00152,1,C,N","009999,1,9,9","+0180,1","+0170,1","99999,9",,,,,"07,1,+00152,1,99,9",,,"9,AGL   ,+99999,+99999","99,99,9,07,1,99,9,00152,1,99,9,99,9",,,"10100,1,99999,9",,,,,,"MET080METAR FACT 030100Z 02006KT 330V040 9999 BKN005 18/17 Q1010 TEMPO 4000 BR BKN002=",
"68816099999","2022-02-03T02:00:00","4","-33.964806","18.601667","46.02","CAPE TOWN INTERNATIONAL, SF","FM-15","99999","V020","010,1,V,0026,1","00762,1,C,N","009999,1,9,9","+0190,1","+0170,1","99999,9",,,,,"02,1,+00305,1,99,9","04,1,+00762,1,99,9",,"9,AGL   ,+99999,+99999","99,99,9,02,1,99,9,00305,1,99,9,99,9",,,"10100,1,99999,9",,,,,,"MET079METAR FACT 030200Z 01005KT 320V050 9999 FEW010 SCT025 19/17 Q1010 TEMPO BKN010=",
"68816099999","2022-02-03T02:03:00","4","-33.964806","18.601667","46.02","CAPE TOWN INTERNATIONAL, SF","FM-16","99999","V020","010,1,V,0026,1","00762,1,C,N","009999,1,9,9","+0190,1","+0170,1","99999,9",,,,,"02,1,+00305,1,99,9","04,1,+00762,1,99,9",,"9,AGL   ,+99999,+99999","99,99,9,02,1,99,9,00305,1,99,9,99,9",,,"10100,1,99999,9",,,,,,"MET079SPECI FACT 030203Z 01005KT 320V050 9999 FEW010 SCT025 19/17 Q1010 TEMPO BKN010=",
"68816099999","2022-02-03T03:00:00","4","-33.964806","18.601667","46.02","CAPE TOWN INTERNATIONAL, SF","FM-15","99999","V020","360,1,V,0026,1","99999,9,9,N","009999,1,9,9","+0180,1","+0160,1","99999,9",,,,,"04,1,+00610,1,99,9",,,"9,AGL   ,+99999,+99999","99,99,9,04,1,99,9,00610,1,99,9,99,9",,,"10110,1,99999,9",,,,,,"MET065METAR FACT 030300Z 36005KT 330V040 9999 SCT020 18/16 Q1011 NOSIG=",
"68816099999","2022-02-03T04:00:00","4","-33.964806","18.601667","46.02","CAPE TOWN INTERNATIONAL, SF","FM-15","99999","V020","010,1,V,0036,1","99999,9,9,N","009999,1,9,9","+0180,1","+0160,1","99999,9",,,,,"04,1,+00610,1,99,9",,,"9,AGL   ,+99999,+99999","99,99,9,04,1,99,9,00610,1,99,9,99,9",,,"10110,1,99999,9",,,,,,"MET065METAR FACT 030400Z 01007KT 340V050 9999 SCT020 18/16 Q1011 NOSIG=",
"68816099999","2022-02-03T05:00:00","4","-33.964806","18.601667","46.02","CAPE TOWN INTERNATIONAL, SF","FM-15","99999","V020","050,1,N,0026,1","00762,1,C,N","009999,1,9,9","+0190,1","+0170,1","99999,9",,,,,"07,1,+00762,1,99,9",,,"9,AGL   ,+99999,+99999","99,99,9,07,1,99,9,00762,1,99,9,99,9",,,"10110,1,99999,9",,,,,,"MET057METAR FACT 030500Z 05005KT 9999 BKN025 19/17 Q1011 NOSIG=",
"68816099999","2022-02-03T05:58:00","4","-33.964806","18.601667","46.02","CAPE TOWN INTERNATIONAL, SF","FM-16","99999","V020","330,1,V,0051,1","00762,1,9,N","004000,1,9,9","+0180,1","+0170,1","99999,9",,,,,"04,1,+00457,1,99,9","07,1,+00762,1,99,9",,"9,AGL   ,+99999,+99999","99,99,9,04,1,99,9,00457,1,99,9,99,9",,,"10120,1,99999,9",,"61,1",,,,"MET088SPECI FACT 030558Z 33010KT 290V350 4000 -RA SCT015 BKN025 18/17 Q1012 TEMPO SHRA BKN015=",
"68816099999","2022-02-03T06:00:00","4","-33.964806","18.601667","46.02","CAPE TOWN INTERNATIONAL, SF","FM-12","99999","V020","330,1,N,0057,1","99999,9,9,N","004000,1,9,9","+0184,1","+0174,1","10130,1","24,0010,3,1","6,1,02,1","2,1,02,1",,"07,1,+00450,1,06,1",,,"9,AGL   ,+99999,+99999","07,99,1,07,1,99,9,00450,1,99,9,99,9","240,N,+0169,1",,"99999,9,10075,1","2,1,017,1,+999,9","60,1",,,"4,99,0082,1,999","SYN10468816 11440 73311 10184 20174 30075 40130 52017 60014 76062 875// 333 20169 91016 555 10232 20010 91013=",
"68816099999","2022-02-03T06:00:00","4","-33.964806","18.601667","46.02","CAPE TOWN INTERNATIONAL, SF","FM-15","99999","V020","330,1,V,0051,1","00762,1,9,N","004000,1,9,9","+0180,1","+0170,1","99999,9",,,,,"04,1,+00457,1,99,9","07,1,+00762,1,99,9",,"9,AGL   ,+99999,+99999","99,99,9,04,1,99,9,00457,1,99,9,99,9",,,"10120,1,99999,9",,"61,1",,,,"MET088METAR FACT 030600Z 33010KT 290V350 4000 -RA SCT015 BKN025 18/17 Q1012 TEMPO SHRA BKN015=",
"68816099999","2022-02-03T06:58:00","4","-33.964806","18.601667","46.02","CAPE TOWN INTERNATIONAL, SF","FM-16","99999","V020","300,1,N,0062,1","00762,1,9,N","006000,1,9,9","+0180,1","+0170,1","99999,9",,,,,"04,1,+00457,1,99,9","07,1,+00762,1,99,9",,"9,AGL   ,+99999,+99999","99,99,9,04,1,99,9,00457,1,99,9,99,9",,,"10130,1,99999,9",,"61,1",,,,"MET085SPECI FACT 030658Z 30012KT 6000 -RA SCT015 BKN025 18/17 Q1013 TEMPO 4000 SHRA BKN015=",
"68816099999","2022-02-03T07:00:00","4","-33.964806","18.601667","46.02","CAPE TOWN INTERNATIONAL, SF","FM-15","99999","V020","300,1,N,0062,1","00762,1,9,N","006000,1,9,9","+0180,1","+0170,1","99999,9",,,,,"04,1,+00457,1,99,9","07,1,+00762,1,99,9",,"9,AGL   ,+99999,+99999","99,99,9,04,1,99,9,00457,1,99,9,99,9",,,"10130,1,99999,9",,"61,1",,,,"MET085METAR FACT 030700Z 30012KT 6000 -RA SCT015 BKN025 18/17 Q1013 TEMPO 4000 SHRA BKN015=",
"68816099999","2022-02-03T07:11:00","4","-33.964806","18.601667","46.02","CAPE TOWN INTERNATIONAL, SF","FM-16","99999","V020","290,1,N,0051,1","00762,1,9,N","002500,1,9,9","+0180,1","+0170,1","99999,9",,,,,"04,1,+00457,1,99,9","07,1,+00762,1,99,9",,"9,AGL   ,+99999,+99999","99,99,9,04,1,99,9,00457,1,99,9,99,9",,,"10140,1,99999,9",,"61,1",,,,"MET075SPECI FACT 030711Z 29010KT 2500 -RA SCT015 BKN025 18/17 Q1014 TEMPO BKN015=",
"68816099999","2022-02-03T07:28:00","4","-33.964806","18.601667","46.02","CAPE TOWN INTERNATIONAL, SF","FM-16","99999","V020","260,1,N,0031,1","00122,1,C,N","002000,1,9,9","+0180,1","+0170,1","99999,9",,,,,"07,1,+00122,1,99,9","08,1,+00762,1,99,9",,"9,AGL   ,+99999,+99999","99,99,9,07,1,99,9,00122,1,99,9,99,9",,,"10140,1,99999,9",,"61,1",,,,"MET068SPECI FACT 030728Z 26006KT 2000 -RA BKN004 OVC025 18/17 Q1014 NOSIG=",
"68816099999","2022-02-03T07:58:00","4","-33.964806","18.601667","46.02","CAPE TOWN INTERNATIONAL, SF","FM-16","99999","V020","310,1,N,0026,1","00122,1,C,N","006000,1,9,9","+0180,1","+0170,1","99999,9",,,,,"07,1,+00122,1,99,9","08,1,+00762,1,99,9",,"9,AGL   ,+99999,+99999","99,99,9,07,1,99,9,00122,1,99,9,99,9",,,"10140,1,99999,9",,"61,1",,,,"MET075SPECI FACT 030758Z 31005KT 6000 -RA BKN004 OVC025 18/17 Q1014 BECMG BKN015=",
"68816099999","2022-02-03T08:00:00","4","-33.964806","18.601667","46.02","CAPE TOWN INTERNATIONAL, SF","FM-15","99999","V020","310,1,N,0026,1","00122,1,C,N","006000,1,9,9","+0180,1","+0170,1","99999,9",,,,,"07,1,+00122,1,99,9","08,1,+00762,1,99,9",,"9,AGL   ,+99999,+99999","99,99,9,07,1,99,9,00122,1,99,9,99,9",,,"10140,1,99999,9",,"61,1",,,,"MET075METAR FACT 030800Z 31005KT 6000 -RA BKN004 OVC025 18/17 Q1014 BECMG BKN015=",
"68816099999","2022-02-03T08:28:00","4","-33.964806","18.601667","46.02","CAPE TOWN INTERNATIONAL, SF","FM-16","99999","V020","210,1,N,0041,1","00488,1,9,N","009999,1,9,9","+0180,1","+0170,1","99999,9",,,,,"02,1,+00122,1,99,9","07,1,+00488,1,99,9",,"9,AGL   ,+99999,+99999","99,99,9,02,1,99,9,00122,1,99,9,99,9",,,"10150,1,99999,9",,,,,,"MET064SPECI FACT 030828Z 21008KT 9999 FEW004 BKN016 18/17 Q1015 NOSIG=",
"68816099999","2022-02-03T09:00:00","4","-33.964806","18.601667","46.02","CAPE TOWN INTERNATIONAL, SF","FM-15","99999","V020","230,1,V,0057,1","00488,1,9,N","009999,1,9,9","+0190,1","+0160,1","99999,9",,,,,"02,1,+00122,1,99,9","07,1,+00488,1,99,9",,"9,AGL   ,+99999,+99999","99,99,9,02,1,99,9,00122,1,99,9,99,9",,,"10150,1,99999,9",,,,,,"MET072METAR FACT 030900Z 23011KT 200V260 9999 FEW004 BKN016 19/16 Q1015 NOSIG=",
"68816099999","2022-02-03T10:00:00","4","-33.964806","18.601667","46.02","CAPE TOWN INTERNATIONAL, SF","FM-15","99999","V020","220,1,N,0041,1","00914,1,9,N","009999,1,9,9","+0200,1","+0140,1","99999,9",,,,,"02,1,+00122,1,99,9","07,1,+00914,1,99,9",,"9,AGL   ,+99999,+99999","99,99,9,02,1,99,9,00122,1,99,9,99,9",,,"10150,1,99999,9",,,,,,"MET064METAR FACT 031000Z 22008KT 9999 FEW004 BKN030 20/14 Q1015 NOSIG=",
"68816099999","2022-02-03T11:00:00","4","-33.964806","18.601667","46.02","CAPE TOWN INTERNATIONAL, SF","FM-15","99999","V020","220,1,V,0031,1","00914,1,C,N","009999,1,9,9","+0220,1","+0130,1","99999,9",,,,,"07,1,+00914,1,99,9",,,"9,AGL   ,+99999,+99999","99,99,9,07,1,99,9,00914,1,99,9,99,9",,,"10150,1,99999,9",,,,,,"MET065METAR FACT 031100Z 22006KT 140V280 9999 BKN030 22/13 Q1015 NOSIG=",
"68816099999","2022-02-03T12:00:00","4","-33.964806","18.601667","46.02","CAPE TOWN INTERNATIONAL, SF","FM-12","99999","V020","170,1,N,0031,1","99999,9,9,N","025000,1,9,9","+0217,1","+0125,1","10159,1","06,0010,3,1","6,1,02,1","2,1,02,1",,"07,1,+01250,1,06,1",,,"9,AGL   ,+99999,+99999","07,99,1,07,1,99,9,01250,1,99,9,99,9","240,N,+0179,1",,"99999,9,10105,1","9,9,006,1,+999,9","02,1",,,"4,99,0062,1,999","SYN09868816 11675 71706 10217 20125 30105 40159 50006 60011 70262 875// 333 20179 91012 555 20011 91015=",
"68816099999","2022-02-03T12:00:00","4","-33.964806","18.601667","46.02","CAPE TOWN INTERNATIONAL, SF","FM-15","99999","V020","200,1,V,0041,1","01128,1,9,N","009999,1,9,9","+0210,1","+0130,1","99999,9",,,,,"02,1,+00975,1,99,9","07,1,+01128,1,99,9",,"9,AGL   ,+99999,+99999","99,99,9,02,1,99,9,00975,1,99,9,99,9",,,"10160,1,99999,9",,,,,,"MET072METAR FACT 031200Z 20008KT 130V220 9999 FEW032 BKN037 21/13 Q1016 NOSIG=",
"68816099999","2022-02-03T13:00:00","4","-33.964806","18.601667","46.02","CAPE TOWN INTERNATIONAL, SF","FM-15","99999","V020","230,1,V,0036,1","99999,9,9,N","009999,1,9,9","+0220,1","+0110,1","99999,9",,,,,"04,1,+01402,1,99,9",,,"9,AGL   ,+99999,+99999","99,99,9,04,1,99,9,01402,1,99,9,99,9",,,"10160,1,99999,9",,,,,,"MET065METAR FACT 031300Z 23007KT 190V250 9999 SCT046 22/11 Q1016 NOSIG=",
"68816099999","2022-02-03T13:29:00","4","-33.964806","18.601667","46.02","CAPE TOWN INTERNATIONAL, SF","FM-16","99999","V020","220,1,V,0051,1","99999,9,9,N","009999,1,9,9","+0240,1","+0100,1","99999,9",,,,,"04,1,+01402,1,99,9",,,"9,AGL   ,+99999,+99999","99,99,9,04,1,99,9,01402,1,99,9,99,9",,,"10160,1,99999,9",,,,,,"MET065SPECI FACT 031329Z 22010KT 170V250 9999 SCT046 24/10 Q1016 NOSIG=",
"68816099999","2022-02-03T14:00:00","4","-33.964806","18.601667","46.02","CAPE TOWN INTERNATIONAL, SF","FM-15","99999","V020","210,1,N,0062,1","99999,9,9,N","009999,1,9,9","+0230,1","+0100,1","99999,9",,,,,"02,1,+01524,1,99,9",,,"9,AGL   ,+99999,+99999","99,99,9,02,1,99,9,01524,1,99,9,99,9",,,"10160,1,99999,9",,,,,,"MET057METAR FACT 031400Z 21012KT 9999 FEW050 23/10 Q1016 NOSIG=",
"68816099999","2022-02-03T15:00:00","4","-33.964806","18.601667","46.02","CAPE TOWN INTERNATIONAL, SF","FM-15","99999","V020","230,1,V,0062,1","99999,9,9,N","009999,1,9,9","+0230,1","+0110,1","99999,9",,,,,"02,1,+01524,1,99,9",,,"9,AGL   ,+99999,+99999","99,99,9,02,1,99,9,01524,1,99,9,99,9",,,"10160,1,99999,9",,,,,,"MET065METAR FACT 031500Z 23012KT 190V250 9999 FEW050 23/11 Q1016 NOSIG=",
"68816099999","2022-02-03T16:00:00","4","-33.964806","18.601667","46.02","CAPE TOWN INTERNATIONAL, SF","FM-15","99999","V020","200,1,N,0057,1","99999,9,9,N","009999,1,9,9","+0230,1","+0120,1","99999,9",,,,,"02,1,+01524,1,99,9",,,"9,AGL   ,+99999,+99999","99,99,9,02,1,99,9,01524,1,99,9,99,9",,,"10160,1,99999,9",,,,,,"MET057METAR FACT 031600Z 20011KT 9999 FEW050 23/12 Q1016 NOSIG=",
"68816099999","2022-02-03T17:00:00","4","-33.964806","18.601667","46.02","CAPE TOWN INTERNATIONAL, SF","FM-15","99999","V020","190,1,N,0072,1","99999,9,9,N","009999,1,9,9","+0190,1","+0140,1","99999,9",,,,,"04,1,+01250,1,99,9",,,"9,AGL   ,+99999,+99999","99,99,9,04,1,99,9,01250,1,99,9,99,9",,,"10170,1,99999,9",,,,,,"MET057METAR FACT 031700Z 19014KT 9999 SCT041 19/14 Q1017 NOSIG=",
"68816099999","2022-02-03T18:00:00","4","-33.964806","18.601667","46.02","CAPE TOWN INTERNATIONAL, SF","FM-12","99999","V020","170,1,N,0041,1","22000,1,9,N","040000,1,9,9","+0182,1","+0133,1","10178,1","12,0010,3,1",,,,"03,1,+01250,1,06,1",,,"9,AGL   ,+99999,+99999","03,99,1,03,1,99,9,01250,1,99,9,99,9","120,M,+0244,1",,"99999,9,10123,1","1,1,019,1,+999,9",,,,"4,99,0072,1,999","SYN09268816 12682 31708 10182 20133 30123 40178 51019 60012 83500 333 10244 91014 555 20011 91017=",
"68816099999","2022-02-03T18:00:00","4","-33.964806","18.601667","46.02","CAPE TOWN INTERNATIONAL, SF","FM-15","99999","V020","170,1,N,0041,1","99999,9,9,N","009999,1,9,9","+0180,1","+0130,1","99999,9",,,,,"04,1,+01189,1,99,9",,,"9,AGL   ,+99999,+99999","99,99,9,04,1,99,9,01189,1,99,9,99,9",,,"10180,1,99999,9",,,,,,"MET057METAR FACT 031800Z 17008KT 9999 SCT039 18/13 Q1018 NOSIG=",
"68816099999","2022-02-03T19:00:00","4","-33.964806","18.601667","46.02","CAPE TOWN INTERNATIONAL, SF","FM-15","99999","V020","190,1,N,0067,1","99999,9,9,N","009999,1,9,9","+0180,1","+0130,1","99999,9",,,,,"04,1,+01219,1,99,9",,,"9,AGL   ,+99999,+99999","99,99,9,04,1,99,9,01219,1,99,9,99,9",,,"10180,1,99999,9",,,,,,"MET057METAR FACT 031900Z 19013KT 9999 SCT040 18/13 Q1018 NOSIG=",
"68816099999","2022-02-03T20:00:00","4","-33.964806","18.601667","46.02","CAPE TOWN INTERNATIONAL, SF","FM-15","99999","V020","170,1,N,0046,1","99999,9,9,N","009999,1,9,9","+0170,1","+0130,1","99999,9",,,,,"04,1,+01219,1,99,9",,,"9,AGL   ,+99999,+99999","99,99,9,04,1,99,9,01219,1,99,9,99,9",,,"10190,1,99999,9",,,,,,"MET057METAR FACT 032000Z 17009KT 9999 SCT040 17/13 Q1019 NOSIG=",
"68816099999","2022-02-03T21:00:00","4","-33.964806","18.601667","46.02","CAPE TOWN INTERNATIONAL, SF","FM-15","99999","V020","160,1,N,0051,1","99999,9,9,N","009999,1,9,9","+0170,1","+0130,1","99999,9",,,,,"02,1,+01219,1,99,9",,,"9,AGL   ,+99999,+99999","99,99,9,02,1,99,9,01219,1,99,9,99,9",,,"10200,1,99999,9",,,,,,"MET057METAR FACT 032100Z 16010KT 9999 FEW040 17/13 Q1020 NOSIG=",
"68816099999","2022-02-03T22:00:00","4","-33.964806","18.601667","46.02","CAPE TOWN INTERNATIONAL, SF","FM-15","99999","V020","160,1,N,0051,1","01524,1,C,N","009999,1,9,9","+0170,1","+0120,1","99999,9",,,,,"07,1,+01524,1,99,9",,,"9,AGL   ,+99999,+99999","99,99,9,07,1,99,9,01524,1,99,9,99,9",,,"10200,1,99999,9",,,,,,"MET057METAR FACT 032200Z 16010KT 9999 BKN050 17/12 Q1020 NOSIG=",
"68816099999","2022-02-03T23:00:00","4","-33.964806","18.601667","46.02","CAPE TOWN INTERNATIONAL, SF","FM-15","99999","V020","160,1,N,0051,1","01372,1,C,N","009999,1,9,9","+0170,1","+0120,1","99999,9",,,,,"07,1,+01372,1,99,9",,,"9,AGL   ,+99999,+99999","99,99,9,07,1,99,9,01372,1,99,9,99,9",,,"10200,1,99999,9",,,,,,"MET057METAR FACT 032300Z 16010KT 9999 BKN045 17/12 Q1020 NOSIG=",
"68816099999","2022-02-04T00:00:00","4","-33.964806","18.601667","46.02","CAPE TOWN INTERNATIONAL, SF","FM-12","99999","V020","170,1,N,0057,1","22000,1,9,N","040000,1,9,9","+0167,1","+0121,1","10206,1","18,0010,3,1",,,,"01,1,+99999,9,06,1",,,"9,AGL   ,+99999,+99999","01,99,1,01,1,99,9,99999,9,99,9,99,9","120,M,+0244,1","120,N,+0167,1","99999,9,10151,1","2,1,013,1,+999,9",,,,"4,99,0077,1,999","SYN09868816 12982 11711 10167 20121 30151 40206 52013 60013 81500 333 10244 20167 91015 555 20011 91020=",
"68816099999","2022-02-04T00:00:00","4","-33.964806","18.601667","46.02","CAPE TOWN INTERNATIONAL, SF","FM-15","99999","V020","170,1,N,0051,1","99999,9,9,N","009999,1,9,9","+0170,1","+0120,1","99999,9",,,,,"02,1,+01524,1,99,9",,,"9,AGL   ,+99999,+99999","99,99,9,02,1,99,9,01524,1,99,9,99,9",,,"10200,1,99999,9",,,,,,"MET057METAR FACT 040000Z 17010KT 9999 FEW050 17/12 Q1020 NOSIG=",
"68816099999","2022-02-04T01:00:00","4","-33.964806","18.601667","46.02","CAPE TOWN INTERNATIONAL, SF","FM-15","99999","V020","170,1,N,0057,1","99999,9,9,N","009999,1,9,9","+0160,1","+0100,1","99999,9",,,,,"02,1,+01219,1,99,9",,,"9,AGL   ,+99999,+99999","99,99,9,02,1,99,9,01219,1,99,9,99,9",,,"10200,1,99999,9",,,,,,"MET057METAR FACT 040100Z 17011KT 9999 FEW040 16/10 Q1020 NOSIG=",
"68816099999","2022-02-04T02:00:00","4","-33.964806","18.601667","46.02","CAPE TOWN INTERNATIONAL, SF","FM-15","99999","V020","170,1,N,0057,1","99999,9,9,Y","009900,5,9,9","+0160,1","+0110,1","99999,9",,,,,,,,,,,,"10200,1,99999,9",,,,,,"MET051METAR FACT 040200Z 17011KT CAVOK 16/11 Q1020 NOSIG=",
"68816099999","2022-02-04T03:00:00","4","-33.964806","18.601667","46.02","CAPE TOWN INTERNATIONAL, SF","FM-15","99999","V020","180,1,N,0072,1","99999,9,9,Y","009900,5,9,9","+0160,1","+0110,1","99999,9",,,,,,,,,,,,"10200,1,99999,9",,,,,,"MET051METAR FACT 040300Z 18014KT CAVOK 16/11 Q1020 NOSIG=",
"68816099999","2022-02-04T04:00:00","4","-33.964806","18.601667","46.02","CAPE TOWN INTERNATIONAL, SF","FM-15","99999","V020","180,1,N,0072,1","99999,9,9,N","009999,1,9,9","+0160,1","+0110,1","99999,9",,,,,"02,1,+00914,1,99,9",,,"9,AGL   ,+99999,+99999","99,99,9,02,1,99,9,00914,1,99,9,99,9",,,"10200,1,99999,9",,,,,,"MET057METAR FACT 040400Z 18014KT 9999 FEW030 16/11 Q1020 NOSIG=",
"68816099999","2022-02-04T05:00:00","4","-33.964806","18.601667","46.02","CAPE TOWN INTERNATIONAL, SF","FM-15","99999","V020","180,1,N,0082,1","99999,9,9,N","009999,1,9,9","+0170,1","+0100,1","99999,9",,,,,"02,1,+00914,1,99,9",,,"9,AGL   ,+99999,+99999","99,99,9,02,1,99,9,00914,1,99,9,99,9",,,"10200,1,99999,9",,,,,,"MET057METAR FACT 040500Z 18016KT 9999 FEW030 17/10 Q1020 NOSIG=",
"68816099999","2022-02-04T06:00:00","4","-33.964806","18.601667","46.02","CAPE TOWN INTERNATIONAL, SF","FM-12","99999","V020","170,1,N,0072,1","22000,1,9,N","030000,1,9,9","+0185,1","+0103,1","10204,1","24,0010,3,1",,,,"99,9,+99999,9,00,1",,,"9,AGL   ,+99999,+99999","01,99,1,00,1,99,9,99999,9,99,9,99,9","240,N,+0159,1",,"99999,9,10149,1","7,1,005,1,+999,9",,,,"4,99,0103,1,999","SYN09868816 12980 11714 10185 20103 30149 40204 57005 60014 80001 333 20159 91020 555 10244 20011 91020=","Q01    003SCCGA1"
"68816099999","2022-02-04T06:00:00","4","-33.964806","18.601667","46.02","CAPE TOWN INTERNATIONAL, SF","FM-15","99999","V020","170,1,N,0082,1","99999,9,9,Y","009900,5,9,9","+0180,1","+0100,1","99999,9",,,,,,,,,,,,"10200,1,99999,9",,,,,,"MET051METAR FACT 040600Z 17016KT CAVOK 18/10 Q1020 NOSIG=",
"68816099999","2022-02-04T07:00:00","4","-33.964806","18.601667","46.02","CAPE TOWN INTERNATIONAL, SF","FM-15","99999","V020","170,1,N,0093,1","99999,9,9,Y","009900,5,9,9","+0200,1","+0090,1","99999,9",,,,,,,,,,,,"10200,1,99999,9",,,,,,"MET051METAR FACT 040700Z 17018KT CAVOK 20/09 Q1020 NOSIG=",
"68816099999","2022-02-04T08:00:00","4","-33.964806","18.601667","46.02","CAPE TOWN INTERNATIONAL, SF","FM-15","99999","V020","170,1,N,0103,1","99999,9,9,Y","009900,5,9,9","+0210,1","+0090,1","99999,9",,,,,,,,,,,,"10200,1,99999,9",,,,,,"MET051METAR FACT 040800Z 17020KT CAVOK 21/09 Q1020 NOSIG=",
"68816099999","2022-02-04T09:00:00","4","-33.964806","18.601667","46.02","CAPE TOWN INTERNATIONAL, SF","FM-15","99999","V020","180,1,N,0108,1","99999,9,9,Y","009900,5,9,9","+0220,1","+0090,1","99999,9",,,,,,,,,,,,"10200,1,99999,9",,,,,,"MET051METAR FACT 040900Z 18021KT CAVOK 22/09 Q1020 NOSIG=",
"68816099999","2022-02-04T10:00:00","4","-33.964806","18.601667","46.02","CAPE TOWN INTERNATIONAL, SF","FM-15","99999","V020","180,1,N,0129,1","99999,9,9,Y","009900,5,9,9","+0220,1","+0100,1","99999,9",,,,,,,,,,,,"10200,1,99999,9",,,,,,"MET051METAR FACT 041000Z 18025KT CAVOK 22/10 Q1020 NOSIG=",
"68816099999","2022-02-04T11:00:00","4","-33.964806","18.601667","46.02","CAPE TOWN INTERNATIONAL, SF","FM-15","99999","V020","180,1,N,0139,1","99999,9,9,N","009999,1,9,9","+0220,1","+0110,1","99999,9",,,,,"02,1,+01067,1,99,9",,,"9,AGL   ,+99999,+99999","99,99,9,02,1,99,9,01067,1,99,9,99,9",,,"10190,1,99999,9",,,,,,"MET057METAR FACT 041100Z 18027KT 9999 FEW035 22/11 Q1019 NOSIG=",
"68816099999","2022-02-04T12:00:00","4","-33.964806","18.601667","46.02","CAPE TOWN INTERNATIONAL, SF","FM-12","99999","V020","180,1,N,0139,1","22000,1,9,N","030000,1,9,9","+0225,1","+0102,1","10190,1",,,,,"99,9,+99999,9,00,1",,,"9,AGL   ,+99999,+99999","04,99,1,00,1,99,9,99999,9,99,9,99,9","240,N,+0185,1",,"99999,9,10134,1","7,1,012,1,+999,9",,,,"4,99,0149,1,999","SYN08068816 32980 41827 10225 20102 30134 40190 57012 80002 333 20185 91029 555 91019=","Q01    003SCCGA1"
"68816099999","2022-02-04T12:00:00","4","-33.964806","18.601667","46.02","CAPE TOWN INTERNATIONAL, SF","FM-15","99999","V020","180,1,N,0139,1","99999,9,9,Y","009900,5,9,9","+0230,1","+0100,1","99999,9",,,,,,,,,,,,"10190,1,99999,9",,,,,,"MET051METAR FACT 041200Z 18027KT CAVOK 23/10 Q1019 NOSIG=",
"68816099999","2022-02-04T13:00:00","4","-33.964806","18.601667","46.02","CAPE TOWN INTERNATIONAL, SF","FM-15","99999","V020","180,1,N,0134,1","99999,9,9,Y","009900,5,9,9","+0230,1","+0100,1","99999,9",,,,,,,,,,,,"10180,1,99999,9",,,,,,"MET051METAR FACT 041300Z 18026KT CAVOK 23/10 Q1018 NOSIG=",
"68816099999","2022-02-04T14:00:00","4","-33.964806","18.601667","46.02","CAPE TOWN INTERNATIONAL, SF","FM-15","99999","V020","180,1,N,0124,1","99999,9,9,Y","009900,5,9,9","+0230,1","+0100,1","99999,9",,,,,,,,,,,,"10170,1,99999,9",,,,,,"MET051METAR FACT 041400Z 18024KT CAVOK 23/10 Q1017 NOSIG=",
"68816099999","2022-02-04T15:00:00","4","-33.964806","18.601667","46.02","CAPE TOWN INTERNATIONAL, SF","FM-15","99999","V020","180,1,N,0124,1","99999,9,9,Y","009900,5,9,9","+0230,1","+0110,1","99999,9",,,,,,,,,,,,"10160,1,99999,9",,,,,,"MET051METAR FACT 041500Z 18024KT CAVOK 23/11 Q1016 NOSIG=",
"68816099999","2022-02-04T16:00:00","4","-33.964806","18.601667","46.02","CAPE TOWN INTERNATIONAL, SF","FM-15","99999","V020","180,1,N,0118,1","99999,9,9,Y","009900,5,9,9","+0220,1","+0110,1","99999,9",,,,,,,,,,,,"10160,1,99999,9",,,,,,"MET051METAR FACT 041600Z 18023KT CAVOK 22/11 Q1016 NOSIG=",
"68816099999","2022-02-04T17:00:00","4","-33.964806","18.601667","46.02","CAPE TOWN INTERNATIONAL, SF","FM-15","99999","V020","170,1,N,0103,1","99999,9,9,Y","009900,5,9,9","+0220,1","+0110,1","99999,9",,,,,,,,,,,,"10160,1,99999,9",,,,,,"MET051METAR FACT 041700Z 17020KT CAVOK 22/11 Q1016 NOSIG=",
"68816099999","2022-02-04T18:00:00","4","-33.964806","18.601667","46.02","CAPE TOWN INTERNATIONAL, SF","FM-12","99999","V020","150,1,N,0088,1","99999,9,9,N","030000,1,9,9","+0211,1","+0106,1","10160,1",,,,,,,,,,"120,M,+0234,1",,"99999,9,10104,1","7,1,003,1,+999,9",,,,"4,99,0098,1,999","SYN07468816 32980 01517 10211 20106 30104 40160 57003 333 10234 91019 555 91016=",
"68816099999","2022-02-04T18:00:00","4","-33.964806","18.601667","46.02","CAPE TOWN INTERNATIONAL, SF","FM-15","99999","V020","150,1,N,0088,1","99999,9,9,Y","009900,5,9,9","+0210,1","+0110,1","99999,9",,,,,,,,,,,,"10160,1,99999,9",,,,,,"MET051METAR FACT 041800Z 15017KT CAVOK 21/11 Q1016 NOSIG=",
"68816099999","2022-02-04T19:00:00","4","-33.964806","18.601667","46.02","CAPE TOWN INTERNATIONAL, SF","FM-15","99999","V020","150,1,N,0082,1","99999,9,9,Y","009900,5,9,9","+0200,1","+0110,1","99999,9",,,,,,,,,,,,"10150,1,99999,9",,,,,,"MET051METAR FACT 041900Z 15016KT CAVOK 20/11 Q1015 NOSIG=",
"68816099999","2022-02-04T20:00:00","4","-33.964806","18.601667","46.02","CAPE TOWN INTERNATIONAL, SF","FM-15","99999","V020","170,1,N,0062,1","99999,9,9,Y","009900,5,9,9","+0190,1","+0100,1","99999,9",,,,,,,,,,,,"10160,1,99999,9",,,,,,"MET051METAR FACT 042000Z 17012KT CAVOK 19/10 Q1016 NOSIG=",
"68816099999","2022-02-04T21:00:00","4","-33.964806","18.601667","46.02","CAPE TOWN INTERNATIONAL, SF","FM-15","99999","V020","160,1,N,0051,1","99999,9,9,Y","009900,5,9,9","+0180,1","+0100,1","99999,9",,,,,,,,,,,,"10150,1,99999,9",,,,,,"MET051METAR FACT 042100Z 16010KT CAVOK 18/10 Q1015 NOSIG=",
"68816099999","2022-02-04T22:00:00","4","-33.964806","18.601667","46.02","CAPE TOWN INTERNATIONAL, SF","FM-15","99999","V020","150,1,N,0051,1","99999,9,9,Y","009900,5,9,9","+0180,1","+0100,1","99999,9",,,,,,,,,,,,"10150,1,99999,9",,,,,,"MET051METAR FACT 042200Z 15010KT CAVOK 18/10 Q1015 NOSIG=",
"68816099999","2022-02-04T23:00:00","4","-33.964806","18.601667","46.02","CAPE TOWN INTERNATIONAL, SF","FM-15","99999","V020","130,1,N,0026,1","99999,9,9,Y","009900,5,9,9","+0160,1","+0100,1","99999,9",,,,,,,,,,,,"10150,1,99999,9",,,,,,"MET051METAR FACT 042300Z 13005KT CAVOK 16/10 Q1015 NOSIG=",
"68816099999","2022-02-05T00:00:00","4","-33.964806","18.601667","46.02","CAPE TOWN INTERNATIONAL, SF","FM-12","99999","V020","250,1,N,0021,1","99999,9,9,N","030000,1,9,9","+0167,1","+0099,1","10152,1",,,,,,,,,,"120,M,+0234,1",,"99999,9,10097,1","7,1,003,1,+999,9",,,,"4,99,0051,1,999","SYN07468816 32980 02504 10167 20099 30097 40152 57003 333 10234 91010 555 91015=",
"68816099999","2022-02-05T00:00:00","4","-33.964806","18.601667","46.02","CAPE TOWN INTERNATIONAL, SF","FM-15","99999","V020","240,1,N,0021,1","99999,9,9,Y","009900,5,9,9","+0160,1","+0100,1","99999,9",,,,,,,,,,,,"10150,1,99999,9",,,,,,"MET051METAR FACT 050000Z 24004KT CAVOK 16/10 Q1015 NOSIG=",
"68816099999","2022-02-05T01:00:00","4","-33.964806","18.601667","46.02","CAPE TOWN INTERNATIONAL, SF","FM-15","99999","V020","200,1,V,0026,1","99999,9,9,Y","009900,5,9,9","+0170,1","+0100,1","99999,9",,,,,,,,,,,,"10140,1,99999,9",,,,,,"MET059METAR FACT 050100Z 20005KT 170V230 CAVOK 17/10 Q1014 NOSIG=",
"68816099999","2022-02-05T02:00:00","4","-33.964806","18.601667","46.02","CAPE TOWN INTERNATIONAL, SF","FM-15","99999","V020","200,1,V,0031,1","99999,9,9,Y","009900,5,9,9","+0170,1","+0110,1","99999,9",,,,,,,,,,,,"10140,1,99999,9",,,,,,"MET059METAR FACT 050200Z 20006KT 170V230 CAVOK 17/11 Q1014 NOSIG=",
"68816099999","2022-02-05T03:00:00","4","-33.964806","18.601667","46.02","CAPE TOWN INTERNATIONAL, SF","FM-15","99999","V020","220,1,N,0031,1","99999,9,9,Y","009900,5,9,9","+0170,1","+0110,1","99999,9",,,,,,,,,,,,"10140,1,99999,9",,,,,,"MET051METAR FACT 050300Z 22006KT CAVOK 17/11 Q1014 NOSIG=",
"68816099999","2022-02-05T04:00:00","4","-33.964806","18.601667","46.02","CAPE TOWN INTERNATIONAL, SF","FM-15","99999","V020","210,1,N,0041,1","99999,9,9,Y","009900,5,9,9","+0180,1","+0110,1","99999,9",,,,,,,,,,,,"10140,1,99999,9",,,,,,"MET051METAR FACT 050400Z 21008KT CAVOK 18/11 Q1014 NOSIG=",
"68816099999","2022-02-05T05:00:00","4","-33.964806","18.601667","46.02","CAPE TOWN INTERNATIONAL, SF","FM-15","99999","V020","230,1,N,0026,1","99999,9,9,Y","009900,5,9,9","+0180,1","+0120,1","99999,9",,,,,,,,,,,,"10140,1,99999,9",,,,,,"MET055METAR COR FACT 050500Z 23005KT CAVOK 18/12 Q1014 NOSIG=",
"68816099999","2022-02-05T06:00:00","4","-33.964806","18.601667","46.02","CAPE TOWN INTERNATIONAL, SF","FM-12","99999","V020","240,1,N,0021,1","99999,9,9,N","030000,1,9,9","+0201,1","+0109,1","10150,1",,,,,,,,,,"240,N,+0151,1",,"99999,9,10096,1","7,1,003,1,+999,9",,,,"4,99,0036,1,999","SYN08068816 32980 02404 10201 20109 30096 40150 57003 333 20151 91007 555 10234 91015=",
"68816099999","2022-02-05T06:00:00","4","-33.964806","18.601667","46.02","CAPE TOWN INTERNATIONAL, SF","FM-15","99999","V020","230,1,V,0021,1","99999,9,9,Y","009900,5,9,9","+0200,1","+0110,1","99999,9",,,,,,,,,,,,"10150,1,99999,9",,,,,,"MET059METAR FACT 050600Z 23004KT 200V270 CAVOK 20/11 Q1015 NOSIG=",
"68816099999","2022-02-05T06:53:00","4","-33.964806","18.601667","46.02","CAPE TOWN INTERNATIONAL, SF","FM-16","99999","V020","230,1,V,0021,1","99999,9,9,Y","009900,5,9,9","+0230,1","+0110,1","99999,9",,,,,,,,,,,,"10150,1,99999,9",,,,,,"MET059SPECI FACT 050653Z 23004KT 190V280 CAVOK 23/11 Q1015 NOSIG=",
"68816099999","2022-02-05T07:00:00","4","-33.964806","18.601667","46.02","CAPE TOWN INTERNATIONAL, SF","FM-15","99999","V020","230,1,V,0021,1","99999,9,9,Y","009900,5,9,9","+0230,1","+0110,1","99999,9",,,,,,,,,,,,"10150,1,99999,9",,,,,,"MET059METAR FACT 050700Z 23004KT 190V280 CAVOK 23/11 Q1015 NOSIG=",
"68816099999","2022-02-05T08:00:00","4","-33.964806","18.601667","46.02","CAPE TOWN INTERNATIONAL, SF","FM-15","99999","V020","190,1,V,0021,1","99999,9,9,Y","009900,5,9,9","+0260,1","+0120,1","99999,9",,,,,,,,,,,,"10150,1,99999,9",,,,,,"MET059METAR FACT 050800Z 19004KT 130V240 CAVOK 26/12 Q1015 NOSIG=",
"68816099999","2022-02-05T08:00:00","4","-33.964806","18.601667","46.02","CAPE TOWN INTERNATIONAL, SF","FM-16","99999","V020","190,1,V,0021,1","99999,9,9,Y","009900,5,9,9","+0260,1","+0120,1","99999,9",,,,,,,,,,,,"10150,1,99999,9",,,,,,"MET059SPECI FACT 050800Z 19004KT 130V240 CAVOK 26/12 Q1015 NOSIG=",
"68816099999","2022-02-05T09:00:00","4","-33.964806","18.601667","46.02","CAPE TOWN INTERNATIONAL, SF","FM-15","99999","V020","180,1,V,0067,1","99999,9,9,Y","009900,5,9,9","+0280,1","+0130,1","99999,9",,,,,,,,,,,,"10150,1,99999,9",,,,,,"MET059METAR FACT 050900Z 18013KT 140V210 CAVOK 28/13 Q1015 NOSIG=",
"68816099999","2022-02-05T10:00:00","4","-33.964806","18.601667","46.02","CAPE TOWN INTERNATIONAL, SF","FM-15","99999","V020","140,1,N,0062,1","99999,9,9,Y","009900,5,9,9","+0290,1","+0130,1","99999,9",,,,,,,,,,,,"10140,1,99999,9",,,,,,"MET051METAR FACT 051000Z 14012KT CAVOK 29/13 Q1014 NOSIG=",
"68816099999","2022-02-05T10:58:00","4","-33.964806","18.601667","46.02","CAPE TOWN INTERNATIONAL, SF","FM-16","99999","V020","180,1,V,0057,1","99999,9,9,Y","009900,5,9,9","+0310,1","+0130,1","99999,9",,,,,,,,,,,,"10140,1,99999,9",,,,,,"MET059SPECI FACT 051058Z 18011KT 140V200 CAVOK 31/13 Q1014 NOSIG=",
"68816099999","2022-02-05T11:00:00","4","-33.964806","18.601667","46.02","CAPE TOWN INTERNATIONAL, SF","FM-15","99999","V020","180,1,V,0057,1","99999,9,9,Y","009900,5,9,9","+0310,1","+0130,1","99999,9",,,,,,,,,,,,"10140,1,99999,9",,,,,,"MET059METAR FACT 051100Z 18011KT 140V200 CAVOK 31/13 Q1014 NOSIG=",
"68816099999","2022-02-05T12:00:00","4","-33.964806","18.601667","46.02","CAPE TOWN INTERNATIONAL, SF","FM-12","99999","V020","210,1,N,0057,1","99999,9,9,N","030000,1,9,9","+0298,1","+0135,1","10138,1",,,,,,,,,,,,"99999,9,10085,1","6,1,002,1,+999,9",,,,"4,99,0072,1,999","SYN06868816 32980 02111 10298 20135 30085 40138 56002 333 91014 555 91013=",
"68816099999","2022-02-05T12:00:00","4","-33.964806","18.601667","46.02","CAPE TOWN INTERNATIONAL, SF","FM-15","99999","V020","210,1,N,0062,1","99999,9,9,Y","009900,5,9,9","+0300,1","+0130,1","99999,9",,,,,,,,,,,,"10140,1,99999,9",,,,,,"MET051METAR FACT 051200Z 21012KT CAVOK 30/13 Q1014 NOSIG=",
"68816099999","2022-02-05T13:00:00","4","-33.964806","18.601667","46.02","CAPE TOWN INTERNATIONAL, SF","FM-15","99999","V020","220,1,N,0062,1","99999,9,9,Y","009900,5,9,9","+0290,1","+0140,1","99999,9",,,,,,,,,,,,"10130,1,99999,9",,,,,,"MET051METAR FACT 051300Z 22012KT CAVOK 29/14 Q1013 NOSIG=",
"68816099999","2022-02-05T14:00:00","4","-33.964806","18.601667","46.02","CAPE TOWN INTERNATIONAL, SF","FM-15","99999","V020","210,1,N,0067,1","99999,9,9,Y","009900,5,9,9","+0290,1","+0150,1","99999,9",,,,,,,,,,,,"10120,1,99999,9",,,,,,"MET051METAR FACT 051400Z 21013KT CAVOK 29/15 Q1012 NOSIG=",
"68816099999","2022-02-05T15:00:00","4","-33.964806","18.601667","46.02","CAPE TOWN INTERNATIONAL, SF","FM-15","99999","V020","210,1,N,0067,1","99999,9,9,Y","009900,5,9,9","+0280,1","+0150,1","99999,9",,,,,,,,,,,,"10120,1,99999,9",,,,,,"MET051METAR FACT 051500Z 21013KT CAVOK 28/15 Q1012 NOSIG=",
"68816099999","2022-02-05T16:00:00","4","-33.964806","18.601667","46.02","CAPE TOWN INTERNATIONAL, SF","FM-15","99999","V020","230,1,N,0072,1","99999,9,9,Y","009900,5,9,9","+0250,1","+0160,1","99999,9",,,,,,,,,,,,"10110,1,99999,9",,,,,,"MET051METAR FACT 051600Z 23014KT CAVOK 25/16 Q1011 NOSIG=",
"68816099999","2022-02-05T16:25:00","4","-33.964806","18.601667","46.02","CAPE TOWN INTERNATIONAL, SF","FM-16","99999","V020","230,1,N,0077,1","99999,9,9,Y","009900,5,9,9","+0240,1","+0150,1","99999,9",,,,,,,,,,,,"10110,1,99999,9",,,,"0139,1",,"MET054SPECI FACT 051625Z 23015G27KT CAVOK 24/15 Q1011 NOSIG=",
"68816099999","2022-02-05T17:00:00","4","-33.964806","18.601667","46.02","CAPE TOWN INTERNATIONAL, SF","FM-15","99999","V020","230,1,N,0077,1","99999,9,9,Y","009900,5,9,9","+0230,1","+0150,1","99999,9",,,,,,,,,,,,"10110,1,99999,9",,,,,,"MET051METAR FACT 051700Z 23015KT CAVOK 23/15 Q1011 NOSIG=",
"68816099999","2022-02-05T18:00:00","4","-33.964806","18.601667","46.02","CAPE TOWN INTERNATIONAL, SF","FM-12","99999","V020","230,1,N,0067,1","22000,1,9,N","030000,1,9,9","+0210,1","+0151,1","10116,1",,,,,"99,9,+99999,9,01,1",,,"9,AGL   ,+99999,+99999","03,99,1,00,1,99,9,99999,9,99,9,99,9","120,M,+0311,1",,"99999,9,10063,1","7,1,004,1,+999,9",,,,"4,99,0077,1,999","SYN08068816 32980 32313 10210 20151 30063 40116 57004 80009 333 10311 91015 555 91011=","Q01    003SCCGA1"
"68816099999","2022-02-05T18:00:00","4","-33.964806","18.601667","46.02","CAPE TOWN INTERNATIONAL, SF","FM-15","99999","V020","230,1,N,0067,1","99999,9,9,Y","009900,5,9,9","+0210,1","+0150,1","99999,9",,,,,,,,,,,,"10110,1,99999,9",,,,,,"MET051METAR FACT 051800Z 23013KT CAVOK 21/15 Q1011 NOSIG=",
"68816099999","2022-02-05T19:00:00","4","-33.964806","18.601667","46.02","CAPE TOWN INTERNATIONAL, SF","FM-15","99999","V020","220,1,N,0051,1","99999,9,9,Y","009900,5,9,9","+0220,1","+0150,1","99999,9",,,,,,,,,,,,"10110,1,99999,9",,,,,,"MET051METAR FACT 051900Z 22010KT CAVOK 22/15 Q1011 NOSIG=",
"68816099999","2022-02-05T20:00:00","4","-33.964806","18.601667","46.02","CAPE TOWN INTERNATIONAL, SF","FM-15","99999","V020","230,1,N,0046,1","99999,9,9,Y","009900,5,9,9","+0210,1","+0150,1","99999,9",,,,,,,,,,,,"10120,1,99999,9",,,,,,"MET051METAR FACT 052000Z 23009KT CAVOK 21/15 Q1012 NOSIG=",
"68816099999","2022-02-05T21:00:00","4","-33.964806","18.601667","46.02","CAPE TOWN INTERNATIONAL, SF","FM-15","99999","V020","210,1,N,0046,1","99999,9,9,Y","009900,5,9,9","+0220,1","+0160,1","99999,9",,,,,,,,,,,,"10110,1,99999,9",,,,,,"MET051METAR FACT 052100Z 21009KT CAVOK 22/16 Q1011 NOSIG=",
"68816099999","2022-02-05T22:00:00","4","-33.964806","18.601667","46.02","CAPE TOWN INTERNATIONAL, SF","FM-15","99999","V020","190,1,N,0062,1","99999,9,9,Y","009900,5,9,9","+0220,1","+0160,1","99999,9",,,,,,,,,,,,"10110,1,99999,9",,,,,,"MET051METAR FACT 052200Z 19012KT CAVOK 22/16 Q1011 NOSIG=",
"68816099999","2022-02-05T23:00:00","4","-33.964806","18.601667","46.02","CAPE TOWN INTERNATIONAL, SF","FM-15","99999","V020","210,1,N,0041,1","99999,9,9,Y","009900,5,9,9","+0200,1","+0150,1","99999,9",,,,,,,,,,,,"10110,1,99999,9",,,,,,"MET051METAR FACT 052300Z 21008KT CAVOK 20/15 Q1011 NOSIG=",
"68816099999","2022-02-06T00:00:00","4","-33.964806","18.601667","46.02","CAPE TOWN INTERNATIONAL, SF","FM-12","99999","V020","190,1,N,0046,1","99999,9,9,N","030000,1,9,9","+0203,1","+0149,1","10108,1",,,,,,,,,,"120,M,+0361,1",,"99999,9,10054,1","7,1,007,1,+999,9",,,,"4,99,0077,1,999","SYN07468816 32980 01909 10203 20149 30054 40108 57007 333 10361 91015 555 91010=",
"68816099999","2022-02-06T00:00:00","4","-33.964806","18.601667","46.02","CAPE TOWN INTERNATIONAL, SF","FM-15","99999","V020","210,1,N,0057,1","99999,9,9,Y","009900,5,9,9","+0200,1","+0150,1","99999,9",,,,,,,,,,,,"10100,1,99999,9",,,,,,"MET051METAR FACT 060000Z 21011KT CAVOK 20/15 Q1010 NOSIG=",
"68816099999","2022-02-06T01:00:00","4","-33.964806","18.601667","46.02","CAPE TOWN INTERNATIONAL, SF","FM-15","99999","V020","230,1,N,0031,1","99999,9,9,Y","009900,5,9,9","+0200,1","+0150,1","99999,9",,,,,,,,,,,,"10100,1,99999,9",,,,,,"MET051METAR FACT 060100Z 23006KT CAVOK 20/15 Q1010 NOSIG=",
"68816099999","2022-02-06T02:00:00","4","-33.964806","18.601667","46.02","CAPE TOWN INTERNATIONAL, SF","FM-15","99999","V020","999,9,V,0010,1","99999,9,9,Y","009900,5,9,9","+0190,1","+0150,1","99999,9",,,,,,,,,,,,"10100,1,99999,9",,,,,,"MET051METAR FACT 060200Z VRB02KT CAVOK 19/15 Q1010 NOSIG=",
"68816099999","2022-02-06T03:00:00","4","-33.964806","18.601667","46.02","CAPE TOWN INTERNATIONAL, SF","FM-15","99999","V020","030,1,N,0021,1","99999,9,9,Y","009900,5,9,9","+0180,1","+0150,1","99999,9",,,,,,,,,,,,"10100,1,99999,9",,,,,,"MET051METAR FACT 060300Z 03004KT CAVOK 18/15 Q1010 NOSIG=",
"68816099999","2022-02-06T04:00:00","4","-33.964806","18.601667","46.02","CAPE TOWN INTERNATIONAL, SF","FM-15","99999","V020","999,9,V,0010,1","99999,9,9,Y","009900,5,9,9","+0170,1","+0150,1","99999,9",,,,,,,,,,,,"10100,1,99999,9",,,,,,"MET051METAR FACT 060400Z VRB02KT CAVOK 17/15 Q1010 NOSIG=",
"68816099999","2022-02-06T05:00:00","4","-33.964806","18.601667","46.02","CAPE TOWN INTERNATIONAL, SF","FM-15","99999","V020","020,1,N,0021,1","99999,9,9,Y","009900,5,9,9","+0180,1","+0150,1","99999,9",,,,,,,,,,,,"10110,1,99999,9",,,,,,"MET051METAR FACT 060500Z 02004KT CAVOK 18/15 Q1011 NOSIG=",
"68816099999","2022-02-06T06:00:00","4","-33.964806","18.601667","46.02","CAPE TOWN INTERNATIONAL, SF","FM-12","99999","V020","999,9,V,0015,1","22000,1,9,N","030000,1,9,9","+0225,1","+0161,1","10113,1",,,,,"02,1,+99999,9,03,1","99,9,+99999,9,00,1",,"9,AGL   ,+99999,+99999","04,99,1,02,1,99,9,99999,9,99,9,99,9","240,N,+0163,1",,"99999,9,10060,1","2,1,006,1,+999,9",,,,"4,99,0031,1,999","SYN08668816 32980 49903 10225 20161 30060 40113 52006 82034 333 20163 91006 555 10311 91011=",
"68816099999","2022-02-06T06:00:00","4","-33.964806","18.601667","46.02","CAPE TOWN INTERNATIONAL, SF","FM-15","99999","V020","999,9,V,0015,1","99999,9,9,Y","009900,5,9,9","+0220,1","+0160,1","99999,9",,,,,,,,,,,,"10110,1,99999,9",,,,,,"MET051METAR FACT 060600Z VRB03KT CAVOK 22/16 Q1011 NOSIG=",
"68816099999","2022-02-06T06:12:00","4","-33.964806","18.601667","46.02","CAPE TOWN INTERNATIONAL, SF","FM-16","99999","V020","030,1,N,0031,1","99999,9,9,Y","009900,5,9,9","+0240,1","+0160,1","99999,9",,,,,,,,,,,,"10110,1,99999,9",,,,,,"MET051SPECI FACT 060612Z 03006KT CAVOK 24/16 Q1011 NOSIG=",
"68816099999","2022-02-06T06:28:00","4","-33.964806","18.601667","46.02","CAPE TOWN INTERNATIONAL, SF","FM-16","99999","V020","030,1,V,0031,1","99999,9,9,Y","009900,5,9,9","+0260,1","+0160,1","99999,9",,,,,,,,,,,,"10110,1,99999,9",,,,,,"MET059SPECI FACT 060628Z 03006KT 360V060 CAVOK 26/16 Q1011 NOSIG=",
"68816099999","2022-02-06T06:56:00","4","-33.964806","18.601667","46.02","CAPE TOWN INTERNATIONAL, SF","FM-16","99999","V020","340,1,V,0026,1","99999,9,9,Y","009900,5,9,9","+0280,1","+0150,1","99999,9",,,,,,,,,,,,"10110,1,99999,9",,,,,,"MET059SPECI FACT 060656Z 34005KT 310V030 CAVOK 28/15 Q1011 NOSIG=",
"68816099999","2022-02-06T07:00:00","4","-33.964806","18.601667","46.02","CAPE TOWN INTERNATIONAL, SF","FM-15","99999","V020","340,1,V,0026,1","99999,9,9,Y","009900,5,9,9","+0280,1","+0150,1","99999,9",,,,,,,,,,,,"10110,1,99999,9",,,,,,"MET059METAR FACT 060700Z 34005KT 310V030 CAVOK 28/15 Q1011 NOSIG=",
"68816099999","2022-02-06T08:00:00","4","-33.964806","18.601667","46.02","CAPE TOWN INTERNATIONAL, SF","FM-15","99999","V020","310,1,V,0062,1","99999,9,9,Y","009900,5,9,9","+0290,2","+0150,1","99999,9",,,,,,,,,,,,"10120,1,99999,9",,,,,,"MET059METAR FACT 060800Z 31012KT 280V360 CAVOK 29/15 Q1012 NOSIG=",
"68816099999","2022-02-06T09:00:00","4","-33.964806","18.601667","46.02","CAPE TOWN INTERNATIONAL, SF","FM-15","99999","V020","320,1,N,0088,1","99999,9,9,Y","009900,5,9,9","+0270,1","+0150,1","99999,9",,,,,,,,,,,,"10130,1,99999,9",,,,,,"MET051METAR FACT 060900Z 32017KT CAVOK 27/15 Q1013 NOSIG=",
"68816099999","2022-02-06T10:00:00","4","-33.964806","18.601667","46.02","CAPE TOWN INTERNATIONAL, SF","FM-15","99999","V020","320,1,N,0077,1","99999,9,9,Y","009900,5,9,9","+0260,1","+0150,1","99999,9",,,,,,,,,,,,"10130,1,99999,9",,,,,,"MET051METAR FACT 061000Z 32015KT CAVOK 26/15 Q1013 NOSIG=",
"68816099999","2022-02-06T11:00:00","4","-33.964806","18.601667","46.02","CAPE TOWN INTERNATIONAL, SF","FM-15","99999","V020","330,1,N,0082,1","99999,9,9,Y","009900,5,9,9","+0270,1","+0150,1","99999,9",,,,,,,,,,,,"10130,1,99999,9",,,,,,"MET051METAR FACT 061100Z 33016KT CAVOK 27/15 Q1013 NOSIG=",
"68816099999","2022-02-06T12:00:00","4","-33.964806","18.601667","46.02","CAPE TOWN INTERNATIONAL, SF","FM-12","99999","V020","320,1,N,0077,1","22000,1,9,N","030000,1,9,9","+0286,1","+0125,1","10126,1",,,,,"02,1,+99999,9,03,1","99,9,+99999,9,00,1",,"9,AGL   ,+99999,+99999","03,99,1,02,1,99,9,99999,9,99,9,99,9",,,"99999,9,10073,1","7,1,004,1,+999,9",,,,"4,99,0103,1,999","SYN07468816 32980 33215 10286 20125 30073 40126 57004 82052 333 91020 555 91012=",
"68816099999","2022-02-06T12:00:00","4","-33.964806","18.601667","46.02","CAPE TOWN INTERNATIONAL, SF","FM-15","99999","V020","320,1,N,0077,1","99999,9,9,Y","009900,5,9,9","+0290,1","+0120,1","99999,9",,,,,,,,,,,,"10120,1,99999,9",,,,,,"MET051METAR FACT 061200Z 32015KT CAVOK 29/12 Q1012 NOSIG=",
"68816099999","2022-02-06T13:00:00","4","-33.964806","18.601667","46.02","CAPE TOWN INTERNATIONAL, SF","FM-15","99999","V020","330,1,N,0077,1","99999,9,9,Y","009900,5,9,9","+0260,1","+0150,1","99999,9",,,,,,,,,,,,"10120,1,99999,9",,,,,,"MET051METAR FACT 061300Z 33015KT CAVOK 26/15 Q1012 NOSIG=",
"68816099999","2022-02-06T14:00:00","4","-33.964806","18.601667","46.02","CAPE TOWN INTERNATIONAL, SF","FM-15","99999","V020","310,1,N,0098,1","99999,9,9,Y","009900,5,9,9","+0250,1","+0140,1","99999,9",,,,,,,,,,,,"10120,1,99999,9",,,,,,"MET051METAR FACT 061400Z 31019KT CAVOK 25/14 Q1012 NOSIG=",
"68816099999","2022-02-06T15:00:00","4","-33.964806","18.601667","46.02","CAPE TOWN INTERNATIONAL, SF","FM-15","99999","V020","330,1,N,0077,1","99999,9,9,Y","009900,5,9,9","+0240,1","+0140,1","99999,9",,,,,,,,,,,,"10120,1,99999,9",,,,,,"MET051METAR FACT 061500Z 33015KT CAVOK 24/14 Q1012 NOSIG=",
"68816099999","2022-02-06T16:00:00","4","-33.964806","18.601667","46.02","CAPE TOWN INTERNATIONAL, SF","FM-15","99999","V020","320,1,N,0062,1","99999,9,9,Y","009900,5,9,9","+0230,1","+0150,1","99999,9",,,,,,,,,,,,"10120,1,99999,9",,,,,,"MET051METAR FACT 061600Z 32012KT CAVOK 23/15 Q1012 NOSIG=",
"68816099999","2022-02-06T17:00:00","4","-33.964806","18.601667","46.02","CAPE TOWN INTERNATIONAL, SF","FM-15","99999","V020","340,1,N,0046,1","99999,9,9,Y","009900,5,9,9","+0190,1","+0160,1","99999,9",,,,,,,,,,,,"10130,1,99999,9",,,,,,"MET051METAR FACT 061700Z 34009KT CAVOK 19/16 Q1013 NOSIG=",
"68816099999","2022-02-06T18:00:00","4","-33.964806","18.601667","46.02","CAPE TOWN INTERNATIONAL, SF","FM-12","99999","V020","020,1,N,0015,1","22000,1,9,N","020000,1,9,9","+0182,1","+0164,1","10139,1",,,,,"01,1,+00450,1,07,1",,,"9,AGL   ,+99999,+99999","01,99,1,01,1,99,9,00450,1,99,9,99,9","120,M,+0296,1",,"99999,9,10085,1","1,1,014,1,+999,9",,,,"4,99,0026,1,999","SYN08068816 32470 10203 10182 20164 30085 40139 51014 81600 333 10296 91005 555 91013=",
"68816099999","2022-02-06T18:00:00","4","-33.964806","18.601667","46.02","CAPE TOWN INTERNATIONAL, SF","FM-15","99999","V020","040,1,V,0026,1","99999,9,9,N","009999,1,9,9","+0180,1","+0160,1","99999,9",,,,,"02,1,+00305,1,99,9",,,"9,AGL   ,+99999,+99999","99,99,9,02,1,99,9,00305,1,99,9,99,9",,,"10140,1,99999,9",,,,,,"MET080METAR FACT 061800Z 04005KT 340V110 9999 FEW010 18/16 Q1014 TEMPO 3000 BR BKN008=",
"68816099999","2022-02-06T19:00:00","4","-33.964806","18.601667","46.02","CAPE TOWN INTERNATIONAL, SF","FM-15","99999","V020","010,1,N,0005,1","99999,9,9,N","009999,1,9,9","+0180,1","+0160,1","99999,9",,,,,"02,1,+00305,1,99,9",,,"9,AGL   ,+99999,+99999","99,99,9,02,1,99,9,00305,1,99,9,99,9",,,"10140,1,99999,9",,,,,,"MET057METAR FACT 061900Z 01001KT 9999 FEW010 18/16 Q1014 NOSIG=",
"68816099999","2022-02-06T20:00:00","4","-33.964806","18.601667","46.02","CAPE TOWN INTERNATIONAL, SF","FM-15","99999","V020","120,1,N,0031,1","99999,9,9,N","009999,1,9,9","+0170,1","+0160,1","99999,9",,,,,"02,1,+00305,1,99,9",,,"9,AGL   ,+99999,+99999","99,99,9,02,1,99,9,00305,1,99,9,99,9",,,"10150,1,99999,9",,,,,,"MET057METAR FACT 062000Z 12006KT 9999 FEW010 17/16 Q1015 NOSIG=",
"68816099999","2022-02-06T21:00:00","4","-33.964806","18.601667","46.02","CAPE TOWN INTERNATIONAL, SF","FM-15","99999","V020","140,1,N,0021,1","99999,9,9,N","009999,1,9,9","+0170,1","+0160,1","99999,9",,,,,"02,1,+00305,1,99,9",,,"9,AGL   ,+99999,+99999","99,99,9,02,1,99,9,00305,1,99,9,99,9",,,"10150,1,99999,9",,,,,,"MET057METAR FACT 062100Z 14004KT 9999 FEW010 17/16 Q1015 NOSIG=",
"68816099999","2022-02-06T22:00:00","4","-33.964806","18.601667","46.02","CAPE TOWN INTERNATIONAL, SF","FM-15","99999","V020","130,1,N,0021,1","99999,9,9,N","009999,1,9,9","+0170,1","+0160,1","99999,9",,,,,"02,1,+00305,1,99,9",,,"9,AGL   ,+99999,+99999","99,99,9,02,1,99,9,00305,1,99,9,99,9",,,"10150,1,99999,9",,,,,,"MET057METAR FACT 062200Z 13004KT 9999 FEW010 17/16 Q1015 NOSIG=",
"68816099999","2022-02-06T23:00:00","4","-33.964806","18.601667","46.02","CAPE TOWN INTERNATIONAL, SF","FM-15","99999","V020","140,1,N,0010,1","99999,9,9,N","008000,1,9,9","+0170,1","+0160,1","99999,9",,,,,"02,1,+00305,1,99,9",,,"9,AGL   ,+99999,+99999","99,99,9,02,1,99,9,00305,1,99,9,99,9",,,"10150,1,99999,9",,,,,,"MET072METAR FACT 062300Z 14002KT 8000 FEW010 17/16 Q1015 TEMPO 5000 BR BKN010=",
"68816099999","2022-02-07T00:00:00","4","-33.964806","18.601667","46.02","CAPE TOWN INTERNATIONAL, SF","FM-15","99999","V020","190,1,N,0015,1","99999,9,9,N","008000,1,9,9","+0160,1","+0150,1","99999,9",,,,,"02,1,+00305,1,99,9",,,"9,AGL   ,+99999,+99999","99,99,9,02,1,99,9,00305,1,99,9,99,9",,,"10140,1,99999,9",,,,,,"MET072METAR FACT 070000Z 19003KT 8000 FEW010 16/15 Q1014 TEMPO 5000 BR BKN010=",
"68816099999","2022-02-07T01:00:00","4","-33.964806","18.601667","46.02","CAPE TOWN INTERNATIONAL, SF","FM-15","99999","V020","190,1,N,0021,1","99999,9,9,N","009999,1,9,9","+0160,1","+0150,1","99999,9",,,,,"02,1,+00305,1,99,9",,,"9,AGL   ,+99999,+99999","99,99,9,02,1,99,9,00305,1,99,9,99,9",,,"10140,1,99999,9",,,,,,"MET057METAR FACT 070100Z 19004KT 9999 FEW010 16/15 Q1014 NOSIG=",
"68816099999","2022-02-07T01:55:00","4","-33.964806","18.601667","46.02","CAPE TOWN INTERNATIONAL, SF","FM-16","99999","V020","150,1,N,0015,1","00457,1,C,N","009999,1,9,9","+0150,1","+0150,1","99999,9",,,,,"07,1,+00457,1,99,9",,,"9,AGL   ,+99999,+99999","99,99,9,07,1,99,9,00457,1,99,9,99,9",,,"10140,1,99999,9",,,,,,"MET064SPECI FACT 070155Z 15003KT 9999 BKN015 15/15 Q1014 TEMPO BKN010=",
"68816099999","2022-02-07T02:00:00","4","-33.964806","18.601667","46.02","CAPE TOWN INTERNATIONAL, SF","FM-15","99999","V020","150,1,N,0015,1","00457,1,C,N","009999,1,9,9","+0150,1","+0150,1","99999,9",,,,,"07,1,+00457,1,99,9",,,"9,AGL   ,+99999,+99999","99,99,9,07,1,99,9,00457,1,99,9,99,9",,,"10140,1,99999,9",,,,,,"MET064METAR FACT 070200Z 15003KT 9999 BKN015 15/15 Q1014 TEMPO BKN010=",
"68816099999","2022-02-07T02:57:00","4","-33.964806","18.601667","46.02","CAPE TOWN INTERNATIONAL, SF","FM-16","99999","V020","150,1,N,0021,1","00488,1,C,N","009999,1,9,9","+0160,1","+0150,1","99999,9",,,,,"07,1,+00488,1,99,9",,,"9,AGL   ,+99999,+99999","99,99,9,07,1,99,9,00488,1,99,9,99,9",,,"10140,1,99999,9",,,,,,"MET057SPECI FACT 070257Z 15004KT 9999 BKN016 16/15 Q1014 NOSIG=",
"68816099999","2022-02-07T03:00:00","4","-33.964806","18.601667","46.02","CAPE TOWN INTERNATIONAL, SF","FM-15","99999","V020","150,1,N,0021,1","00488,1,C,N","009999,1,9,9","+0160,1","+0150,1","99999,9",,,,,"07,1,+00488,1,99,9",,,"9,AGL   ,+99999,+99999","99,99,9,07,1,99,9,00488,1,99,9,99,9",,,"10140,1,99999,9",,,,,,"MET057METAR FACT 070300Z 15004KT 9999 BKN016 16/15 Q1014 NOSIG=",
"68816099999","2022-02-07T04:00:00","4","-33.964806","18.601667","46.02","CAPE TOWN INTERNATIONAL, SF","FM-15","99999","V020","140,1,N,0021,1","00488,1,C,N","009999,1,9,9","+0160,1","+0160,1","99999,9",,,,,"07,1,+00488,1,99,9",,,"9,AGL   ,+99999,+99999","99,99,9,07,1,99,9,00488,1,99,9,99,9",,,"10140,1,99999,9",,,,,,"MET057METAR FACT 070400Z 14004KT 9999 BKN016 16/16 Q1014 NOSIG=",
"68816099999","2022-02-07T04:25:00","4","-33.964806","18.601667","46.02","CAPE TOWN INTERNATIONAL, SF","FM-16","99999","V020","130,1,N,0021,1","00457,1,C,N","009999,1,9,9","+0160,1","+0160,1","99999,9",,,,,"07,1,+00457,1,99,9",,,"9,AGL   ,+99999,+99999","99,99,9,07,1,99,9,00457,1,99,9,99,9",,,"10150,1,99999,9",,,,,,"MET057SPECI FACT 070425Z 13004KT 9999 BKN015 16/16 Q1015 NOSIG=",
"68816099999","2022-02-07T05:00:00","4","-33.964806","18.601667","46.02","CAPE TOWN INTERNATIONAL, SF","FM-15","99999","V020","140,1,N,0021,1","00518,1,C,N","009999,1,9,9","+0170,1","+0160,1","99999,9",,,,,"07,1,+00518,1,99,9",,,"9,AGL   ,+99999,+99999","99,99,9,07,1,99,9,00518,1,99,9,99,9",,,"10150,1,99999,9",,,,,,"MET057METAR FACT 070500Z 14004KT 9999 BKN017 17/16 Q1015 NOSIG=",
"68816099999","2022-02-07T05:01:00","4","-33.964806","18.601667","46.02","CAPE TOWN INTERNATIONAL, SF","FM-16","99999","V020","140,1,N,0021,1","00518,1,C,N","009999,1,9,9","+0170,1","+0160,1","99999,9",,,,,"07,1,+00518,1,99,9",,,"9,AGL   ,+99999,+99999","99,99,9,07,1,99,9,00518,1,99,9,99,9",,,"10150,1,99999,9",,,,,,"MET057SPECI FACT 070501Z 14004KT 9999 BKN017 17/16 Q1015 NOSIG=",
"68816099999","2022-02-07T06:00:00","4","-33.964806","18.601667","46.02","CAPE TOWN INTERNATIONAL, SF","FM-12","99999","V020","180,1,N,0031,1","99999,9,9,N","030000,1,9,9","+0196,1","+0165,1","10155,1",,,,,"06,1,+00450,1,06,1",,,"9,AGL   ,+99999,+99999","06,99,1,06,1,99,9,00450,1,99,9,99,9","240,N,+0146,1",,"99999,9,10101,1","2,1,003,1,+999,9",,,,"4,99,0041,1,999","SYN08668816 32480 61806 10196 20165 30101 40155 52003 86500 333 20146 91008 555 10296 91015=",
"68816099999","2022-02-07T06:00:00","4","-33.964806","18.601667","46.02","CAPE TOWN INTERNATIONAL, SF","FM-15","99999","V020","180,1,V,0026,1","00518,1,C,N","009999,1,9,9","+0190,1","+0170,1","99999,9",,,,,"07,1,+00518,1,99,9",,,"9,AGL   ,+99999,+99999","99,99,9,07,1,99,9,00518,1,99,9,99,9",,,"10150,1,99999,9",,,,,,"MET065METAR FACT 070600Z 18005KT 140V210 9999 BKN017 19/17 Q1015 NOSIG=",
"68816099999","2022-02-07T07:00:00","4","-33.964806","18.601667","46.02","CAPE TOWN INTERNATIONAL, SF","FM-15","99999","V020","190,1,V,0036,1","99999,9,9,N","009999,1,9,9","+0210,1","+0160,1","99999,9",,,,,"04,1,+00549,1,99,9",,,"9,AGL   ,+99999,+99999","99,99,9,04,1,99,9,00549,1,99,9,99,9",,,"10150,1,99999,9",,,,,,"MET065METAR FACT 070700Z 19007KT 150V210 9999 SCT018 21/16 Q1015 NOSIG=",
"68816099999","2022-02-07T08:00:00","4","-33.964806","18.601667","46.02","CAPE TOWN INTERNATIONAL, SF","FM-15","99999","V020","200,1,V,0036,1","99999,9,9,Y","009900,5,9,9","+0230,1","+0160,1","99999,9",,,,,,,,,,,,"10150,1,99999,9",,,,,,"MET059METAR FACT 070800Z 20007KT 160V240 CAVOK 23/16 Q1015 NOSIG=",
"68816099999","2022-02-07T09:00:00","4","-33.964806","18.601667","46.02","CAPE TOWN INTERNATIONAL, SF","FM-15","99999","V020","200,1,V,0036,1","99999,9,9,Y","009900,5,9,9","+0240,1","+0160,1","99999,9",,,,,,,,,,,,"10150,1,99999,9",,,,,,"MET059METAR FACT 070900Z 20007KT 160V250 CAVOK 24/16 Q1015 NOSIG=",
"68816099999","2022-02-07T10:00:00","4","-33.964806","18.601667","46.02","CAPE TOWN INTERNATIONAL, SF","FM-15","99999","V020","190,1,V,0041,1","99999,9,9,Y","009900,5,9,9","+0250,1","+0160,1","99999,9",,,,,,,,,,,,"10150,1,99999,9",,,,,,"MET059METAR FACT 071000Z 19008KT 150V220 CAVOK 25/16 Q1015 NOSIG=",
"68816099999","2022-02-07T11:00:00","4","-33.964806","18.601667","46.02","CAPE TOWN INTERNATIONAL, SF","FM-15","99999","V020","190,1,V,0041,1","99999,9,9,Y","009900,5,9,9","+0260,1","+0160,1","99999,9",,,,,,,,,,,,"10140,1,99999,9",,,,,,"MET059METAR FACT 071100Z 19008KT 150V230 CAVOK 26/16 Q1014 NOSIG=",
"68816099999","2022-02-07T12:00:00","4","-33.964806","18.601667","46.02","CAPE TOWN INTERNATIONAL, SF","FM-12","99999","V020","180,1,N,0041,1","99999,9,9,N","035000,1,9,9","+0265,1","+0161,1","10139,1",,,,,,,,,,"240,N,+0196,1",,"99999,9,10086,1","7,1,002,1,+999,9",,,,"4,99,0051,1,999","SYN07468816 32981 01808 10265 20161 30086 40139 57002 333 20196 91010 555 91014=",
"68816099999","2022-02-07T12:00:00","4","-33.964806","18.601667","46.02","CAPE TOWN INTERNATIONAL, SF","FM-15","99999","V020","180,1,V,0041,1","99999,9,9,Y","009900,5,9,9","+0260,1","+0160,1","99999,9",,,,,,,,,,,,"10140,1,99999,9",,,,,,"MET059METAR FACT 071200Z 18008KT 150V210 CAVOK 26/16 Q1014 NOSIG=",
"68816099999","2022-02-07T13:00:00","4","-33.964806","18.601667","46.02","CAPE TOWN INTERNATIONAL, SF","FM-15","99999","V020","180,1,V,0051,1","99999,9,9,Y","009900,5,9,9","+0260,1","+0160,1","99999,9",,,,,,,,,,,,"10130,1,99999,9",,,,,,"MET059METAR FACT 071300Z 18010KT 140V210 CAVOK 26/16 Q1013 NOSIG=",
"68816099999","2022-02-07T14:00:00","4","-33.964806","18.601667","46.02","CAPE TOWN INTERNATIONAL, SF","FM-15","99999","V020","180,1,N,0067,1","99999,9,9,Y","009900,5,9,9","+0260,1","+0160,1","99999,9",,,,,,,,,,,,"10130,1,99999,9",,,,,,"MET051METAR FACT 071400Z 18013KT CAVOK 26/16 Q1013 NOSIG=",
"68816099999","2022-02-07T15:00:00","4","-33.964806","18.601667","46.02","CAPE TOWN INTERNATIONAL, SF","FM-15","99999","V020","180,1,N,0082,1","99999,9,9,Y","009900,5,9,9","+0250,1","+0170,1","99999,9",,,,,,,,,,,,"10130,1,99999,9",,,,,,"MET051METAR FACT 071500Z 18016KT CAVOK 25/17 Q1013 NOSIG=",
"68816099999","2022-02-07T16:00:00","4","-33.964806","18.601667","46.02","CAPE TOWN INTERNATIONAL, SF","FM-15","99999","V020","180,1,N,0077,1","99999,9,9,Y","009900,5,9,9","+0240,1","+0180,1","99999,9",,,,,,,,,,,,"10120,1,99999,9",,,,,,"MET051METAR FACT 071600Z 18015KT CAVOK 24/18 Q1012 NOSIG=",
"68816099999","2022-02-07T17:00:00","4","-33.964806","18.601667","46.02","CAPE TOWN INTERNATIONAL, SF","FM-15","99999","V020","190,1,N,0072,1","99999,9,9,Y","009900,5,9,9","+0230,1","+0180,1","99999,9",,,,,,,,,,,,"10120,1,99999,9",,,,,,"MET051METAR FACT 071700Z 19014KT CAVOK 23/18 Q1012 NOSIG=",
"68816099999","2022-02-07T17:57:00","4","-33.964806","18.601667","46.02","CAPE TOWN INTERNATIONAL, SF","FM-16","99999","V020","200,1,N,0067,1","00244,1,C,N","009999,1,9,9","+0210,1","+0190,1","99999,9",,,,,"07,1,+00244,1,99,9",,,"9,AGL   ,+99999,+99999","99,99,9,07,1,99,9,00244,1,99,9,99,9",,,"10130,1,99999,9",,,,,,"MET057SPECI FACT 071757Z 20013KT 9999 BKN008 21/19 Q1013 NOSIG=",
"68816099999","2022-02-07T18:00:00","4","-33.964806","18.601667","46.02","CAPE TOWN INTERNATIONAL, SF","FM-12","99999","V020","200,1,N,0067,1","99999,9,9,N","020000,1,9,9","+0209,1","+0186,1","10131,1",,,,,"07,1,+00250,1,07,1",,,"9,AGL   ,+99999,+99999","07,99,1,07,1,99,9,00250,1,99,9,99,9","120,M,+0272,1","120,N,+0146,1","99999,9,10077,1","7,1,002,1,+999,9",,,,"4,99,0077,1,999","SYN08668816 32370 72013 10209 20186 30077 40131 57002 876// 333 10272 20146 91015 555 91013=",
"68816099999","2022-02-07T18:00:00","4","-33.964806","18.601667","46.02","CAPE TOWN INTERNATIONAL, SF","FM-15","99999","V020","200,1,N,0067,1","00244,1,C,N","009999,1,9,9","+0210,1","+0190,1","99999,9",,,,,"07,1,+00244,1,99,9",,,"9,AGL   ,+99999,+99999","99,99,9,07,1,99,9,00244,1,99,9,99,9",,,"10130,1,99999,9",,,,,,"MET057METAR FACT 071800Z 20013KT 9999 BKN008 21/19 Q1013 NOSIG=",
"68816099999","2022-02-07T18:57:00","4","-33.964806","18.601667","46.02","CAPE TOWN INTERNATIONAL, SF","FM-16","99999","V020","200,1,N,0062,1","00183,1,C,N","009999,1,9,9","+0200,1","+0190,1","99999,9",,,,,"07,1,+00183,1,99,9",,,"9,AGL   ,+99999,+99999","99,99,9,07,1,99,9,00183,1,99,9,99,9",,,"10130,1,99999,9",,,,,,"MET057SPECI FACT 071857Z 20012KT 9999 BKN006 20/19 Q1013 NOSIG=",
"68816099999","2022-02-07T19:00:00","4","-33.964806","18.601667","46.02","CAPE TOWN INTERNATIONAL, SF","FM-15","99999","V020","200,1,N,0062,1","00183,1,C,N","009999,1,9,9","+0200,1","+0190,1","99999,9",,,,,"07,1,+00183,1,99,9",,,"9,AGL   ,+99999,+99999","99,99,9,07,1,99,9,00183,1,99,9,99,9",,,"10130,1,99999,9",,,,,,"MET057METAR FACT 071900Z 20012KT 9999 BKN006 20/19 Q1013 NOSIG=",
"68816099999","2022-02-07T19:58:00","4","-33.964806","18.601667","46.02","CAPE TOWN INTERNATIONAL, SF","FM-16","99999","V020","210,1,N,0057,1","00091,1,C,N","009999,1,9,9","+0190,1","+0180,1","99999,9",,,,,"07,1,+00091,1,99,9",,,"9,AGL   ,+99999,+99999","99,99,9,07,1,99,9,00091,1,99,9,99,9",,,"10130,1,99999,9",,,,,,"MET057SPECI FACT 071958Z 21011KT 9999 BKN003 19/18 Q1013 NOSIG=",
"68816099999","2022-02-07T20:00:00","4","-33.964806","18.601667","46.02","CAPE TOWN INTERNATIONAL, SF","FM-15","99999","V020","210,1,N,0057,1","00091,1,C,N","009999,1,9,9","+0190,1","+0180,1","99999,9",,,,,"07,1,+00091,1,99,9",,,"9,AGL   ,+99999,+99999","99,99,9,07,1,99,9,00091,1,99,9,99,9",,,"10130,1,99999,9",,,,,,"MET057METAR FACT 072000Z 21011KT 9999 BKN003 19/18 Q1013 NOSIG=",
"68816099999","2022-02-07T21:00:00","4","-33.964806","18.601667","46.02","CAPE TOWN INTERNATIONAL, SF","FM-15","99999","V020","210,1,N,0062,1","00122,1,C,N","009999,1,9,9","+0190,1","+0180,1","99999,9",,,,,"07,1,+00122,1,99,9",,,"9,AGL   ,+99999,+99999","99,99,9,07,1,99,9,00122,1,99,9,99,9",,,"10130,1,99999,9",,,,,,"MET057METAR FACT 072100Z 21012KT 9999 BKN004 19/18 Q1013 NOSIG=",
"68816099999","2022-02-07T22:00:00","4","-33.964806","18.601667","46.02","CAPE TOWN INTERNATIONAL, SF","FM-15","99999","V020","200,1,N,0077,1","00030,1,W,N","000600,1,9,9","+0180,1","+0180,1","99999,9",,,,,"09,1,+00030,1,99,9",,,"9,AGL   ,+99999,+99999","09,99,1,09,1,99,9,00030,1,99,9,99,9",,,"10130,1,99999,9",,"44,1",,,,"MET059METAR FACT 072200Z 20015KT 0600 FG VV001 18/18 Q1013 NOSIG=",
"68816099999","2022-02-07T22:01:00","4","-33.964806","18.601667","46.02","CAPE TOWN INTERNATIONAL, SF","FM-16","99999","V020","200,1,N,0077,1","00030,1,W,N","000600,1,9,9","+0180,1","+0180,1","99999,9",,,,,"09,1,+00030,1,99,9",,,"9,AGL   ,+99999,+99999","09,99,1,09,1,99,9,00030,1,99,9,99,9",,,"10130,1,99999,9",,"44,1",,,,"MET059SPECI FACT 072201Z 20015KT 0600 FG VV001 18/18 Q1013 NOSIG=",
"68816099999","2022-02-07T23:00:00","4","-33.964806","18.601667","46.02","CAPE TOWN INTERNATIONAL, SF","FM-15","99999","V020","200,1,N,0077,1","00030,1,W,N","000400,1,9,9","+0180,1","+0180,1","99999,9",,,,,"09,1,+00030,1,99,9",,,"9,AGL   ,+99999,+99999","09,99,1,09,1,99,9,00030,1,99,9,99,9",,,"10130,1,99999,9",,"44,1",,,,"MET059METAR FACT 072300Z 20015KT 0400 FG VV001 18/18 Q1013 NOSIG=",
"68816099999","2022-02-07T23:04:00","4","-33.964806","18.601667","46.02","CAPE TOWN INTERNATIONAL, SF","FM-16","99999","V020","200,1,N,0077,1","00030,1,W,N","000400,1,9,9","+0180,1","+0180,1","99999,9",,,,,"09,1,+00030,1,99,9",,,"9,AGL   ,+99999,+99999","09,99,1,09,1,99,9,00030,1,99,9,99,9",,,"10130,1,99999,9",,"44,1",,,,"MET059SPECI FACT 072304Z 20015KT 0400 FG VV001 18/18 Q1013 NOSIG=",
"68816099999","2022-02-07T23:56:00","4","-33.964806","18.601667","46.02","CAPE TOWN INTERNATIONAL, SF","FM-16","99999","V020","190,1,N,0062,1","00061,1,W,N","000300,1,9,9","+0180,1","+0180,1","99999,9",,,,,"09,1,+00061,1,99,9",,,"9,AGL   ,+99999,+99999","09,99,1,09,1,99,9,00061,1,99,9,99,9",,,"10130,1,99999,9",,"44,1",,,,"MET059SPECI FACT 072356Z 19012KT 0300 FG VV002 18/18 Q1013 NOSIG=",
"68816099999","2022-02-08T00:00:00","4","-33.964806","18.601667","46.02","CAPE TOWN INTERNATIONAL, SF","FM-12","99999","V020","190,1,N,0062,1","00060,1,W,N","000300,1,9,9","+0181,1","+0179,1","10131,1",,"2,1,02,1","2,1,02,1",,"09,1,+00075,1,99,9",,,"9,AGL   ,+99999,+99999","09,99,1,09,1,99,9,00075,1,99,9,99,9","120,M,+0248,1","120,N,+0180,1","99999,9,10076,1","7,1,002,1,+999,9","47,1",,,"4,99,0077,1,999","SYN09268816 31103 91912 10181 20179 30076 40131 57002 74722 89/// 333 10248 20180 91015 555 91013=",
"68816099999","2022-02-08T00:00:00","4","-33.964806","18.601667","46.02","CAPE TOWN INTERNATIONAL, SF","FM-15","99999","V020","190,1,N,0062,1","00061,1,W,N","000300,1,9,9","+0180,1","+0180,1","99999,9",,,,,"09,1,+00061,1,99,9",,,"9,AGL   ,+99999,+99999","09,99,1,09,1,99,9,00061,1,99,9,99,9",,,"10130,1,99999,9",,"44,1",,,,"MET059METAR FACT 080000Z 19012KT 0300 FG VV002 18/18 Q1013 NOSIG=",
"68816099999","2022-02-08T01:00:00","4","-33.964806","18.601667","46.02","CAPE TOWN INTERNATIONAL, SF","FM-15","99999","V020","200,1,N,0051,1","00061,1,W,N","000300,1,9,9","+0180,1","+0180,1","99999,9",,,,,"09,1,+00061,1,99,9",,,"9,AGL   ,+99999,+99999","09,99,1,09,1,99,9,00061,1,99,9,99,9",,,"10120,1,99999,9",,"44,1",,,,"MET059METAR FACT 080100Z 20010KT 0300 FG VV002 18/18 Q1012 NOSIG=",
"68816099999","2022-02-08T02:00:00","4","-33.964806","18.601667","46.02","CAPE TOWN INTERNATIONAL, SF","FM-15","99999","V020","210,1,N,0051,1","00061,1,W,N","000300,1,9,9","+0180,1","+0180,1","99999,9",,,,,"09,1,+00061,1,99,9",,,"9,AGL   ,+99999,+99999","09,99,1,09,1,99,9,00061,1,99,9,99,9",,,"10110,1,99999,9",,"44,1",,,,"MET059METAR FACT 080200Z 21010KT 0300 FG VV002 18/18 Q1011 NOSIG=",
"68816099999","2022-02-08T02:58:00","4","-33.964806","18.601667","46.02","CAPE TOWN INTERNATIONAL, SF","FM-16","99999","V020","210,1,N,0041,1","00030,1,W,N","000300,1,9,9","+0170,1","+0170,1","99999,9",,,,,"09,1,+00030,1,99,9",,,"9,AGL   ,+99999,+99999","09,99,1,09,1,99,9,00030,1,99,9,99,9",,,"10110,1,99999,9",,"44,1",,,,"MET059SPECI FACT 080258Z 21008KT 0300 FG VV001 17/17 Q1011 NOSIG=",
"68816099999","2022-02-08T03:00:00","4","-33.964806","18.601667","46.02","CAPE TOWN INTERNATIONAL, SF","FM-15","99999","V020","210,1,N,0041,1","00030,1,W,N","000300,1,9,9","+0170,1","+0170,1","99999,9",,,,,"09,1,+00030,1,99,9",,,"9,AGL   ,+99999,+99999","09,99,1,09,1,99,9,00030,1,99,9,99,9",,,"10110,1,99999,9",,"44,1",,,,"MET059METAR FACT 080300Z 21008KT 0300 FG VV001 17/17 Q1011 NOSIG=",
"68816099999","2022-02-08T04:00:00","4","-33.964806","18.601667","46.02","CAPE TOWN INTERNATIONAL, SF","FM-15","99999","V020","220,1,N,0041,1","00030,1,W,N","000300,1,9,9","+0170,1","+0170,1","99999,9",,,,,"09,1,+00030,1,99,9",,,"9,AGL   ,+99999,+99999","09,99,1,09,1,99,9,00030,1,99,9,99,9",,,"10110,1,99999,9",,"44,1",,,,"MET059METAR FACT 080400Z 22008KT 0300 FG VV001 17/17 Q1011 NOSIG=",
"68816099999","2022-02-08T04:58:00","4","-33.964806","18.601667","46.02","CAPE TOWN INTERNATIONAL, SF","FM-16","99999","V020","170,1,N,0021,1","00030,1,W,N","000300,1,9,9","+0160,1","+0160,1","99999,9",,,,"19,U,9999,9","09,1,+00030,1,99,9",,,"9,AGL   ,+99999,+99999","09,99,1,09,1,99,9,00030,1,99,9,99,9",,,"10110,1,99999,9",,"44,1",,,,"MET068SPECI FACT 080458Z 17004KT 0300 R19/0550 FG VV001 16/16 Q1011 NOSIG=",
"68816099999","2022-02-08T05:00:00","4","-33.964806","18.601667","46.02","CAPE TOWN INTERNATIONAL, SF","FM-15","99999","V020","170,1,N,0021,1","00030,1,W,N","000300,1,9,9","+0160,1","+0160,1","99999,9",,,,"19,U,9999,9","09,1,+00030,1,99,9",,,"9,AGL   ,+99999,+99999","09,99,1,09,1,99,9,00030,1,99,9,99,9",,,"10110,1,99999,9",,"44,1",,,,"MET068METAR FACT 080500Z 17004KT 0300 R19/0550 FG VV001 16/16 Q1011 NOSIG=",
"68816099999","2022-02-08T05:59:00","4","-33.964806","18.601667","46.02","CAPE TOWN INTERNATIONAL, SF","FM-16","99999","V020","210,1,N,0026,1","00061,1,C,N","000500,1,9,9","+0170,1","+0170,1","99999,9",,,,"19,U,9999,9","07,1,+00061,1,99,9",,,"9,AGL   ,+99999,+99999","99,99,9,07,1,99,9,00061,1,99,9,99,9",,,"10120,1,99999,9",,"44,1",,,,"MET076SPECI FACT 080559Z 21005KT 0500 R19/1000 FG BKN002 17/17 Q1012 BECMG BKN008=",
"68816099999","2022-02-08T06:00:00","4","-33.964806","18.601667","46.02","CAPE TOWN INTERNATIONAL, SF","FM-12","99999","V020","210,1,N,0021,1","99999,9,9,N","000500,1,9,9","+0170,1","+0169,1","10123,1",,"4,1,02,1","4,1,02,1",,"07,1,+00075,1,06,1",,,"9,AGL   ,+99999,+99999","07,99,1,07,1,99,9,00075,1,99,9,99,9","240,N,+0162,1",,"99999,9,10068,1","2,1,004,1,+999,9","42,1",,,"4,99,0041,1,999","SYN09268816 31105 72104 10170 20169 30068 40123 52004 74244 875// 333 20162 91008 555 10272 91012=",
"68816099999","2022-02-08T06:00:00","4","-33.964806","18.601667","46.02","CAPE TOWN INTERNATIONAL, SF","FM-15","99999","V020","210,1,N,0026,1","00061,1,C,N","000500,1,9,9","+0170,1","+0170,1","99999,9",,,,"19,U,9999,9","07,1,+00061,1,99,9",,,"9,AGL   ,+99999,+99999","99,99,9,07,1,99,9,00061,1,99,9,99,9",,,"10120,1,99999,9",,"44,1",,,,"MET076METAR FACT 080600Z 21005KT 0500 R19/1000 FG BKN002 17/17 Q1012 BECMG BKN008=",
"68816099999","2022-02-08T06:27:00","4","-33.964806","18.601667","46.02","CAPE TOWN INTERNATIONAL, SF","FM-16","99999","V020","240,1,V,0021,1","00061,1,C,N","000800,1,9,9","+0170,1","+0170,1","99999,9",,,,"19,U,9999,9","07,1,+00061,1,99,9",,,"9,AGL   ,+99999,+99999","99,99,9,07,1,99,9,00061,1,99,9,99,9",,,"10120,1,99999,9",,"44,1",,,,"MET090SPECI FACT 080627Z 24004KT 210V270 0800 R19/P1500 FG BKN002 17/17 Q1012 BECMG 1500 BKN008=",
"68816099999","2022-02-08T06:56:00","4","-33.964806","18.601667","46.02","CAPE TOWN INTERNATIONAL, SF","FM-16","99999","V020","220,1,V,0021,1","99999,9,9,N","009000,1,9,9","+0180,1","+0180,1","99999,9",,,,,"02,1,+00152,1,99,9",,,"9,AGL   ,+99999,+99999","99,99,9,02,1,99,9,00152,1,99,9,99,9",,,"10120,1,99999,9",,,,,,"MET065SPECI FACT 080656Z 22004KT 160V260 9000 FEW005 18/18 Q1012 NOSIG=",
"68816099999","2022-02-08T07:00:00","4","-33.964806","18.601667","46.02","CAPE TOWN INTERNATIONAL, SF","FM-15","99999","V020","220,1,V,0021,1","99999,9,9,N","009000,1,9,9","+0180,1","+0180,1","99999,9",,,,,"02,1,+00152,1,99,9",,,"9,AGL   ,+99999,+99999","99,99,9,02,1,99,9,00152,1,99,9,99,9",,,"10120,1,99999,9",,,,,,"MET065METAR FACT 080700Z 22004KT 160V260 9000 FEW005 18/18 Q1012 NOSIG=",
"68816099999","2022-02-08T07:25:00","4","-33.964806","18.601667","46.02","CAPE TOWN INTERNATIONAL, SF","FM-16","99999","V020","200,1,N,0046,1","99999,9,9,N","009999,1,9,9","+0200,1","+0180,1","99999,9",,,,,"02,1,+00213,1,99,9",,,"9,AGL   ,+99999,+99999","99,99,9,02,1,99,9,00213,1,99,9,99,9",,,"10120,1,99999,9",,,,,,"MET057SPECI FACT 080725Z 20009KT 9999 FEW007 20/18 Q1012 NOSIG=",
"68816099999","2022-02-08T07:54:00","4","-33.964806","18.601667","46.02","CAPE TOWN INTERNATIONAL, SF","FM-16","99999","V020","200,1,N,0051,1","99999,9,9,Y","009900,5,9,9","+0220,1","+0170,1","99999,9",,,,,,,,,,,,"10120,1,99999,9",,,,,,"MET051SPECI FACT 080754Z 20010KT CAVOK 22/17 Q1012 NOSIG=",
"68816099999","2022-02-08T08:00:00","4","-33.964806","18.601667","46.02","CAPE TOWN INTERNATIONAL, SF","FM-15","99999","V020","200,1,N,0051,1","99999,9,9,Y","009900,5,9,9","+0220,1","+0170,1","99999,9",,,,,,,,,,,,"10120,1,99999,9",,,,,,"MET051METAR FACT 080800Z 20010KT CAVOK 22/17 Q1012 NOSIG=",
"68816099999","2022-02-08T09:00:00","4","-33.964806","18.601667","46.02","CAPE TOWN INTERNATIONAL, SF","FM-15","99999","V020","200,1,V,0031,1","99999,9,9,Y","009900,5,9,9","+0240,1","+0170,1","99999,9",,,,,,,,,,,,"10120,1,99999,9",,,,,,"MET059METAR FACT 080900Z 20006KT 170V230 CAVOK 24/17 Q1012 NOSIG=",
"68816099999","2022-02-08T09:24:00","4","-33.964806","18.601667","46.02","CAPE TOWN INTERNATIONAL, SF","FM-16","99999","V020","190,1,N,0046,1","99999,9,9,Y","009900,5,9,9","+0270,1","+0170,1","99999,9",,,,,,,,,,,,"10120,1,99999,9",,,,,,"MET051SPECI FACT 080924Z 19009KT CAVOK 27/17 Q1012 NOSIG=",
"68816099999","2022-02-08T10:00:00","4","-33.964806","18.601667","46.02","CAPE TOWN INTERNATIONAL, SF","FM-15","99999","V020","180,1,N,0057,1","99999,9,9,Y","009900,5,9,9","+0260,1","+0170,1","99999,9",,,,,,,,,,,,"10120,1,99999,9",,,,,,"MET051METAR FACT 081000Z 18011KT CAVOK 26/17 Q1012 NOSIG=",
"68816099999","2022-02-08T11:00:00","4","-33.964806","18.601667","46.02","CAPE TOWN INTERNATIONAL, SF","FM-15","99999","V020","170,1,V,0057,1","99999,9,9,Y","009900,5,9,9","+0270,1","+0170,1","99999,9",,,,,,,,,,,,"10110,1,99999,9",,,,,,"MET059METAR FACT 081100Z 17011KT 140V210 CAVOK 27/17 Q1011 NOSIG=",
"68816099999","2022-02-08T12:00:00","4","-33.964806","18.601667","46.02","CAPE TOWN INTERNATIONAL, SF","FM-12","99999","V020","170,1,N,0062,1","99999,9,9,N","040000,1,9,9","+0262,1","+0174,1","10108,1",,,,,"99,9,+99999,9,00,1",,,"9,AGL   ,+99999,+99999","05,99,1,00,1,99,9,99999,9,99,9,99,9","240,N,+0166,1",,"99999,9,10055,1","7,1,001,1,+999,9",,,,"4,99,0051,1,999","SYN08068816 32982 51712 10262 20174 30055 40108 57001 80002 333 20166 91010 555 91011=","Q01    003SCCGA1"
"68816099999","2022-02-08T12:00:00","4","-33.964806","18.601667","46.02","CAPE TOWN INTERNATIONAL, SF","FM-15","99999","V020","170,1,V,0057,1","99999,9,9,Y","009900,5,9,9","+0260,1","+0170,1","99999,9",,,,,,,,,,,,"10110,1,99999,9",,,,,,"MET059METAR FACT 081200Z 17011KT 130V190 CAVOK 26/17 Q1011 NOSIG=",
"68816099999","2022-02-08T13:00:00","4","-33.964806","18.601667","46.02","CAPE TOWN INTERNATIONAL, SF","FM-15","99999","V020","160,1,V,0057,1","99999,9,9,Y","009900,5,9,9","+0260,1","+0180,1","99999,9",,,,,,,,,,,,"10100,1,99999,9",,,,,,"MET059METAR FACT 081300Z 16011KT 130V200 CAVOK 26/18 Q1010 NOSIG=",
"68816099999","2022-02-08T14:00:00","4","-33.964806","18.601667","46.02","CAPE TOWN INTERNATIONAL, SF","FM-15","99999","V020","170,1,N,0067,1","99999,9,9,Y","009900,5,9,9","+0250,1","+0170,1","99999,9",,,,,,,,,,,,"10100,1,99999,9",,,,,,"MET051METAR FACT 081400Z 17013KT CAVOK 25/17 Q1010 NOSIG=",
"68816099999","2022-02-08T15:00:00","4","-33.964806","18.601667","46.02","CAPE TOWN INTERNATIONAL, SF","FM-15","99999","V020","170,1,V,0062,1","99999,9,9,Y","009900,5,9,9","+0250,1","+0170,1","99999,9",,,,,,,,,,,,"10100,1,99999,9",,,,,,"MET059METAR FACT 081500Z 17012KT 140V200 CAVOK 25/17 Q1010 NOSIG=",
"68816099999","2022-02-08T16:00:00","4","-33.964806","18.601667","46.02","CAPE TOWN INTERNATIONAL, SF","FM-15","99999","V020","160,1,N,0062,1","99999,9,9,Y","009900,5,9,9","+0240,1","+0170,1","99999,9",,,,,,,,,,,,"10100,1,99999,9",,,,,,"MET051METAR FACT 081600Z 16012KT CAVOK 24/17 Q1010 NOSIG=",
"68816099999","2022-02-08T17:00:00","4","-33.964806","18.601667","46.02","CAPE TOWN INTERNATIONAL, SF","FM-15","99999","V020","150,1,N,0057,1","99999,9,9,Y","009900,5,9,9","+0220,1","+0170,1","99999,9",,,,,,,,,,,,"10100,1,99999,9",,,,,,"MET051METAR FACT 081700Z 15011KT CAVOK 22/17 Q1010 NOSIG=",
"68816099999","2022-02-08T18:00:00","4","-33.964806","18.601667","46.02","CAPE TOWN INTERNATIONAL, SF","FM-15","99999","V020","160,1,N,0067,1","99999,9,9,Y","009900,5,9,9","+0200,1","+0170,1","99999,9",,,,,,,,,,,,"10110,1,99999,9",,,,,,"MET051METAR FACT 081800Z 16013KT CAVOK 20/17 Q1011 NOSIG=",
"68816099999","2022-02-08T19:00:00","4","-33.964806","18.601667","46.02","CAPE TOWN INTERNATIONAL, SF","FM-15","99999","V020","170,1,N,0051,1","99999,9,9,Y","009900,5,9,9","+0190,1","+0160,1","99999,9",,,,,,,,,,,,"10120,1,99999,9",,,,,,"MET051METAR FACT 081900Z 17010KT CAVOK 19/16 Q1012 NOSIG=",
"68816099999","2022-02-08T20:00:00","4","-33.964806","18.601667","46.02","CAPE TOWN INTERNATIONAL, SF","FM-15","99999","V020","170,1,N,0046,1","99999,9,9,Y","009900,5,9,9","+0190,1","+0160,1","99999,9",,,,,,,,,,,,"10120,1,99999,9",,,,,,"MET051METAR FACT 082000Z 17009KT CAVOK 19/16 Q1012 NOSIG=",
"68816099999","2022-02-08T21:00:00","4","-33.964806","18.601667","46.02","CAPE TOWN INTERNATIONAL, SF","FM-12","99999","V020","150,1,N,0031,1","99999,9,9,N","040000,1,9,9","+0172,1","+0155,1","10129,1",,,,,,,,,,"240,M,+0271,1","240,N,+0172,1","99999,9,10074,1","2,1,008,1,+999,9",,,,"4,99,0041,1,999","SYN07068816 42982 01506 10172 20155 30074 40129 52008 333 10271 20172 91008=",
"68816099999","2022-02-08T21:00:00","4","-33.964806","18.601667","46.02","CAPE TOWN INTERNATIONAL, SF","FM-15","99999","V020","150,1,N,0031,1","99999,9,9,Y","009900,5,9,9","+0170,1","+0160,1","99999,9",,,,,,,,,,,,"10120,1,99999,9",,,,,,"MET051METAR FACT 082100Z 15006KT CAVOK 17/16 Q1012 NOSIG=",
"68816099999","2022-02-08T22:00:00","4","-33.964806","18.601667","46.02","CAPE TOWN INTERNATIONAL, SF","FM-15","99999","V020","140,1,N,0015,1","99999,9,9,Y","009900,5,9,9","+0170,1","+0160,1","99999,9",,,,,,,,,,,,"10130,1,99999,9",,,,,,"MET051METAR FACT 082200Z 14003KT CAVOK 17/16 Q1013 NOSIG=",
"68816099999","2022-02-08T23:00:00","4","-33.964806","18.601667","46.02","CAPE TOWN INTERNATIONAL, SF","FM-15","99999","V020","130,1,N,0026,1","99999,9,9,N","009999,1,9,9","+0150,1","+0140,1","99999,9",,,,,"02,1,+00610,1,99,9",,,"9,AGL   ,+99999,+99999","99,99,9,02,1,99,9,00610,1,99,9,99,9",,,"10120,1,99999,9",,,,,,"MET057METAR FACT 082300Z 13005KT 9999 FEW020 15/14 Q1012 NOSIG=",
"68816099999","2022-02-09T00:00:00","4","-33.964806","18.601667","46.02","CAPE TOWN INTERNATIONAL, SF","FM-12","99999","V020","080,1,N,0015,1","99999,9,9,N","030000,1,9,9","+0169,1","+0151,1","10121,1",,,,,,,,,,"120,M,+0271,1","120,N,+0169,1","99999,9,10066,1","7,1,009,1,+999,9",,,,"4,99,0026,1,999","SYN08068816 32980 00803 10169 20151 30066 40121 57009 333 10271 20169 91005 555 91012=",
"68816099999","2022-02-09T00:00:00","4","-33.964806","18.601667","46.02","CAPE TOWN INTERNATIONAL, SF","FM-15","99999","V020","080,1,N,0021,1","99999,9,9,Y","009900,5,9,9","+0170,1","+0150,1","99999,9",,,,,,,,,,,,"10120,1,99999,9",,,,,,"MET051METAR FACT 090000Z 08004KT CAVOK 17/15 Q1012 NOSIG=",
"68816099999","2022-02-09T01:00:00","4","-33.964806","18.601667","46.02","CAPE TOWN INTERNATIONAL, SF","FM-15","99999","V020","290,1,N,0010,1","99999,9,9,N","009999,1,9,9","+0170,1","+0150,1","99999,9",,,,,"02,1,+00610,1,99,9",,,"9,AGL   ,+99999,+99999","99,99,9,02,1,99,9,00610,1,99,9,99,9",,,"10110,1,99999,9",,,,,,"MET057METAR FACT 090100Z 29002KT 9999 FEW020 17/15 Q1011 NOSIG=",
"68816099999","2022-02-09T02:00:00","4","-33.964806","18.601667","46.02","CAPE TOWN INTERNATIONAL, SF","FM-15","99999","V020","340,1,N,0021,1","99999,9,9,N","009999,1,9,9","+0160,1","+0150,1","99999,9",,,,,"02,1,+00762,1,99,9",,,"9,AGL   ,+99999,+99999","99,99,9,02,1,99,9,00762,1,99,9,99,9",,,"10110,1,99999,9",,,,,,"MET057METAR FACT 090200Z 34004KT 9999 FEW025 16/15 Q1011 NOSIG=",
"68816099999","2022-02-09T03:00:00","4","-33.964806","18.601667","46.02","CAPE TOWN INTERNATIONAL, SF","FM-15","99999","V020","330,1,N,0015,1","99999,9,9,N","009999,1,9,9","+0160,1","+0150,1","99999,9",,,,,"02,1,+00762,1,99,9",,,"9,AGL   ,+99999,+99999","99,99,9,02,1,99,9,00762,1,99,9,99,9",,,"10110,1,99999,9",,,,,,"MET057METAR FACT 090300Z 33003KT 9999 FEW025 16/15 Q1011 NOSIG=",
"68816099999","2022-02-09T04:00:00","4","-33.964806","18.601667","46.02","CAPE TOWN INTERNATIONAL, SF","FM-15","99999","V020","070,1,N,0010,1","99999,9,9,N","009999,1,9,9","+0160,1","+0150,1","99999,9",,,,,"04,1,+00792,1,99,9",,,"9,AGL   ,+99999,+99999","99,99,9,04,1,99,9,00792,1,99,9,99,9",,,"10110,1,99999,9",,,,,,"MET057METAR FACT 090400Z 07002KT 9999 SCT026 16/15 Q1011 NOSIG=",
"68816099999","2022-02-09T05:00:00","4","-33.964806","18.601667","46.02","CAPE TOWN INTERNATIONAL, SF","FM-15","99999","V020","060,1,N,0021,1","99999,9,9,N","009999,1,9,9","+0160,1","+0150,1","99999,9",,,,,"04,1,+00762,1,99,9",,,"9,AGL   ,+99999,+99999","99,99,9,04,1,99,9,00762,1,99,9,99,9",,,"10120,1,99999,9",,,,,,"MET057METAR FACT 090500Z 06004KT 9999 SCT025 16/15 Q1012 NOSIG=",
"68816099999","2022-02-09T05:56:00","4","-33.964806","18.601667","46.02","CAPE TOWN INTERNATIONAL, SF","FM-16","99999","V020","999,9,V,0015,1","99999,9,9,N","009999,1,9,9","+0200,1","+0160,1","99999,9",,,,,"02,1,+00914,1,99,9",,,"9,AGL   ,+99999,+99999","99,99,9,02,1,99,9,00914,1,99,9,99,9",,,"10130,1,99999,9",,,,,,"MET057SPECI FACT 090556Z VRB03KT 9999 FEW030 20/16 Q1013 NOSIG=",
"68816099999","2022-02-09T06:00:00","4","-33.964806","18.601667","46.02","CAPE TOWN INTERNATIONAL, SF","FM-12","99999","V020","030,1,N,0021,1","22000,1,9,N","035000,1,9,9","+0199,1","+0157,1","10132,1",,,,,"02,1,+00800,1,06,1",,,"9,AGL   ,+99999,+99999","02,99,1,02,1,99,9,00800,1,99,9,99,9","240,N,+0151,1",,"99999,9,10078,1","5,1,001,1,+999,9",,,,"4,99,0026,1,999","SYN08668816 32581 20304 10199 20157 30078 40132 55001 82500 333 20151 91005 555 10271 91013=",
"68816099999","2022-02-09T06:00:00","4","-33.964806","18.601667","46.02","CAPE TOWN INTERNATIONAL, SF","FM-15","99999","V020","999,9,V,0015,1","99999,9,9,N","009999,1,9,9","+0200,1","+0160,1","99999,9",,,,,"02,1,+00914,1,99,9",,,"9,AGL   ,+99999,+99999","99,99,9,02,1,99,9,00914,1,99,9,99,9",,,"10130,1,99999,9",,,,,,"MET057METAR FACT 090600Z VRB03KT 9999 FEW030 20/16 Q1013 NOSIG=",
"68816099999","2022-02-09T07:00:00","4","-33.964806","18.601667","46.02","CAPE TOWN INTERNATIONAL, SF","FM-15","99999","V020","350,1,V,0026,1","99999,9,9,N","009999,1,9,9","+0220,1","+0150,1","99999,9",,,,,"02,1,+00914,1,99,9",,,"9,AGL   ,+99999,+99999","99,99,9,02,1,99,9,00914,1,99,9,99,9",,,"10130,1,99999,9",,,,,,"MET065METAR FACT 090700Z 35005KT 310V020 9999 FEW030 22/15 Q1013 NOSIG=",
"68816099999","2022-02-09T08:00:00","4","-33.964806","18.601667","46.02","CAPE TOWN INTERNATIONAL, SF","FM-15","99999","V020","999,9,V,0015,1","00914,1,C,N","009999,1,9,9","+0220,1","+0150,1","99999,9",,,,,"07,1,+00914,1,99,9",,,"9,AGL   ,+99999,+99999","99,99,9,07,1,99,9,00914,1,99,9,99,9",,,"10130,1,99999,9",,,,,,"MET057METAR FACT 090800Z VRB03KT 9999 BKN030 22/15 Q1013 NOSIG=",
"68816099999","2022-02-09T09:00:00","4","-33.964806","18.601667","46.02","CAPE TOWN INTERNATIONAL, SF","FM-15","99999","V020","320,1,V,0062,1","99999,9,9,N","009999,1,9,9","+0240,1","+0150,1","99999,9",,,,,"04,1,+01067,1,99,9",,,"9,AGL   ,+99999,+99999","99,99,9,04,1,99,9,01067,1,99,9,99,9",,,"10130,1,99999,9",,,,,,"MET065METAR FACT 090900Z 32012KT 290V350 9999 SCT035 24/15 Q1013 NOSIG=",
"68816099999","2022-02-09T10:00:00","4","-33.964806","18.601667","46.02","CAPE TOWN INTERNATIONAL, SF","FM-15","99999","V020","310,1,V,0062,1","99999,9,9,N","009999,1,9,9","+0240,1","+0140,1","99999,9",,,,,"02,1,+00914,1,99,9",,,"9,AGL   ,+99999,+99999","99,99,9,02,1,99,9,00914,1,99,9,99,9",,,"10130,1,99999,9",,,,,,"MET065METAR FACT 091000Z 31012KT 280V340 9999 FEW030 24/14 Q1013 NOSIG=",
"68816099999","2022-02-09T11:00:00","4","-33.964806","18.601667","46.02","CAPE TOWN INTERNATIONAL, SF","FM-15","99999","V020","310,1,N,0067,1","99999,9,9,N","009999,1,9,9","+0250,1","+0150,1","99999,9",,,,,"02,1,+01067,1,99,9",,,"9,AGL   ,+99999,+99999","99,99,9,02,1,99,9,01067,1,99,9,99,9",,,"10130,1,99999,9",,,,,,"MET057METAR FACT 091100Z 31013KT 9999 FEW035 25/15 Q1013 NOSIG=",
"68816099999","2022-02-09T12:00:00","4","-33.964806","18.601667","46.02","CAPE TOWN INTERNATIONAL, SF","FM-12","99999","V020","300,1,N,0077,1","22000,1,9,N","040000,1,9,9","+0250,1","+0146,1","10127,1",,,,,"02,1,+01250,1,06,1",,,"9,AGL   ,+99999,+99999","02,99,1,02,1,99,9,01250,1,99,9,99,9","240,M,+0258,1","240,N,+0199,1","99999,9,10073,1","7,1,004,1,+999,9",,,,"4,99,0093,1,999","SYN08668816 32682 23015 10250 20146 30073 40127 57004 82500 333 10258 20199 91018 555 91012=",
"68816099999","2022-02-09T12:00:00","4","-33.964806","18.601667","46.02","CAPE TOWN INTERNATIONAL, SF","FM-15","99999","V020","310,1,V,0067,1","99999,9,9,N","009999,1,9,9","+0250,1","+0150,1","99999,9",,,,,"02,1,+01067,1,99,9",,,"9,AGL   ,+99999,+99999","99,99,9,02,1,99,9,01067,1,99,9,99,9",,,"10120,1,99999,9",,,,,,"MET065METAR FACT 091200Z 31013KT 280V340 9999 FEW035 25/15 Q1012 NOSIG=",
"68816099999","2022-02-09T13:00:00","4","-33.964806","18.601667","46.02","CAPE TOWN INTERNATIONAL, SF","FM-15","99999","V020","310,1,V,0072,1","99999,9,9,N","009999,1,9,9","+0250,1","+0150,1","99999,9",,,,,"02,1,+01067,1,99,9",,,"9,AGL   ,+99999,+99999","99,99,9,02,1,99,9,01067,1,99,9,99,9",,,"10120,1,99999,9",,,,"0134,1",,"MET068METAR FACT 091300Z 31014G26KT 280V010 9999 FEW035 25/15 Q1012 NOSIG=",
"68816099999","2022-02-09T13:25:00","4","-33.964806","18.601667","46.02","CAPE TOWN INTERNATIONAL, SF","FM-16","99999","V020","320,1,V,0077,1","99999,9,9,N","009999,1,9,9","+0250,1","+0160,1","99999,9",,,,,"02,1,+01067,1,99,9",,,"9,AGL   ,+99999,+99999","99,99,9,02,1,99,9,01067,1,99,9,99,9",,,"10120,1,99999,9",,,,"0129,1",,"MET068SPECI FACT 091325Z 32015G25KT 280V350 9999 FEW035 25/16 Q1012 NOSIG=",
"68816099999","2022-02-09T14:00:00","4","-33.964806","18.601667","46.02","CAPE TOWN INTERNATIONAL, SF","FM-15","99999","V020","320,1,N,0077,1","99999,9,9,N","009999,1,9,9","+0250,1","+0160,1","99999,9",,,,,"02,1,+01067,1,99,9",,,"9,AGL   ,+99999,+99999","99,99,9,02,1,99,9,01067,1,99,9,99,9",,,"10110,1,99999,9",,,,,,"MET057METAR FACT 091400Z 32015KT 9999 FEW035 25/16 Q1011 NOSIG=",
"68816099999","2022-02-09T15:00:00","4","-33.964806","18.601667","46.02","CAPE TOWN INTERNATIONAL, SF","FM-15","99999","V020","310,1,N,0077,1","99999,9,9,N","009999,1,9,9","+0240,1","+0160,1","99999,9",,,,,"02,1,+01067,1,99,9",,,"9,AGL   ,+99999,+99999","99,99,9,02,1,99,9,01067,1,99,9,99,9",,,"10110,1,99999,9",,,,,,"MET057METAR FACT 091500Z 31015KT 9999 FEW035 24/16 Q1011 NOSIG=",
"68816099999","2022-02-09T16:00:00","4","-33.964806","18.601667","46.02","CAPE TOWN INTERNATIONAL, SF","FM-15","99999","V020","320,1,N,0072,1","99999,9,9,Y","009900,5,9,9","+0230,1","+0160,1","99999,9",,,,,,,,,,,,"10110,1,99999,9",,,,,,"MET051METAR FACT 091600Z 32014KT CAVOK 23/16 Q1011 NOSIG=",
"68816099999","2022-02-09T17:00:00","4","-33.964806","18.601667","46.02","CAPE TOWN INTERNATIONAL, SF","FM-15","99999","V020","320,1,N,0057,1","99999,9,9,Y","009900,5,9,9","+0220,1","+0160,1","99999,9",,,,,,,,,,,,"10110,1,99999,9",,,,,,"MET051METAR FACT 091700Z 32011KT CAVOK 22/16 Q1011 NOSIG=",
"68816099999","2022-02-09T18:00:00","4","-33.964806","18.601667","46.02","CAPE TOWN INTERNATIONAL, SF","FM-12","99999","V020","340,1,N,0041,1","99999,9,9,N","030000,1,9,9","+0204,1","+0160,1","10122,1",,,,,,,,,,"120,M,+0257,1","120,N,+0199,1","99999,9,10068,1","2,1,012,1,+999,9",,,,"4,99,0046,1,999","SYN08068816 32980 03408 10204 20160 30068 40122 52012 333 10257 20199 91009 555 91012=",
"68816099999","2022-02-09T18:00:00","4","-33.964806","18.601667","46.02","CAPE TOWN INTERNATIONAL, SF","FM-15","99999","V020","340,1,N,0041,1","99999,9,9,Y","009900,5,9,9","+0210,1","+0160,1","99999,9",,,,,,,,,,,,"10120,1,99999,9",,,,,,"MET051METAR FACT 091800Z 34008KT CAVOK 21/16 Q1012 NOSIG=",
"68816099999","2022-02-09T19:00:00","4","-33.964806","18.601667","46.02","CAPE TOWN INTERNATIONAL, SF","FM-15","99999","V020","350,1,N,0031,1","99999,9,9,Y","009900,5,9,9","+0200,1","+0170,1","99999,9",,,,,,,,,,,,"10130,1,99999,9",,,,,,"MET051METAR FACT 091900Z 35006KT CAVOK 20/17 Q1013 NOSIG=",
"68816099999","2022-02-09T20:00:00","4","-33.964806","18.601667","46.02","CAPE TOWN INTERNATIONAL, SF","FM-15","99999","V020","999,9,V,0005,1","99999,9,9,Y","009900,5,9,9","+0200,1","+0160,1","99999,9",,,,,,,,,,,,"10130,1,99999,9",,,,,,"MET051METAR FACT 092000Z VRB01KT CAVOK 20/16 Q1013 NOSIG=",
"68816099999","2022-02-09T21:00:00","4","-33.964806","18.601667","46.02","CAPE TOWN INTERNATIONAL, SF","FM-15","99999","V020","090,1,N,0026,1","01219,1,C,N","009999,1,9,9","+0190,1","+0170,1","99999,9",,,,,"02,1,+00610,1,99,9","04,1,+01219,1,99,9",,"9,AGL   ,+99999,+99999","99,99,9,02,1,99,9,00610,1,99,9,99,9",,,"10130,1,99999,9",,,,,,"MET064METAR FACT 092100Z 09005KT 9999 FEW020 SCT040 19/17 Q1013 NOSIG=",
"68816099999","2022-02-09T22:00:00","4","-33.964806","18.601667","46.02","CAPE TOWN INTERNATIONAL, SF","FM-15","99999","V020","090,1,N,0021,1","01219,1,9,N","009999,1,9,9","+0200,1","+0170,1","99999,9",,,,,"02,1,+00610,1,99,9","07,1,+01219,1,99,9",,"9,AGL   ,+99999,+99999","99,99,9,02,1,99,9,00610,1,99,9,99,9",,,"10130,1,99999,9",,,,,,"MET064METAR FACT 092200Z 09004KT 9999 FEW020 BKN040 20/17 Q1013 NOSIG=",
"68816099999","2022-02-09T23:00:00","4","-33.964806","18.601667","46.02","CAPE TOWN INTERNATIONAL, SF","FM-15","99999","V020","999,9,V,0015,1","00914,1,C,N","009999,1,9,9","+0200,1","+0170,1","99999,9",,,,,"07,1,+00914,1,99,9",,,"9,AGL   ,+99999,+99999","99,99,9,07,1,99,9,00914,1,99,9,99,9",,,"10130,1,99999,9",,,,,,"MET057METAR FACT 092300Z VRB03KT 9999 BKN030 20/17 Q1013 NOSIG=",
"68816099999","2022-02-10T00:00:00","4","-33.964806","18.601667","46.02","CAPE TOWN INTERNATIONAL, SF","FM-12","99999","V020","320,1,N,0026,1","99999,9,9,N","030000,1,9,9","+0201,1","+0172,1","10132,1",,,,,"07,1,+00800,1,06,1",,,"9,AGL   ,+99999,+99999","07,99,1,07,1,99,9,00800,1,99,9,99,9",,,"99999,9,10078,1","2,1,012,1,+999,9",,,,"4,99,0026,1,999","SYN07468816 32580 73205 10201 20172 30078 40132 52012 875// 333 91005 555 91013=",
"68816099999","2022-02-10T00:00:00","4","-33.964806","18.601667","46.02","CAPE TOWN INTERNATIONAL, SF","FM-15","99999","V020","310,1,N,0026,1","00914,1,C,N","009999,1,9,9","+0200,1","+0170,1","99999,9",,,,,"07,1,+00914,1,99,9",,,"9,AGL   ,+99999,+99999","99,99,9,07,1,99,9,00914,1,99,9,99,9",,,"10130,1,99999,9",,,,,,"MET057METAR FACT 100000Z 31005KT 9999 BKN030 20/17 Q1013 NOSIG=",
"68816099999","2022-02-10T01:00:00","4","-33.964806","18.601667","46.02","CAPE TOWN INTERNATIONAL, SF","FM-15","99999","V020","340,1,N,0031,1","00914,1,C,N","009999,1,9,9","+0190,1","+0170,1","99999,9",,,,,"07,1,+00914,1,99,9",,,"9,AGL   ,+99999,+99999","99,99,9,07,1,99,9,00914,1,99,9,99,9",,,"10130,1,99999,9",,,,,,"MET057METAR FACT 100100Z 34006KT 9999 BKN030 19/17 Q1013 NOSIG=",
"68816099999","2022-02-10T02:00:00","4","-33.964806","18.601667","46.02","CAPE TOWN INTERNATIONAL, SF","FM-15","99999","V020","280,1,V,0026,1","00610,1,9,N","009999,1,9,9","+0190,1","+0180,1","99999,9",,,,,"04,1,+00213,1,99,9","07,1,+00610,1,99,9",,"9,AGL   ,+99999,+99999","99,99,9,04,1,99,9,00213,1,99,9,99,9",,,"10120,1,99999,9",,,,,,"MET079METAR FACT 100200Z 28005KT 250V310 9999 SCT007 BKN020 19/18 Q1012 TEMPO BKN007=",
"68816099999","2022-02-10T02:16:00","4","-33.964806","18.601667","46.02","CAPE TOWN INTERNATIONAL, SF","FM-16","99999","V020","300,1,N,0031,1","00213,1,C,N","008000,1,9,9","+0190,1","+0180,1","99999,9",,,,,"07,1,+00213,1,99,9",,,"9,AGL   ,+99999,+99999","99,99,9,07,1,99,9,00213,1,99,9,99,9",,,"10120,1,99999,9",,"51,1",,,,"MET066SPECI FACT 100216Z 30006KT 8000 -DZ BKN007 19/18 Q1012 TEMPO 4000=",
"68816099999","2022-02-10T02:34:00","4","-33.964806","18.601667","46.02","CAPE TOWN INTERNATIONAL, SF","FM-16","99999","V020","300,1,N,0026,1","00152,1,C,N","004000,1,9,9","+0190,1","+0180,1","99999,9",,,,,"07,1,+00152,1,99,9",,,"9,AGL   ,+99999,+99999","99,99,9,07,1,99,9,00152,1,99,9,99,9",,,"10130,1,99999,9",,"53,1",,,,"MET060SPECI FACT 100234Z 30005KT 4000 DZ BKN005 19/18 Q1013 NOSIG=",
"68816099999","2022-02-10T03:00:00","4","-33.964806","18.601667","46.02","CAPE TOWN INTERNATIONAL, SF","FM-15","99999","V020","300,1,N,0021,1","00152,1,C,N","004000,1,9,9","+0190,1","+0180,1","99999,9",,,,,"07,1,+00152,1,99,9",,,"9,AGL   ,+99999,+99999","99,99,9,07,1,99,9,00152,1,99,9,99,9",,,"10130,1,99999,9",,"51,1",,,,"MET061METAR FACT 100300Z 30004KT 4000 -DZ BKN005 19/18 Q1013 NOSIG=",
"68816099999","2022-02-10T03:28:00","4","-33.964806","18.601667","46.02","CAPE TOWN INTERNATIONAL, SF","FM-16","99999","V020","999,9,V,0010,1","00091,1,C,N","005000,1,9,9","+0190,1","+0180,1","99999,9",,,,,"07,1,+00091,1,99,9",,,"9,AGL   ,+99999,+99999","99,99,9,07,1,99,9,00091,1,99,9,99,9",,,"10130,1,99999,9",,"51,1",,,,"MET061SPECI FACT 100328Z VRB02KT 5000 -DZ BKN003 19/18 Q1013 NOSIG=",
"68816099999","2022-02-10T03:40:00","4","-33.964806","18.601667","46.02","CAPE TOWN INTERNATIONAL, SF","FM-16","99999","V020","150,1,N,0026,1","00091,1,C,N","007000,1,9,9","+0190,1","+0180,1","99999,9",,,,,"07,1,+00091,1,99,9",,,"9,AGL   ,+99999,+99999","99,99,9,07,1,99,9,00091,1,99,9,99,9",,,"10130,1,99999,9",,"51,1",,,,"MET068SPECI FACT 100340Z 15005KT 7000 -DZ BKN003 19/18 Q1013 BECMG BKN007=",
"68816099999","2022-02-10T04:00:00","4","-33.964806","18.601667","46.02","CAPE TOWN INTERNATIONAL, SF","FM-15","99999","V020","160,1,V,0031,1","00091,1,C,N","007000,1,9,9","+0180,1","+0180,1","99999,9",,,,,"07,1,+00091,1,99,9",,,"9,AGL   ,+99999,+99999","99,99,9,07,1,99,9,00091,1,99,9,99,9",,,"10130,1,99999,9",,"51,1",,,,"MET076METAR FACT 100400Z 16006KT 130V190 7000 -DZ BKN003 18/18 Q1013 BECMG BKN007=",
"68816099999","2022-02-10T04:16:00","4","-33.964806","18.601667","46.02","CAPE TOWN INTERNATIONAL, SF","FM-16","99999","V020","160,1,N,0031,1","00427,1,9,N","009000,1,9,9","+0180,1","+0170,1","99999,9",,,,,"02,1,+00213,1,99,9","08,1,+00427,1,99,9",,"9,AGL   ,+99999,+99999","99,99,9,02,1,99,9,00213,1,99,9,99,9",,,"10130,1,99999,9",,,,,,"MET071SPECI FACT 100416Z 16006KT 9000 FEW007 OVC014 18/17 Q1013 BECMG SCT014=",
"68816099999","2022-02-10T04:59:00","4","-33.964806","18.601667","46.02","CAPE TOWN INTERNATIONAL, SF","FM-16","99999","V020","120,1,N,0015,1","00518,1,9,N","009999,1,9,9","+0190,1","+0170,1","99999,9",,,,,"02,1,+00183,1,99,9","07,1,+00518,1,99,9",,"9,AGL   ,+99999,+99999","99,99,9,02,1,99,9,00183,1,99,9,99,9",,,"10130,1,99999,9",,,,,,"MET064SPECI FACT 100459Z 12003KT 9999 FEW006 BKN017 19/17 Q1013 NOSIG=",
"68816099999","2022-02-10T05:00:00","4","-33.964806","18.601667","46.02","CAPE TOWN INTERNATIONAL, SF","FM-15","99999","V020","120,1,N,0015,1","00518,1,9,N","009999,1,9,9","+0190,1","+0170,1","99999,9",,,,,"02,1,+00183,1,99,9","07,1,+00518,1,99,9",,"9,AGL   ,+99999,+99999","99,99,9,02,1,99,9,00183,1,99,9,99,9",,,"10130,1,99999,9",,,,,,"MET064METAR FACT 100500Z 12003KT 9999 FEW006 BKN017 19/17 Q1013 NOSIG=",
"68816099999","2022-02-10T06:00:00","4","-33.964806","18.601667","46.02","CAPE TOWN INTERNATIONAL, SF","FM-12","99999","V020","100,1,N,0021,1","99999,9,9,N","020000,1,9,9","+0188,1","+0175,1","10141,1","24,0006,3,1","5,1,02,1","2,1,02,1",,"07,1,+00800,1,06,1",,,"9,AGL   ,+99999,+99999","07,99,1,07,1,99,9,00800,1,99,9,99,9","240,N,+0178,1",,"99999,9,10087,1","1,1,012,1,+999,9","20,1",,,"4,99,0031,1,999","SYN10468816 11570 71004 10188 20175 30087 40141 51012 69964 72052 875// 333 20178 91006 555 10257 20006 91014=",
"68816099999","2022-02-10T06:00:00","4","-33.964806","18.601667","46.02","CAPE TOWN INTERNATIONAL, SF","FM-15","99999","V020","110,1,N,0021,1","00762,1,9,N","009999,1,9,9","+0190,1","+0170,1","99999,9",,,,,"02,1,+00213,1,99,9","07,1,+00762,1,99,9",,"9,AGL   ,+99999,+99999","99,99,9,02,1,99,9,00213,1,99,9,99,9",,,"10140,1,99999,9",,,,,,"MET064METAR FACT 100600Z 11004KT 9999 FEW007 BKN025 19/17 Q1014 NOSIG=",
"68816099999","2022-02-10T07:00:00","4","-33.964806","18.601667","46.02","CAPE TOWN INTERNATIONAL, SF","FM-15","99999","V020","999,9,V,0021,1","00732,1,9,N","009999,1,9,9","+0190,1","+0170,1","99999,9",,,,,"04,1,+00488,1,99,9","07,1,+00732,1,99,9",,"9,AGL   ,+99999,+99999","99,99,9,04,1,99,9,00488,1,99,9,99,9",,,"10140,1,99999,9",,,,,,"MET064METAR FACT 100700Z VRB04KT 9999 SCT016 BKN024 19/17 Q1014 NOSIG=",
"68816099999","2022-02-10T08:00:00","4","-33.964806","18.601667","46.02","CAPE TOWN INTERNATIONAL, SF","FM-15","99999","V020","999,9,V,0010,1","00792,1,9,N","009999,1,9,9","+0210,1","+0160,1","99999,9",,,,,"02,1,+00457,1,99,9","07,1,+00792,1,99,9",,"9,AGL   ,+99999,+99999","99,99,9,02,1,99,9,00457,1,99,9,99,9",,,"10140,1,99999,9",,,,,,"MET064METAR FACT 100800Z VRB02KT 9999 FEW015 BKN026 21/16 Q1014 NOSIG=",
"68816099999","2022-02-10T09:00:00","4","-33.964806","18.601667","46.02","CAPE TOWN INTERNATIONAL, SF","FM-15","99999","V020","999,9,V,0015,1","00914,1,C,N","009999,1,9,9","+0220,1","+0150,1","99999,9",,,,,"07,1,+00914,1,99,9",,,"9,AGL   ,+99999,+99999","99,99,9,07,1,99,9,00914,1,99,9,99,9",,,"10140,1,99999,9",,,,,,"MET057METAR FACT 100900Z VRB03KT 9999 BKN030 22/15 Q1014 NOSIG=",
"68816099999","2022-02-10T10:00:00","4","-33.964806","18.601667","46.02","CAPE TOWN INTERNATIONAL, SF","FM-15","99999","V020","999,9,V,0010,1","00914,1,C,N","009999,1,9,9","+0220,1","+0160,1","99999,9",,,,,"07,1,+00914,1,99,9",,,"9,AGL   ,+99999,+99999","99,99,9,07,1,99,9,00914,1,99,9,99,9",,,"10140,1,99999,9",,,,,,"MET057METAR FACT 101000Z VRB02KT 9999 BKN030 22/16 Q1014 NOSIG=",
"68816099999","2022-02-10T10:23:00","4","-33.964806","18.601667","46.02","CAPE TOWN INTERNATIONAL, SF","FM-16","99999","V020","300,1,V,0036,1","01067,1,C,N","009999,1,9,9","+0240,1","+0150,1","99999,9",,,,,"07,1,+01067,1,99,9",,,"9,AGL   ,+99999,+99999","99,99,9,07,1,99,9,01067,1,99,9,99,9",,,"10140,1,99999,9",,,,,,"MET065SPECI FACT 101023Z 30007KT 210V020 9999 BKN035 24/15 Q1014 NOSIG=",
"68816099999","2022-02-10T11:00:00","4","-33.964806","18.601667","46.02","CAPE TOWN INTERNATIONAL, SF","FM-15","99999","V020","320,1,V,0046,1","99999,9,9,N","009999,1,9,9","+0250,1","+0150,1","99999,9",,,,,"04,1,+01067,1,99,9",,,"9,AGL   ,+99999,+99999","99,99,9,04,1,99,9,01067,1,99,9,99,9",,,"10140,1,99999,9",,,,,,"MET065METAR FACT 101100Z 32009KT 270V350 9999 SCT035 25/15 Q1014 NOSIG=",
"68816099999","2022-02-10T12:00:00","4","-33.964806","18.601667","46.02","CAPE TOWN INTERNATIONAL, SF","FM-12","99999","V020","330,1,N,0051,1","22000,1,9,N","030000,1,9,9","+0247,1","+0143,1","10141,1",,,,,"04,1,+01250,1,06,1",,,"9,AGL   ,+99999,+99999","04,99,1,04,1,99,9,01250,1,99,9,99,9","240,M,+0260,1","240,N,+0187,1","99999,9,10087,1","2,1,006,1,+999,9",,,,"4,99,0062,1,999","SYN08668816 32680 43310 10247 20143 30087 40141 52006 84500 333 10260 20187 91012 555 91014=",
"68816099999","2022-02-10T12:00:00","4","-33.964806","18.601667","46.02","CAPE TOWN INTERNATIONAL, SF","FM-15","99999","V020","330,1,V,0051,1","99999,9,9,N","009999,1,9,9","+0250,1","+0140,1","99999,9",,,,,"04,1,+01128,1,99,9",,,"9,AGL   ,+99999,+99999","99,99,9,04,1,99,9,01128,1,99,9,99,9",,,"10140,1,99999,9",,,,,,"MET065METAR FACT 101200Z 33010KT 290V360 9999 SCT037 25/14 Q1014 NOSIG=",
"68816099999","2022-02-10T13:00:00","4","-33.964806","18.601667","46.02","CAPE TOWN INTERNATIONAL, SF","FM-15","99999","V020","320,1,V,0051,1","99999,9,9,N","009999,1,9,9","+0250,1","+0130,1","99999,9",,,,,"02,1,+01128,1,99,9",,,"9,AGL   ,+99999,+99999","99,99,9,02,1,99,9,01128,1,99,9,99,9",,,"10130,1,99999,9",,,,,,"MET065METAR FACT 101300Z 32010KT 290V360 9999 FEW037 25/13 Q1013 NOSIG=",
"68816099999","2022-02-10T14:00:00","4","-33.964806","18.601667","46.02","CAPE TOWN INTERNATIONAL, SF","FM-15","99999","V020","330,1,V,0041,1","99999,9,9,N","009999,1,9,9","+0250,1","+0120,1","99999,9",,,,,"02,1,+01097,1,99,9",,,"9,AGL   ,+99999,+99999","99,99,9,02,1,99,9,01097,1,99,9,99,9",,,"10130,1,99999,9",,,,,,"MET065METAR FACT 101400Z 33008KT 290V030 9999 FEW036 25/12 Q1013 NOSIG=",
"68816099999","2022-02-10T15:00:00","4","-33.964806","18.601667","46.02","CAPE TOWN INTERNATIONAL, SF","FM-15","99999","V020","150,1,N,0046,1","99999,9,9,N","009999,1,9,9","+0240,1","+0130,1","99999,9",,,,,"02,1,+01067,1,99,9",,,"9,AGL   ,+99999,+99999","99,99,9,02,1,99,9,01067,1,99,9,99,9",,,"10130,1,99999,9",,,,,,"MET057METAR FACT 101500Z 15009KT 9999 FEW035 24/13 Q1013 NOSIG=",
"68816099999","2022-02-10T16:00:00","4","-33.964806","18.601667","46.02","CAPE TOWN INTERNATIONAL, SF","FM-15","99999","V020","180,1,N,0062,1","99999,9,9,Y","009900,5,9,9","+0230,1","+0130,1","99999,9",,,,,,,,,,,,"10130,1,99999,9",,,,,,"MET051METAR FACT 101600Z 18012KT CAVOK 23/13 Q1013 NOSIG=",
"68816099999","2022-02-10T17:00:00","4","-33.964806","18.601667","46.02","CAPE TOWN INTERNATIONAL, SF","FM-15","99999","V020","180,1,N,0067,1","99999,9,9,Y","009900,5,9,9","+0210,1","+0130,1","99999,9",,,,,,,,,,,,"10130,1,99999,9",,,,,,"MET051METAR FACT 101700Z 18013KT CAVOK 21/13 Q1013 NOSIG=",
"68816099999","2022-02-10T18:00:00","4","-33.964806","18.601667","46.02","CAPE TOWN INTERNATIONAL, SF","FM-12","99999","V020","180,1,N,0046,1","22000,1,9,N","030000,1,9,9","+0198,1","+0125,1","10142,1",,,,,,,,"9,AGL   ,+99999,+99999","01,99,1,99,9,99,9,99999,9,99,9,99,9","120,M,+0260,1","120,N,+0198,1","99999,9,10088,1","2,1,006,1,+999,9",,,,"4,99,0057,1,999","SYN08068816 32980 11809 10198 20125 30088 40142 52006 333 10260 20198 91011 555 91014=",
"68816099999","2022-02-10T18:00:00","4","-33.964806","18.601667","46.02","CAPE TOWN INTERNATIONAL, SF","FM-15","99999","V020","180,1,N,0046,1","99999,9,9,Y","009900,5,9,9","+0200,1","+0120,1","99999,9",,,,,,,,,,,,"10140,1,99999,9",,,,,,"MET051METAR FACT 101800Z 18009KT CAVOK 20/12 Q1014 NOSIG=",
"68816099999","2022-02-10T19:00:00","4","-33.964806","18.601667","46.02","CAPE TOWN INTERNATIONAL, SF","FM-15","99999","V020","150,1,N,0031,1","99999,9,9,Y","009900,5,9,9","+0180,1","+0130,1","99999,9",,,,,,,,,,,,"10150,1,99999,9",,,,,,"MET051METAR FACT 101900Z 15006KT CAVOK 18/13 Q1015 NOSIG=",
"68816099999","2022-02-10T20:00:00","4","-33.964806","18.601667","46.02","CAPE TOWN INTERNATIONAL, SF","FM-15","99999","V020","180,1,N,0036,1","99999,9,9,Y","009900,5,9,9","+0180,1","+0130,1","99999,9",,,,,,,,,,,,"10150,1,99999,9",,,,,,"MET051METAR FACT 102000Z 18007KT CAVOK 18/13 Q1015 NOSIG=",
"68816099999","2022-02-10T21:00:00","4","-33.964806","18.601667","46.02","CAPE TOWN INTERNATIONAL, SF","FM-15","99999","V020","190,1,N,0031,1","99999,9,9,Y","009900,5,9,9","+0180,1","+0120,1","99999,9",,,,,,,,,,,,"10150,1,99999,9",,,,,,"MET051METAR FACT 102100Z 19006KT CAVOK 18/12 Q1015 NOSIG=",
"68816099999","2022-02-10T22:00:00","4","-33.964806","18.601667","46.02","CAPE TOWN INTERNATIONAL, SF","FM-15","99999","V020","180,1,N,0021,1","99999,9,9,Y","009900,5,9,9","+0180,1","+0130,1","99999,9",,,,,,,,,,,,"10150,1,99999,9",,,,,,"MET051METAR FACT 102200Z 18004KT CAVOK 18/13 Q1015 NOSIG=",
"68816099999","2022-02-10T23:00:00","4","-33.964806","18.601667","46.02","CAPE TOWN INTERNATIONAL, SF","FM-15","99999","V020","160,1,N,0026,1","99999,9,9,Y","009900,5,9,9","+0160,1","+0130,1","99999,9",,,,,,,,,,,,"10150,1,99999,9",,,,,,"MET051METAR FACT 102300Z 16005KT CAVOK 16/13 Q1015 NOSIG=",
"68816099999","2022-02-11T00:00:00","4","-33.964806","18.601667","46.02","CAPE TOWN INTERNATIONAL, SF","FM-12","99999","V020","190,1,N,0031,1","99999,9,9,N","040000,1,9,9","+0163,1","+0137,1","10148,1",,,,,,,,,,"120,M,+0260,1",,"99999,9,10093,1","8,1,001,1,+999,9",,,,"4,99,0041,1,999","SYN07468816 32982 01906 10163 20137 30093 40148 58001 333 10260 91008 555 91014=",
"68816099999","2022-02-11T00:00:00","4","-33.964806","18.601667","46.02","CAPE TOWN INTERNATIONAL, SF","FM-15","99999","V020","190,1,N,0031,1","99999,9,9,Y","009900,5,9,9","+0160,1","+0130,1","99999,9",,,,,,,,,,,,"10140,1,99999,9",,,,,,"MET051METAR FACT 110000Z 19006KT CAVOK 16/13 Q1014 NOSIG=",
"68816099999","2022-02-11T01:00:00","4","-33.964806","18.601667","46.02","CAPE TOWN INTERNATIONAL, SF","FM-15","99999","V020","170,1,N,0010,1","99999,9,9,Y","009900,5,9,9","+0160,1","+0140,1","99999,9",,,,,,,,,,,,"10150,1,99999,9",,,,,,"MET051METAR FACT 110100Z 17002KT CAVOK 16/14 Q1015 NOSIG=",
"68816099999","2022-02-11T02:00:00","4","-33.964806","18.601667","46.02","CAPE TOWN INTERNATIONAL, SF","FM-15","99999","V020","180,1,N,0021,1","99999,9,9,Y","009900,5,9,9","+0150,1","+0140,1","99999,9",,,,,,,,,,,,"10140,1,99999,9",,,,,,"MET051METAR FACT 110200Z 18004KT CAVOK 15/14 Q1014 NOSIG=",
"68816099999","2022-02-11T03:00:00","4","-33.964806","18.601667","46.02","CAPE TOWN INTERNATIONAL, SF","FM-15","99999","V020","170,1,N,0026,1","99999,9,9,Y","009900,5,9,9","+0150,1","+0130,1","99999,9",,,,,,,,,,,,"10140,1,99999,9",,,,,,"MET051METAR FACT 110300Z 17005KT CAVOK 15/13 Q1014 NOSIG=",
"68816099999","2022-02-11T04:00:00","4","-33.964806","18.601667","46.02","CAPE TOWN INTERNATIONAL, SF","FM-15","99999","V020","170,1,N,0026,1","99999,9,9,Y","009900,5,9,9","+0150,1","+0140,1","99999,9",,,,,,,,,,,,"10140,1,99999,9",,,,,,"MET051METAR FACT 110400Z 17005KT CAVOK 15/14 Q1014 NOSIG=",
"68816099999","2022-02-11T04:26:00","4","-33.964806","18.601667","46.02","CAPE TOWN INTERNATIONAL, SF","FM-16","99999","V020","190,1,N,0031,1","99999,9,9,Y","009900,5,9,9","+0170,1","+0150,1","99999,9",,,,,,,,,,,,"10140,1,99999,9",,,,,,"MET051SPECI FACT 110426Z 19006KT CAVOK 17/15 Q1014 NOSIG=",
"68816099999","2022-02-11T05:00:00","4","-33.964806","18.601667","46.02","CAPE TOWN INTERNATIONAL, SF","FM-15","99999","V020","190,1,N,0036,1","99999,9,9,Y","009900,5,9,9","+0180,1","+0150,1","99999,9",,,,,,,,,,,,"10150,1,99999,9",,,,,,"MET051METAR FACT 110500Z 19007KT CAVOK 18/15 Q1015 NOSIG=",
"68816099999","2022-02-11T06:00:00","4","-33.964806","18.601667","46.02","CAPE TOWN INTERNATIONAL, SF","FM-12","99999","V020","200,1,N,0046,1","99999,9,9,N","030000,1,9,9","+0197,1","+0148,1","10154,1",,,,,,,,,,"240,N,+0146,1",,"99999,9,10100,1","2,1,010,1,+999,9",,,,"4,99,0057,1,999","SYN08068816 32980 02009 10197 20148 30100 40154 52010 333 20146 91011 555 10260 91015=",
"68816099999","2022-02-11T06:00:00","4","-33.964806","18.601667","46.02","CAPE TOWN INTERNATIONAL, SF","FM-15","99999","V020","200,1,N,0041,1","99999,9,9,Y","009900,5,9,9","+0200,1","+0150,1","99999,9",,,,,,,,,,,,"10150,1,99999,9",,,,,,"MET051METAR FACT 110600Z 20008KT CAVOK 20/15 Q1015 NOSIG=",
"68816099999","2022-02-11T07:00:00","4","-33.964806","18.601667","46.02","CAPE TOWN INTERNATIONAL, SF","FM-15","99999","V020","180,1,N,0067,1","99999,9,9,Y","009900,5,9,9","+0210,1","+0150,1","99999,9",,,,,,,,,,,,"10150,1,99999,9",,,,,,"MET051METAR FACT 110700Z 18013KT CAVOK 21/15 Q1015 NOSIG=",
"68816099999","2022-02-11T08:00:00","4","-33.964806","18.601667","46.02","CAPE TOWN INTERNATIONAL, SF","FM-15","99999","V020","190,1,N,0082,1","99999,9,9,Y","009900,5,9,9","+0220,1","+0150,1","99999,9",,,,,,,,,,,,"10150,1,99999,9",,,,,,"MET051METAR FACT 110800Z 19016KT CAVOK 22/15 Q1015 NOSIG=",
"68816099999","2022-02-11T09:00:00","4","-33.964806","18.601667","46.02","CAPE TOWN INTERNATIONAL, SF","FM-15","99999","V020","180,1,N,0072,1","99999,9,9,Y","009900,5,9,9","+0230,1","+0150,1","99999,9",,,,,,,,,,,,"10150,1,99999,9",,,,,,"MET051METAR FACT 110900Z 18014KT CAVOK 23/15 Q1015 NOSIG=",
"68816099999","2022-02-11T10:00:00","4","-33.964806","18.601667","46.02","CAPE TOWN INTERNATIONAL, SF","FM-15","99999","V020","180,1,V,0062,1","99999,9,9,Y","009900,5,9,9","+0240,1","+0160,1","99999,9",,,,,,,,,,,,"10150,1,99999,9",,,,,,"MET059METAR FACT 111000Z 18012KT 150V220 CAVOK 24/16 Q1015 NOSIG=",
"68816099999","2022-02-11T11:00:00","4","-33.964806","18.601667","46.02","CAPE TOWN INTERNATIONAL, SF","FM-15","99999","V020","190,1,N,0067,1","99999,9,9,Y","009900,5,9,9","+0250,1","+0160,1","99999,9",,,,,,,,,,,,"10140,1,99999,9",,,,,,"MET051METAR FACT 111100Z 19013KT CAVOK 25/16 Q1014 NOSIG=",
"68816099999","2022-02-11T12:00:00","4","-33.964806","18.601667","46.02","CAPE TOWN INTERNATIONAL, SF","FM-12","99999","V020","180,1,N,0067,1","99999,9,9,N","030000,1,9,9","+0248,1","+0157,1","10138,1",,,,,,,,,,"240,M,+0248,1","240,N,+0199,1","99999,9,10085,1","7,1,011,1,+999,9",,,,"4,99,0093,1,999","SYN08068816 32980 01813 10248 20157 30085 40138 57011 333 10248 20199 91018 555 91013=",
"68816099999","2022-02-11T12:00:00","4","-33.964806","18.601667","46.02","CAPE TOWN INTERNATIONAL, SF","FM-15","99999","V020","170,1,N,0062,1","99999,9,9,Y","009900,5,9,9","+0250,1","+0160,1","99999,9",,,,,,,,,,,,"10140,1,99999,9",,,,,,"MET051METAR FACT 111200Z 17012KT CAVOK 25/16 Q1014 NOSIG=",
"68816099999","2022-02-11T13:00:00","4","-33.964806","18.601667","46.02","CAPE TOWN INTERNATIONAL, SF","FM-15","99999","V020","170,1,N,0067,1","99999,9,9,Y","009900,5,9,9","+0250,1","+0160,1","99999,9",,,,,,,,,,,,"10130,1,99999,9",,,,,,"MET051METAR FACT 111300Z 17013KT CAVOK 25/16 Q1013 NOSIG=",
"68816099999","2022-02-11T14:00:00","4","-33.964806","18.601667","46.02","CAPE TOWN INTERNATIONAL, SF","FM-15","99999","V020","170,1,N,0072,1","99999,9,9,Y","009900,5,9,9","+0250,1","+0160,1","99999,9",,,,,,,,,,,,"10130,1,99999,9",,,,,,"MET051METAR FACT 111400Z 17014KT CAVOK 25/16 Q1013 NOSIG=",
"68816099999","2022-02-11T15:00:00","4","-33.964806","18.601667","46.02","CAPE TOWN INTERNATIONAL, SF","FM-15","99999","V020","180,1,N,0082,1","99999,9,9,Y","009900,5,9,9","+0240,1","+0160,1","99999,9",,,,,,,,,,,,"10120,1,99999,9",,,,,,"MET051METAR FACT 111500Z 18016KT CAVOK 24/16 Q1012 NOSIG=",
"68816099999","2022-02-11T16:00:00","4","-33.964806","18.601667","46.02","CAPE TOWN INTERNATIONAL, SF","FM-15","99999","V020","180,1,N,0082,1","99999,9,9,Y","009900,5,9,9","+0230,1","+0170,1","99999,9",,,,,,,,,,,,"10120,1,99999,9",,,,,,"MET051METAR FACT 111600Z 18016KT CAVOK 23/17 Q1012 NOSIG=",
"68816099999","2022-02-11T17:00:00","4","-33.964806","18.601667","46.02","CAPE TOWN INTERNATIONAL, SF","FM-15","99999","V020","180,1,N,0093,1","99999,9,9,Y","009900,5,9,9","+0210,1","+0170,1","99999,9",,,,,,,,,,,,"10120,1,99999,9",,,,,,"MET051METAR FACT 111700Z 18018KT CAVOK 21/17 Q1012 NOSIG=",
"68816099999","2022-02-11T18:00:00","4","-33.964806","18.601667","46.02","CAPE TOWN INTERNATIONAL, SF","FM-12","99999","V020","190,1,N,0067,1","99999,9,9,N","030000,1,9,9","+0203,1","+0172,1","10134,1",,,,,,,,,,"120,M,+0254,1","120,N,+0203,1","99999,9,10080,1","2,1,005,1,+999,9",,,,"4,99,0088,1,999","SYN08068816 32980 01913 10203 20172 30080 40134 52005 333 10254 20203 91017 555 91013=",
"68816099999","2022-02-11T18:00:00","4","-33.964806","18.601667","46.02","CAPE TOWN INTERNATIONAL, SF","FM-15","99999","V020","190,1,N,0077,1","99999,9,9,Y","009900,5,9,9","+0200,1","+0170,1","99999,9",,,,,,,,,,,,"10130,1,99999,9",,,,,,"MET051METAR FACT 111800Z 19015KT CAVOK 20/17 Q1013 NOSIG=",
"68816099999","2022-02-11T19:00:00","4","-33.964806","18.601667","46.02","CAPE TOWN INTERNATIONAL, SF","FM-15","99999","V020","200,1,N,0082,1","99999,9,9,Y","009900,5,9,9","+0200,1","+0170,1","99999,9",,,,,,,,,,,,"10130,1,99999,9",,,,,,"MET051METAR FACT 111900Z 20016KT CAVOK 20/17 Q1013 NOSIG=",
"68816099999","2022-02-11T20:00:00","4","-33.964806","18.601667","46.02","CAPE TOWN INTERNATIONAL, SF","FM-15","99999","V020","200,1,N,0098,1","99999,9,9,N","009999,1,9,9","+0200,1","+0170,1","99999,9",,,,,"02,1,+00762,1,99,9",,,"9,AGL   ,+99999,+99999","99,99,9,02,1,99,9,00762,1,99,9,99,9",,,"10140,1,99999,9",,,,,,"MET057METAR FACT 112000Z 20019KT 9999 FEW025 20/17 Q1014 NOSIG=",
"68816099999","2022-02-11T21:00:00","4","-33.964806","18.601667","46.02","CAPE TOWN INTERNATIONAL, SF","FM-15","99999","V020","200,1,N,0108,1","99999,9,9,N","009999,1,9,9","+0200,1","+0170,1","99999,9",,,,,"02,1,+00762,1,99,9",,,"9,AGL   ,+99999,+99999","99,99,9,02,1,99,9,00762,1,99,9,99,9",,,"10140,1,99999,9",,,,,,"MET057METAR FACT 112100Z 20021KT 9999 FEW025 20/17 Q1014 NOSIG=",
"68816099999","2022-02-11T22:00:00","4","-33.964806","18.601667","46.02","CAPE TOWN INTERNATIONAL, SF","FM-15","99999","V020","200,1,N,0088,1","99999,9,9,Y","009900,5,9,9","+0200,1","+0170,1","99999,9",,,,,,,,,,,,"10140,1,99999,9",,,,,,"MET051METAR FACT 112200Z 20017KT CAVOK 20/17 Q1014 NOSIG=",
"68816099999","2022-02-11T23:00:00","4","-33.964806","18.601667","46.02","CAPE TOWN INTERNATIONAL, SF","FM-15","99999","V020","210,1,N,0077,1","99999,9,9,Y","009900,5,9,9","+0190,1","+0170,1","99999,9",,,,,,,,,,,,"10130,1,99999,9",,,,,,"MET051METAR FACT 112300Z 21015KT CAVOK 19/17 Q1013 NOSIG=",
"68816099999","2022-02-12T00:00:00","4","-33.964806","18.601667","46.02","CAPE TOWN INTERNATIONAL, SF","FM-12","99999","V020","210,1,N,0067,1","99999,9,9,N","020000,1,9,9","+0190,1","+0167,1","10127,1",,,,,,,,,,"120,M,+0254,1","120,N,+0190,1","99999,9,10073,1","2,1,014,1,+999,9",,,,"4,99,0077,1,999","SYN08068816 42970 02113 10190 20167 30073 40127 52014 333 10254 20190 91015 555 91012=",
"68816099999","2022-02-12T00:00:00","4","-33.964806","18.601667","46.02","CAPE TOWN INTERNATIONAL, SF","FM-15","99999","V020","210,1,N,0062,1","99999,9,9,Y","009900,5,9,9","+0190,1","+0170,1","99999,9",,,,,,,,,,,,"10120,1,99999,9",,,,,,"MET051METAR FACT 120000Z 21012KT CAVOK 19/17 Q1012 NOSIG=",
"68816099999","2022-02-12T01:00:00","4","-33.964806","18.601667","46.02","CAPE TOWN INTERNATIONAL, SF","FM-15","99999","V020","220,1,N,0046,1","99999,9,9,Y","009900,5,9,9","+0190,1","+0160,1","99999,9",,,,,,,,,,,,"10120,1,99999,9",,,,,,"MET051METAR FACT 120100Z 22009KT CAVOK 19/16 Q1012 NOSIG=",
"68816099999","2022-02-12T02:00:00","4","-33.964806","18.601667","46.02","CAPE TOWN INTERNATIONAL, SF","FM-15","99999","V020","220,1,N,0057,1","99999,9,9,Y","009900,5,9,9","+0180,1","+0160,1","99999,9",,,,,,,,,,,,"10110,1,99999,9",,,,,,"MET051METAR FACT 120200Z 22011KT CAVOK 18/16 Q1011 NOSIG=",
"68816099999","2022-02-12T03:00:00","4","-33.964806","18.601667","46.02","CAPE TOWN INTERNATIONAL, SF","FM-15","99999","V020","230,1,N,0067,1","99999,9,9,Y","009900,5,9,9","+0180,1","+0160,1","99999,9",,,,,,,,,,,,"10100,1,99999,9",,,,,,"MET051METAR FACT 120300Z 23013KT CAVOK 18/16 Q1010 NOSIG=",
"68816099999","2022-02-12T04:00:00","4","-33.964806","18.601667","46.02","CAPE TOWN INTERNATIONAL, SF","FM-15","99999","V020","240,1,N,0051,1","99999,9,9,Y","009900,5,9,9","+0180,1","+0160,1","99999,9",,,,,,,,,,,,"10100,1,99999,9",,,,,,"MET051METAR FACT 120400Z 24010KT CAVOK 18/16 Q1010 NOSIG=",
"68816099999","2022-02-12T05:00:00","4","-33.964806","18.601667","46.02","CAPE TOWN INTERNATIONAL, SF","FM-15","99999","V020","240,1,V,0031,1","99999,9,9,Y","009900,5,9,9","+0180,1","+0160,1","99999,9",,,,,,,,,,,,"10100,1,99999,9",,,,,,"MET059METAR FACT 120500Z 24006KT 210V270 CAVOK 18/16 Q1010 NOSIG=",
"68816099999","2022-02-12T06:00:00","4","-33.964806","18.601667","46.02","CAPE TOWN INTERNATIONAL, SF","FM-12","99999","V020","230,1,N,0026,1","22000,1,9,N","020000,1,9,9","+0202,1","+0164,1","10107,1",,,,,"99,9,+99999,9,00,1",,,"9,AGL   ,+99999,+99999","02,99,1,00,1,99,9,99999,9,99,9,99,9","240,N,+0179,1",,"99999,9,10053,1","3,1,003,1,+999,9",,,,"4,99,0051,1,999","SYN08668816 32970 22305 10202 20164 30053 40107 53003 80002 333 20179 91010 555 10254 91010=","Q01    003SCCGA1"
"68816099999","2022-02-12T06:00:00","4","-33.964806","18.601667","46.02","CAPE TOWN INTERNATIONAL, SF","FM-15","99999","V020","240,1,V,0026,1","99999,9,9,Y","009900,5,9,9","+0200,1","+0160,1","99999,9",,,,,,,,,,,,"10100,1,99999,9",,,,,,"MET059METAR FACT 120600Z 24005KT 200V310 CAVOK 20/16 Q1010 NOSIG=",
"68816099999","2022-02-12T07:00:00","4","-33.964806","18.601667","46.02","CAPE TOWN INTERNATIONAL, SF","FM-15","99999","V020","240,1,V,0036,1","99999,9,9,Y","009900,5,9,9","+0220,1","+0160,1","99999,9",,,,,,,,,,,,"10110,1,99999,9",,,,,,"MET059METAR FACT 120700Z 24007KT 210V270 CAVOK 22/16 Q1011 NOSIG=",
"68816099999","2022-02-12T07:58:00","4","-33.964806","18.601667","46.02","CAPE TOWN INTERNATIONAL, SF","FM-16","99999","V020","220,1,N,0046,1","99999,9,9,Y","009900,5,9,9","+0250,1","+0160,1","99999,9",,,,,,,,,,,,"10110,1,99999,9",,,,,,"MET051SPECI FACT 120758Z 22009KT CAVOK 25/16 Q1011 NOSIG=",
"68816099999","2022-02-12T08:00:00","4","-33.964806","18.601667","46.02","CAPE TOWN INTERNATIONAL, SF","FM-15","99999","V020","220,1,N,0046,1","99999,9,9,Y","009900,5,9,9","+0250,1","+0160,1","99999,9",,,,,,,,,,,,"10110,1,99999,9",,,,,,"MET051METAR FACT 120800Z 22009KT CAVOK 25/16 Q1011 NOSIG=",
"68816099999","2022-02-12T09:00:00","4","-33.964806","18.601667","46.02","CAPE TOWN INTERNATIONAL, SF","FM-15","99999","V020","250,1,V,0026,1","99999,9,9,Y","009900,5,9,9","+0280,1","+0160,1","99999,9",,,,,,,,,,,,"10120,1,99999,9",,,,,,"MET059METAR FACT 120900Z 25005KT 190V330 CAVOK 28/16 Q1012 NOSIG=",
"68816099999","2022-02-12T09:00:00","4","-33.964806","18.601667","46.02","CAPE TOWN INTERNATIONAL, SF","FM-16","99999","V020","250,1,V,0026,1","99999,9,9,Y","009900,5,9,9","+0280,1","+0160,1","99999,9",,,,,,,,,,,,"10120,1,99999,9",,,,,,"MET059SPECI FACT 120900Z 25005KT 190V330 CAVOK 28/16 Q1012 NOSIG=",
"68816099999","2022-02-12T10:00:00","4","-33.964806","18.601667","46.02","CAPE TOWN INTERNATIONAL, SF","FM-15","99999","V020","210,1,N,0041,1","99999,9,9,Y","009900,5,9,9","+0270,1","+0160,1","99999,9",,,,,,,,,,,,"10120,1,99999,9",,,,,,"MET051METAR FACT 121000Z 21008KT CAVOK 27/16 Q1012 NOSIG=",
"68816099999","2022-02-12T11:00:00","4","-33.964806","18.601667","46.02","CAPE TOWN INTERNATIONAL, SF","FM-15","99999","V020","200,1,V,0057,1","99999,9,9,Y","009900,5,9,9","+0270,1","+0170,1","99999,9",,,,,,,,,,,,"10130,1,99999,9",,,,,,"MET059METAR FACT 121100Z 20011KT 170V230 CAVOK 27/17 Q1013 NOSIG=",
"68816099999","2022-02-12T12:00:00","4","-33.964806","18.601667","46.02","CAPE TOWN INTERNATIONAL, SF","FM-12","99999","V020","170,1,N,0067,1","22000,1,9,N","030000,1,9,9","+0255,1","+0176,1","10129,1",,,,,"99,9,+99999,9,00,1",,,"9,AGL   ,+99999,+99999","01,99,1,00,1,99,9,99999,9,99,9,99,9","240,N,+0201,1",,"99999,9,10076,1","3,1,003,1,+999,9",,,,"4,99,0077,1,999","SYN08068816 32980 11713 10255 20176 30076 40129 53003 80002 333 20201 91015 555 91013=","Q01    003SCCGA1"
"68816099999","2022-02-12T12:00:00","4","-33.964806","18.601667","46.02","CAPE TOWN INTERNATIONAL, SF","FM-15","99999","V020","180,1,N,0062,1","99999,9,9,Y","009900,5,9,9","+0250,1","+0170,1","99999,9",,,,,,,,,,,,"10130,1,99999,9",,,,,,"MET051METAR FACT 121200Z 18012KT CAVOK 25/17 Q1013 NOSIG=",
"68816099999","2022-02-12T13:00:00","4","-33.964806","18.601667","46.02","CAPE TOWN INTERNATIONAL, SF","FM-15","99999","V020","170,1,V,0067,1","99999,9,9,Y","009900,5,9,9","+0240,1","+0180,1","99999,9",,,,,,,,,,,,"10120,1,99999,9",,,,,,"MET059METAR FACT 121300Z 17013KT 140V200 CAVOK 24/18 Q1012 NOSIG=",
"68816099999","2022-02-12T14:00:00","4","-33.964806","18.601667","46.02","CAPE TOWN INTERNATIONAL, SF","FM-15","99999","V020","170,1,N,0067,1","99999,9,9,Y","009900,5,9,9","+0230,1","+0180,1","99999,9",,,,,,,,,,,,"10120,1,99999,9",,,,,,"MET051METAR FACT 121400Z 17013KT CAVOK 23/18 Q1012 NOSIG=",
"68816099999","2022-02-12T15:00:00","4","-33.964806","18.601667","46.02","CAPE TOWN INTERNATIONAL, SF","FM-15","99999","V020","160,1,N,0062,1","99999,9,9,Y","009900,5,9,9","+0230,1","+0180,1","99999,9",,,,,,,,,,,,"10130,1,99999,9",,,,,,"MET051METAR FACT 121500Z 16012KT CAVOK 23/18 Q1013 NOSIG=",
"68816099999","2022-02-12T16:00:00","4","-33.964806","18.601667","46.02","CAPE TOWN INTERNATIONAL, SF","FM-15","99999","V020","170,1,N,0062,1","99999,9,9,Y","009900,5,9,9","+0220,1","+0180,1","99999,9",,,,,,,,,,,,"10130,1,99999,9",,,,,,"MET051METAR FACT 121600Z 17012KT CAVOK 22/18 Q1013 NOSIG=",
"68816099999","2022-02-12T17:00:00","4","-33.964806","18.601667","46.02","CAPE TOWN INTERNATIONAL, SF","FM-15","99999","V020","170,1,N,0062,1","99999,9,9,Y","009900,5,9,9","+0210,1","+0180,1","99999,9",,,,,,,,,,,,"10130,1,99999,9",,,,,,"MET051METAR FACT 121700Z 17012KT CAVOK 21/18 Q1013 NOSIG=",
"68816099999","2022-02-12T18:00:00","4","-33.964806","18.601667","46.02","CAPE TOWN INTERNATIONAL, SF","FM-12","99999","V020","190,1,N,0067,1","99999,9,9,N","040000,1,9,9","+0209,1","+0180,1","10129,1",,,,,"02,1,+00450,1,07,1","99,9,+99999,9,05,1",,"9,AGL   ,+99999,+99999","05,99,1,02,1,99,9,00450,1,99,9,99,9","120,M,+0279,1","120,N,+0179,1","99999,9,10075,1","3,1,003,1,+999,9",,,,"4,99,0077,1,999","SYN08668816 32482 51913 10209 20180 30075 40129 53003 82620 333 10279 20179 91015 555 91012=",
"68816099999","2022-02-12T18:00:00","4","-33.964806","18.601667","46.02","CAPE TOWN INTERNATIONAL, SF","FM-15","99999","V020","180,1,N,0072,1","99999,9,9,N","009999,1,9,9","+0210,1","+0180,1","99999,9",,,,,"02,1,+00305,1,99,9",,,"9,AGL   ,+99999,+99999","99,99,9,02,1,99,9,00305,1,99,9,99,9",,,"10120,1,99999,9",,,,,,"MET057METAR FACT 121800Z 18014KT 9999 FEW010 21/18 Q1012 NOSIG=",
"68816099999","2022-02-12T19:00:00","4","-33.964806","18.601667","46.02","CAPE TOWN INTERNATIONAL, SF","FM-15","99999","V020","190,1,N,0072,1","99999,9,9,Y","009900,5,9,9","+0200,1","+0180,1","99999,9",,,,,,,,,,,,"10130,1,99999,9",,,,,,"MET051METAR FACT 121900Z 19014KT CAVOK 20/18 Q1013 NOSIG=",
"68816099999","2022-02-12T20:00:00","4","-33.964806","18.601667","46.02","CAPE TOWN INTERNATIONAL, SF","FM-15","99999","V020","180,1,N,0067,1","99999,9,9,Y","009900,5,9,9","+0200,1","+0180,1","99999,9",,,,,,,,,,,,"10140,1,99999,9",,,,,,"MET051METAR FACT 122000Z 18013KT CAVOK 20/18 Q1014 NOSIG=",
"68816099999","2022-02-12T21:00:00","4","-33.964806","18.601667","46.02","CAPE TOWN INTERNATIONAL, SF","FM-15","99999","V020","200,1,N,0072,1","99999,9,9,Y","009900,5,9,9","+0200,1","+0180,1","99999,9",,,,,,,,,,,,"10130,1,99999,9",,,,,,"MET051METAR FACT 122100Z 20014KT CAVOK 20/18 Q1013 NOSIG=",
"68816099999","2022-02-12T22:00:00","4","-33.964806","18.601667","46.02","CAPE TOWN INTERNATIONAL, SF","FM-15","99999","V020","210,1,N,0072,1","99999,9,9,N","009999,1,9,9","+0200,1","+0170,1","99999,9",,,,,"02,1,+00305,1,99,9",,,"9,AGL   ,+99999,+99999","99,99,9,02,1,99,9,00305,1,99,9,99,9",,,"10130,1,99999,9",,,,,,"MET057METAR FACT 122200Z 21014KT 9999 FEW010 20/17 Q1013 NOSIG=",
"68816099999","2022-02-12T23:00:00","4","-33.964806","18.601667","46.02","CAPE TOWN INTERNATIONAL, SF","FM-15","99999","V020","210,1,N,0082,1","99999,9,9,N","009999,1,9,9","+0200,1","+0170,1","99999,9",,,,,"02,1,+00305,1,99,9",,,"9,AGL   ,+99999,+99999","99,99,9,02,1,99,9,00305,1,99,9,99,9",,,"10130,1,99999,9",,,,,,"MET057METAR FACT 122300Z 21016KT 9999 FEW010 20/17 Q1013 NOSIG=",
"68816099999","2022-02-13T00:00:00","4","-33.964806","18.601667","46.02","CAPE TOWN INTERNATIONAL, SF","FM-15","99999","V020","200,1,N,0046,1","99999,9,9,Y","009900,5,9,9","+0200,1","+0170,1","99999,9",,,,,,,,,,,,"10140,1,99999,9",,,,,,"MET051METAR FACT 130000Z 20009KT CAVOK 20/17 Q1014 NOSIG=",
"68816099999","2022-02-13T01:00:00","4","-33.964806","18.601667","46.02","CAPE TOWN INTERNATIONAL, SF","FM-15","99999","V020","210,1,V,0031,1","99999,9,9,Y","009900,5,9,9","+0200,1","+0170,1","99999,9",,,,,,,,,,,,"10140,1,99999,9",,,,,,"MET059METAR FACT 130100Z 21006KT 180V240 CAVOK 20/17 Q1014 NOSIG=",
"68816099999","2022-02-13T02:00:00","4","-33.964806","18.601667","46.02","CAPE TOWN INTERNATIONAL, SF","FM-15","99999","V020","200,1,N,0057,1","99999,9,9,Y","009900,5,9,9","+0200,1","+0170,1","99999,9",,,,,,,,,,,,"10130,1,99999,9",,,,,,"MET051METAR FACT 130200Z 20011KT CAVOK 20/17 Q1013 NOSIG=",
"68816099999","2022-02-13T03:00:00","4","-33.964806","18.601667","46.02","CAPE TOWN INTERNATIONAL, SF","FM-15","99999","V020","210,1,N,0051,1","99999,9,9,Y","009900,5,9,9","+0190,1","+0170,1","99999,9",,,,,,,,,,,,"10130,1,99999,9",,,,,,"MET051METAR FACT 130300Z 21010KT CAVOK 19/17 Q1013 NOSIG=",
"68816099999","2022-02-13T04:00:00","4","-33.964806","18.601667","46.02","CAPE TOWN INTERNATIONAL, SF","FM-15","99999","V020","190,1,N,0057,1","99999,9,9,Y","009900,5,9,9","+0190,1","+0170,1","99999,9",,,,,,,,,,,,"10130,1,99999,9",,,,,,"MET051METAR FACT 130400Z 19011KT CAVOK 19/17 Q1013 NOSIG=",
"68816099999","2022-02-13T05:00:00","4","-33.964806","18.601667","46.02","CAPE TOWN INTERNATIONAL, SF","FM-15","99999","V020","200,1,N,0046,1","99999,9,9,N","009999,1,9,9","+0190,1","+0180,1","99999,9",,,,,"02,1,+00305,1,99,9",,,"9,AGL   ,+99999,+99999","99,99,9,02,1,99,9,00305,1,99,9,99,9",,,"10130,1,99999,9",,,,,,"MET057METAR FACT 130500Z 20009KT 9999 FEW010 19/18 Q1013 NOSIG=",
"68816099999","2022-02-13T06:00:00","4","-33.964806","18.601667","46.02","CAPE TOWN INTERNATIONAL, SF","FM-12","99999","V020","190,1,N,0082,1","22000,1,9,N","030000,1,9,9","+0211,1","+0176,1","10137,1",,,,,"01,1,+99999,9,03,1",,,"9,AGL   ,+99999,+99999","01,99,1,01,1,99,9,99999,9,99,9,99,9","240,N,+0188,1",,"99999,9,10083,1","2,1,008,1,+999,9",,,,"4,99,0103,1,999","SYN08668816 32980 11916 10211 20176 30083 40137 52008 81070 333 20188 91020 555 10279 91013=",
"68816099999","2022-02-13T06:00:00","4","-33.964806","18.601667","46.02","CAPE TOWN INTERNATIONAL, SF","FM-15","99999","V020","190,1,N,0077,1","99999,9,9,Y","009900,5,9,9","+0210,1","+0180,1","99999,9",,,,,,,,,,,,"10130,1,99999,9",,,,,,"MET051METAR FACT 130600Z 19015KT CAVOK 21/18 Q1013 NOSIG=",
"68816099999","2022-02-13T07:00:00","4","-33.964806","18.601667","46.02","CAPE TOWN INTERNATIONAL, SF","FM-15","99999","V020","190,1,N,0108,1","99999,9,9,N","009999,1,9,9","+0220,1","+0180,1","99999,9",,,,,"04,1,+00457,1,99,9",,,"9,AGL   ,+99999,+99999","99,99,9,04,1,99,9,00457,1,99,9,99,9",,,"10140,1,99999,9",,,,,,"MET057METAR FACT 130700Z 19021KT 9999 SCT015 22/18 Q1014 NOSIG=",
"68816099999","2022-02-13T08:00:00","4","-33.964806","18.601667","46.02","CAPE TOWN INTERNATIONAL, SF","FM-15","99999","V020","190,1,N,0118,1","99999,9,9,N","009999,1,9,9","+0220,1","+0180,1","99999,9",,,,,"02,1,+00305,1,99,9",,,"9,AGL   ,+99999,+99999","99,99,9,02,1,99,9,00305,1,99,9,99,9",,,"10140,1,99999,9",,,,,,"MET057METAR FACT 130800Z 19023KT 9999 FEW010 22/18 Q1014 NOSIG=",
"68816099999","2022-02-13T09:00:00","4","-33.964806","18.601667","46.02","CAPE TOWN INTERNATIONAL, SF","FM-15","99999","V020","180,1,N,0124,1","99999,9,9,N","009999,1,9,9","+0240,1","+0180,1","99999,9",,,,,"02,1,+00305,1,99,9",,,"9,AGL   ,+99999,+99999","99,99,9,02,1,99,9,00305,1,99,9,99,9",,,"10140,1,99999,9",,,,,,"MET057METAR FACT 130900Z 18024KT 9999 FEW010 24/18 Q1014 NOSIG=",
"68816099999","2022-02-13T10:00:00","4","-33.964806","18.601667","46.02","CAPE TOWN INTERNATIONAL, SF","FM-15","99999","V020","190,1,N,0118,1","99999,9,9,N","009999,1,9,9","+0240,1","+0180,1","99999,9",,,,,"02,1,+00457,1,99,9",,,"9,AGL   ,+99999,+99999","99,99,9,02,1,99,9,00457,1,99,9,99,9",,,"10150,1,99999,9",,,,,,"MET057METAR FACT 131000Z 19023KT 9999 FEW015 24/18 Q1015 NOSIG=",
"68816099999","2022-02-13T11:00:00","4","-33.964806","18.601667","46.02","CAPE TOWN INTERNATIONAL, SF","FM-15","99999","V020","190,1,N,0108,1","99999,9,9,N","009999,1,9,9","+0250,1","+0180,1","99999,9",,,,,"02,1,+00610,1,99,9",,,"9,AGL   ,+99999,+99999","99,99,9,02,1,99,9,00610,1,99,9,99,9",,,"10140,1,99999,9",,,,,,"MET057METAR FACT 131100Z 19021KT 9999 FEW020 25/18 Q1014 NOSIG=",
"68816099999","2022-02-13T12:00:00","4","-33.964806","18.601667","46.02","CAPE TOWN INTERNATIONAL, SF","FM-12","99999","V020","190,1,N,0098,1","22000,1,9,N","045000,1,9,9","+0261,1","+0169,1","10137,1",,,,,"02,1,+00800,1,06,1",,,"9,AGL   ,+99999,+99999","02,99,1,02,1,99,9,00800,1,99,9,99,9","240,N,+0207,1",,"99999,9,10083,1","2,1,008,1,+999,9",,,,"4,99,0103,1,999","SYN08068816 32583 21919 10261 20169 30083 40137 52008 82500 333 20207 91020 555 91013=",
"68816099999","2022-02-13T12:00:00","4","-33.964806","18.601667","46.02","CAPE TOWN INTERNATIONAL, SF","FM-15","99999","V020","190,1,N,0103,1","99999,9,9,N","009999,1,9,9","+0270,1","+0160,1","99999,9",,,,,"02,1,+00610,1,99,9",,,"9,AGL   ,+99999,+99999","99,99,9,02,1,99,9,00610,1,99,9,99,9",,,"10130,1,99999,9",,,,,,"MET057METAR FACT 131200Z 19020KT 9999 FEW020 27/16 Q1013 NOSIG=",
"68816099999","2022-02-13T13:00:00","4","-33.964806","18.601667","46.02","CAPE TOWN INTERNATIONAL, SF","FM-15","99999","V020","190,1,N,0118,1","99999,9,9,N","009999,1,9,9","+0260,1","+0180,1","99999,9",,,,,"02,1,+00914,1,99,9",,,"9,AGL   ,+99999,+99999","99,99,9,02,1,99,9,00914,1,99,9,99,9",,,"10130,1,99999,9",,,,,,"MET057METAR FACT 131300Z 19023KT 9999 FEW030 26/18 Q1013 NOSIG=",
"68816099999","2022-02-13T14:00:00","4","-33.964806","18.601667","46.02","CAPE TOWN INTERNATIONAL, SF","FM-15","99999","V020","190,1,N,0129,1","99999,9,9,N","009999,1,9,9","+0240,1","+0180,1","99999,9",,,,,"02,1,+00914,1,99,9",,,"9,AGL   ,+99999,+99999","99,99,9,02,1,99,9,00914,1,99,9,99,9",,,"10130,1,99999,9",,,,,,"MET057METAR FACT 131400Z 19025KT 9999 FEW030 24/18 Q1013 NOSIG=",
"68816099999","2022-02-13T14:36:00","4","-33.964806","18.601667","46.02","CAPE TOWN INTERNATIONAL, SF","FM-16","99999","V020","180,1,N,0124,1","99999,9,9,N","009999,1,9,9","+0240,1","+0180,1","99999,9",,,,,"04,1,+00671,1,99,9",,,"9,AGL   ,+99999,+99999","99,99,9,04,1,99,9,00671,1,99,9,99,9",,,"10130,1,99999,9",,,,"0175,1",,"MET060SPECI FACT 131436Z 18024G34KT 9999 SCT022 24/18 Q1013 NOSIG=",
"68816099999","2022-02-13T15:00:00","4","-33.964806","18.601667","46.02","CAPE TOWN INTERNATIONAL, SF","FM-15","99999","V020","190,1,N,0129,1","99999,9,9,N","009999,1,9,9","+0230,1","+0180,1","99999,9",,,,,"02,1,+00762,1,99,9",,,"9,AGL   ,+99999,+99999","99,99,9,02,1,99,9,00762,1,99,9,99,9",,,"10130,1,99999,9",,,,"0190,1",,"MET060METAR FACT 131500Z 19025G37KT 9999 FEW025 23/18 Q1013 NOSIG=",
"68816099999","2022-02-13T16:00:00","4","-33.964806","18.601667","46.02","CAPE TOWN INTERNATIONAL, SF","FM-15","99999","V020","180,1,N,0129,1","99999,9,9,N","009999,1,9,9","+0230,1","+0180,1","99999,9",,,,,"02,1,+00610,1,99,9",,,"9,AGL   ,+99999,+99999","99,99,9,02,1,99,9,00610,1,99,9,99,9",,,"10130,1,99999,9",,,,,,"MET057METAR FACT 131600Z 18025KT 9999 FEW020 23/18 Q1013 NOSIG=",
"68816099999","2022-02-13T17:00:00","4","-33.964806","18.601667","46.02","CAPE TOWN INTERNATIONAL, SF","FM-15","99999","V020","180,1,N,0118,1","99999,9,9,N","009999,1,9,9","+0220,1","+0170,1","99999,9",,,,,"02,1,+00549,1,99,9",,,"9,AGL   ,+99999,+99999","99,99,9,02,1,99,9,00549,1,99,9,99,9",,,"10130,1,99999,9",,,,,,"MET057METAR FACT 131700Z 18023KT 9999 FEW018 22/17 Q1013 NOSIG=",
"68816099999","2022-02-13T18:00:00","4","-33.964806","18.601667","46.02","CAPE TOWN INTERNATIONAL, SF","FM-12","99999","V020","180,1,N,0093,1","22000,1,9,N","030000,1,9,9","+0209,1","+0174,1","10138,1",,,,,"01,1,+00450,1,06,1",,,"9,AGL   ,+99999,+99999","01,99,1,01,1,99,9,00450,1,99,9,99,9","120,M,+0274,1","120,N,+0208,1","99999,9,10084,1","2,1,008,1,+999,9",,,,"4,99,0098,1,999","SYN08668816 32480 11818 10209 20174 30084 40138 52008 81500 333 10274 20208 91019 555 91013=",
"68816099999","2022-02-13T18:00:00","4","-33.964806","18.601667","46.02","CAPE TOWN INTERNATIONAL, SF","FM-15","99999","V020","180,1,N,0093,1","99999,9,9,N","009999,1,9,9","+0210,1","+0170,1","99999,9",,,,,"02,1,+00457,1,99,9",,,"9,AGL   ,+99999,+99999","99,99,9,02,1,99,9,00457,1,99,9,99,9",,,"10130,1,99999,9",,,,,,"MET057METAR FACT 131800Z 18018KT 9999 FEW015 21/17 Q1013 NOSIG=",
"68816099999","2022-02-13T19:00:00","4","-33.964806","18.601667","46.02","CAPE TOWN INTERNATIONAL, SF","FM-15","99999","V020","180,1,N,0098,1","99999,9,9,N","009999,1,9,9","+0200,1","+0170,1","99999,9",,,,,"02,1,+00610,1,99,9",,,"9,AGL   ,+99999,+99999","99,99,9,02,1,99,9,00610,1,99,9,99,9",,,"10140,1,99999,9",,,,,,"MET057METAR FACT 131900Z 18019KT 9999 FEW020 20/17 Q1014 NOSIG=",
"68816099999","2022-02-13T20:00:00","4","-33.964806","18.601667","46.02","CAPE TOWN INTERNATIONAL, SF","FM-15","99999","V020","180,1,N,0103,1","99999,9,9,N","009999,1,9,9","+0200,1","+0170,1","99999,9",,,,,"02,1,+00762,1,99,9",,,"9,AGL   ,+99999,+99999","99,99,9,02,1,99,9,00762,1,99,9,99,9",,,"10140,1,99999,9",,,,,,"MET057METAR FACT 132000Z 18020KT 9999 FEW025 20/17 Q1014 NOSIG=",
"68816099999","2022-02-13T21:00:00","4","-33.964806","18.601667","46.02","CAPE TOWN INTERNATIONAL, SF","FM-15","99999","V020","190,1,N,0093,1","99999,9,9,N","009999,1,9,9","+0200,1","+0170,1","99999,9",,,,,"02,1,+00762,1,99,9",,,"9,AGL   ,+99999,+99999","99,99,9,02,1,99,9,00762,1,99,9,99,9",,,"10140,1,99999,9",,,,,,"MET057METAR FACT 132100Z 19018KT 9999 FEW025 20/17 Q1014 NOSIG=",
"68816099999","2022-02-13T21:55:00","4","-33.964806","18.601667","46.02","CAPE TOWN INTERNATIONAL, SF","FM-16","99999","V020","170,1,N,0098,1","99999,9,9,N","009999,1,9,9","+0200,1","+0170,1","99999,9",,,,,"02,1,+00762,1,99,9",,,"9,AGL   ,+99999,+99999","99,99,9,02,1,99,9,00762,1,99,9,99,9",,,"10140,1,99999,9",,,,"0149,1",,"MET060SPECI FACT 132155Z 17019G29KT 9999 FEW025 20/17 Q1014 NOSIG=",
"68816099999","2022-02-13T22:00:00","4","-33.964806","18.601667","46.02","CAPE TOWN INTERNATIONAL, SF","FM-15","99999","V020","170,1,N,0098,1","99999,9,9,N","009999,1,9,9","+0200,1","+0170,1","99999,9",,,,,"02,1,+00762,1,99,9",,,"9,AGL   ,+99999,+99999","99,99,9,02,1,99,9,00762,1,99,9,99,9",,,"10140,1,99999,9",,,,"0149,1",,"MET060METAR FACT 132200Z 17019G29KT 9999 FEW025 20/17 Q1014 NOSIG=",
"68816099999","2022-02-13T23:00:00","4","-33.964806","18.601667","46.02","CAPE TOWN INTERNATIONAL, SF","FM-15","99999","V020","190,1,N,0082,1","99999,9,9,N","009999,1,9,9","+0200,1","+0160,1","99999,9",,,,,"02,1,+00762,1,99,9",,,"9,AGL   ,+99999,+99999","99,99,9,02,1,99,9,00762,1,99,9,99,9",,,"10140,1,99999,9",,,,,,"MET057METAR FACT 132300Z 19016KT 9999 FEW025 20/16 Q1014 NOSIG=",
"68816099999","2022-02-14T00:00:00","4","-33.964806","18.601667","46.02","CAPE TOWN INTERNATIONAL, SF","FM-12","99999","V020","180,1,N,0082,1","22000,1,9,N","020000,1,9,9","+0203,1","+0163,1","10130,1",,,,,"01,1,+00800,1,06,1",,,"9,AGL   ,+99999,+99999","01,99,1,01,1,99,9,00800,1,99,9,99,9","120,M,+0274,1","120,N,+0196,1","99999,9,10076,1","7,1,010,1,+999,9",,,,"4,99,0118,1,999","SYN08668816 32570 11816 10203 20163 30076 40130 57010 81500 333 10274 20196 91023 555 91013=",
"68816099999","2022-02-14T00:00:00","4","-33.964806","18.601667","46.02","CAPE TOWN INTERNATIONAL, SF","FM-15","99999","V020","190,1,N,0082,1","99999,9,9,N","009999,1,9,9","+0200,1","+0160,1","99999,9",,,,,"02,1,+00762,1,99,9",,,"9,AGL   ,+99999,+99999","99,99,9,02,1,99,9,00762,1,99,9,99,9",,,"10130,1,99999,9",,,,,,"MET057METAR FACT 140000Z 19016KT 9999 FEW025 20/16 Q1013 NOSIG=",
"68816099999","2022-02-14T01:00:00","4","-33.964806","18.601667","46.02","CAPE TOWN INTERNATIONAL, SF","FM-15","99999","V020","190,1,N,0103,1","99999,9,9,N","009999,1,9,9","+0200,1","+0160,1","99999,9",,,,,"02,1,+00762,1,99,9",,,"9,AGL   ,+99999,+99999","99,99,9,02,1,99,9,00762,1,99,9,99,9",,,"10120,1,99999,9",,,,,,"MET057METAR FACT 140100Z 19020KT 9999 FEW025 20/16 Q1012 NOSIG=",
"68816099999","2022-02-14T02:00:00","4","-33.964806","18.601667","46.02","CAPE TOWN INTERNATIONAL, SF","FM-15","99999","V020","200,1,N,0088,1","99999,9,9,N","009999,1,9,9","+0200,1","+0160,1","99999,9",,,,,"02,1,+00762,1,99,9",,,"9,AGL   ,+99999,+99999","99,99,9,02,1,99,9,00762,1,99,9,99,9",,,"10120,1,99999,9",,,,,,"MET057METAR FACT 140200Z 20017KT 9999 FEW025 20/16 Q1012 NOSIG=",
"68816099999","2022-02-14T03:00:00","4","-33.964806","18.601667","46.02","CAPE TOWN INTERNATIONAL, SF","FM-15","99999","V020","180,1,N,0093,1","99999,9,9,N","009999,1,9,9","+0200,1","+0160,1","99999,9",,,,,"02,1,+00762,1,99,9",,,"9,AGL   ,+99999,+99999","99,99,9,02,1,99,9,00762,1,99,9,99,9",,,"10120,1,99999,9",,,,,,"MET057METAR FACT 140300Z 18018KT 9999 FEW025 20/16 Q1012 NOSIG=",
"68816099999","2022-02-14T04:00:00","4","-33.964806","18.601667","46.02","CAPE TOWN INTERNATIONAL, SF","FM-15","99999","V020","180,1,N,0057,1","99999,9,9,Y","009900,5,9,9","+0200,1","+0160,1","99999,9",,,,,,,,,,,,"10120,1,99999,9",,,,,,"MET051METAR FACT 140400Z 18011KT CAVOK 20/16 Q1012 NOSIG=",
"68816099999","2022-02-14T05:00:00","4","-33.964806","18.601667","46.02","CAPE TOWN INTERNATIONAL, SF","FM-15","99999","V020","160,1,N,0041,1","99999,9,9,Y","009900,5,9,9","+0200,1","+0160,1","99999,9",,,,,,,,,,,,"10120,1,99999,9",,,,,,"MET051METAR FACT 140500Z 16008KT CAVOK 20/16 Q1012 NOSIG=",
"68816099999","2022-02-14T06:00:00","4","-33.964806","18.601667","46.02","CAPE TOWN INTERNATIONAL, SF","FM-12","99999","V020","150,1,N,0036,1","99999,9,9,N","030000,1,9,9","+0223,1","+0161,1","10124,1",,,,,,,,,,"240,N,+0193,1",,"99999,9,10071,1","6,1,001,1,+999,9",,,,"4,99,0051,1,999","SYN08068816 32980 01507 10223 20161 30071 40124 56001 333 20193 91010 555 10274 91012=",
"68816099999","2022-02-14T06:00:00","4","-33.964806","18.601667","46.02","CAPE TOWN INTERNATIONAL, SF","FM-15","99999","V020","150,1,N,0036,1","99999,9,9,Y","009900,5,9,9","+0220,1","+0160,1","99999,9",,,,,,,,,,,,"10120,1,99999,9",,,,,,"MET051METAR FACT 140600Z 15007KT CAVOK 22/16 Q1012 NOSIG=",
"68816099999","2022-02-14T06:27:00","4","-33.964806","18.601667","46.02","CAPE TOWN INTERNATIONAL, SF","FM-16","99999","V020","160,1,N,0036,1","99999,9,9,Y","009900,5,9,9","+0240,1","+0160,1","99999,9",,,,,,,,,,,,"10120,1,99999,9",,,,,,"MET051SPECI FACT 140627Z 16007KT CAVOK 24/16 Q1012 NOSIG=",
"68816099999","2022-02-14T07:00:00","4","-33.964806","18.601667","46.02","CAPE TOWN INTERNATIONAL, SF","FM-15","99999","V020","140,1,N,0046,1","99999,9,9,Y","009900,5,9,9","+0250,1","+0160,1","99999,9",,,,,,,,,,,,"10120,1,99999,9",,,,,,"MET051METAR FACT 140700Z 14009KT CAVOK 25/16 Q1012 NOSIG=",
"68816099999","2022-02-14T07:54:00","4","-33.964806","18.601667","46.02","CAPE TOWN INTERNATIONAL, SF","FM-16","99999","V020","190,1,N,0046,1","99999,9,9,Y","009900,5,9,9","+0280,1","+0160,1","99999,9",,,,,,,,,,,,"10120,1,99999,9",,,,,,"MET051SPECI FACT 140754Z 19009KT CAVOK 28/16 Q1012 NOSIG=",
"68816099999","2022-02-14T08:00:00","4","-33.964806","18.601667","46.02","CAPE TOWN INTERNATIONAL, SF","FM-15","99999","V020","190,1,N,0046,1","99999,9,9,Y","009900,5,9,9","+0280,1","+0160,1","99999,9",,,,,,,,,,,,"10120,1,99999,9",,,,,,"MET051METAR FACT 140800Z 19009KT CAVOK 28/16 Q1012 NOSIG=",
"68816099999","2022-02-14T09:00:00","4","-33.964806","18.601667","46.02","CAPE TOWN INTERNATIONAL, SF","FM-15","99999","V020","170,1,V,0077,1","99999,9,9,Y","009900,5,9,9","+0300,1","+0160,1","99999,9",,,,,,,,,,,,"10120,1,99999,9",,,,,,"MET059METAR FACT 140900Z 17015KT 120V180 CAVOK 30/16 Q1012 NOSIG=",
"68816099999","2022-02-14T10:00:00","4","-33.964806","18.601667","46.02","CAPE TOWN INTERNATIONAL, SF","FM-15","99999","V020","150,1,N,0062,1","99999,9,9,Y","009900,5,9,9","+0300,1","+0160,1","99999,9",,,,,,,,,,,,"10110,1,99999,9",,,,,,"MET051METAR FACT 141000Z 15012KT CAVOK 30/16 Q1011 NOSIG=",
"68816099999","2022-02-14T11:00:00","4","-33.964806","18.601667","46.02","CAPE TOWN INTERNATIONAL, SF","FM-15","99999","V020","190,1,V,0051,1","99999,9,9,Y","009900,5,9,9","+0320,1","+0160,1","99999,9",,,,,,,,,,,,"10110,1,99999,9",,,,,,"MET059METAR FACT 141100Z 19010KT 130V210 CAVOK 32/16 Q1011 NOSIG=",
"68816099999","2022-02-14T12:00:00","4","-33.964806","18.601667","46.02","CAPE TOWN INTERNATIONAL, SF","FM-12","99999","V020","220,1,N,0057,1","99999,9,9,N","055000,1,9,9","+0323,1","+0165,1","10102,1",,,,,,,,,,"240,N,+0227,1",,"99999,9,10050,1","9,9,050,1,+999,9",,,,"4,99,0051,1,999","SYN07468816 32985 02211 10323 20165 30050 40102 50050 333 20227 91010 555 91010=",
"68816099999","2022-02-14T12:00:00","4","-33.964806","18.601667","46.02","CAPE TOWN INTERNATIONAL, SF","FM-15","99999","V020","190,1,V,0051,1","99999,9,9,Y","009900,5,9,9","+0330,1","+0160,1","99999,9",,,,,,,,,,,,"10100,1,99999,9",,,,,,"MET059METAR FACT 141200Z 19010KT 160V220 CAVOK 33/16 Q1010 NOSIG=",
"68816099999","2022-02-14T13:00:00","4","-33.964806","18.601667","46.02","CAPE TOWN INTERNATIONAL, SF","FM-15","99999","V020","220,1,N,0062,1","99999,9,9,Y","009900,5,9,9","+0310,1","+0170,1","99999,9",,,,,,,,,,,,"10100,1,99999,9",,,,,,"MET051METAR FACT 141300Z 22012KT CAVOK 31/17 Q1010 NOSIG=",
"68816099999","2022-02-14T14:00:00","4","-33.964806","18.601667","46.02","CAPE TOWN INTERNATIONAL, SF","FM-15","99999","V020","220,1,N,0062,1","99999,9,9,Y","009900,5,9,9","+0290,1","+0170,1","99999,9",,,,,,,,,,,,"10090,1,99999,9",,,,,,"MET051METAR FACT 141400Z 22012KT CAVOK 29/17 Q1009 NOSIG=",
"68816099999","2022-02-14T15:00:00","4","-33.964806","18.601667","46.02","CAPE TOWN INTERNATIONAL, SF","FM-15","99999","V020","220,1,N,0057,1","99999,9,9,Y","009900,5,9,9","+0280,1","+0170,1","99999,9",,,,,,,,,,,,"10090,1,99999,9",,,,,,"MET051METAR FACT 141500Z 22011KT CAVOK 28/17 Q1009 NOSIG=",
"68816099999","2022-02-14T16:00:00","4","-33.964806","18.601667","46.02","CAPE TOWN INTERNATIONAL, SF","FM-15","99999","V020","220,1,N,0057,1","99999,9,9,Y","009900,5,9,9","+0270,1","+0170,1","99999,9",,,,,,,,,,,,"10080,1,99999,9",,,,,,"MET051METAR FACT 141600Z 22011KT CAVOK 27/17 Q1008 NOSIG=",
"68816099999","2022-02-14T17:00:00","4","-33.964806","18.601667","46.02","CAPE TOWN INTERNATIONAL, SF","FM-15","99999","V020","220,1,N,0051,1","99999,9,9,Y","009900,5,9,9","+0250,1","+0170,1","99999,9",,,,,,,,,,,,"10080,1,99999,9",,,,,,"MET051METAR FACT 141700Z 22010KT CAVOK 25/17 Q1008 NOSIG=",
"68816099999","2022-02-14T18:00:00","4","-33.964806","18.601667","46.02","CAPE TOWN INTERNATIONAL, SF","FM-15","99999","V020","220,1,N,0046,1","99999,9,9,Y","009900,5,9,9","+0240,1","+0170,1","99999,9",,,,,,,,,,,,"10090,1,99999,9",,,,,,"MET051METAR FACT 141800Z 22009KT CAVOK 24/17 Q1009 NOSIG=",
"68816099999","2022-02-14T19:00:00","4","-33.964806","18.601667","46.02","CAPE TOWN INTERNATIONAL, SF","FM-15","99999","V020","210,1,N,0046,1","99999,9,9,Y","009900,5,9,9","+0240,1","+0170,1","99999,9",,,,,,,,,,,,"10090,1,99999,9",,,,,,"MET051METAR FACT 141900Z 21009KT CAVOK 24/17 Q1009 NOSIG=",
"68816099999","2022-02-14T20:00:00","4","-33.964806","18.601667","46.02","CAPE TOWN INTERNATIONAL, SF","FM-15","99999","V020","210,1,N,0031,1","99999,9,9,Y","009900,5,9,9","+0230,1","+0170,1","99999,9",,,,,,,,,,,,"10100,1,99999,9",,,,,,"MET051METAR FACT 142000Z 21006KT CAVOK 23/17 Q1010 NOSIG=",
"68816099999","2022-02-14T21:00:00","4","-33.964806","18.601667","46.02","CAPE TOWN INTERNATIONAL, SF","FM-15","99999","V020","220,1,N,0026,1","99999,9,9,Y","009900,5,9,9","+0230,1","+0170,1","99999,9",,,,,,,,,,,,"10100,1,99999,9",,,,,,"MET051METAR FACT 142100Z 22005KT CAVOK 23/17 Q1010 NOSIG=",
"68816099999","2022-02-14T22:00:00","4","-33.964806","18.601667","46.02","CAPE TOWN INTERNATIONAL, SF","FM-15","99999","V020","999,9,V,0010,1","99999,9,9,Y","009900,5,9,9","+0220,1","+0160,1","99999,9",,,,,,,,,,,,"10100,1,99999,9",,,,,,"MET051METAR FACT 142200Z VRB02KT CAVOK 22/16 Q1010 NOSIG=",
"68816099999","2022-02-14T23:00:00","4","-33.964806","18.601667","46.02","CAPE TOWN INTERNATIONAL, SF","FM-15","99999","V020","180,1,N,0021,1","99999,9,9,Y","009900,5,9,9","+0220,1","+0170,1","99999,9",,,,,,,,,,,,"10090,1,99999,9",,,,,,"MET051METAR FACT 142300Z 18004KT CAVOK 22/17 Q1009 NOSIG=",
"68816099999","2022-02-15T00:00:00","4","-33.964806","18.601667","46.02","CAPE TOWN INTERNATIONAL, SF","FM-12","99999","V020","140,1,N,0015,1","22000,1,9,N","030000,1,9,9","+0207,1","+0165,1","10091,1",,,,,"03,1,+99999,9,03,1",,,"9,AGL   ,+99999,+99999","03,99,1,03,1,99,9,99999,9,99,9,99,9",,,"99999,9,10037,1","2,1,002,1,+999,9",,,,"4,99,0021,1,999","SYN07468816 32980 31403 10207 20165 30037 40091 52002 83030 333 91004 555 91009=",
"68816099999","2022-02-15T00:00:00","4","-33.964806","18.601667","46.02","CAPE TOWN INTERNATIONAL, SF","FM-15","99999","V020","140,1,N,0015,1","99999,9,9,Y","009900,5,9,9","+0210,1","+0170,1","99999,9",,,,,,,,,,,,"10090,1,99999,9",,,,,,"MET051METAR FACT 150000Z 14003KT CAVOK 21/17 Q1009 NOSIG=",
"68816099999","2022-02-15T01:00:00","4","-33.964806","18.601667","46.02","CAPE TOWN INTERNATIONAL, SF","FM-15","99999","V020","170,1,N,0015,1","99999,9,9,Y","009900,5,9,9","+0220,1","+0160,1","99999,9",,,,,,,,,,,,"10080,1,99999,9",,,,,,"MET051METAR FACT 150100Z 17003KT CAVOK 22/16 Q1008 NOSIG=",
"68816099999","2022-02-15T02:00:00","4","-33.964806","18.601667","46.02","CAPE TOWN INTERNATIONAL, SF","FM-15","99999","V020","360,1,N,0026,1","99999,9,9,Y","009900,5,9,9","+0210,1","+0170,1","99999,9",,,,,,,,,,,,"10080,1,99999,9",,,,,,"MET051METAR FACT 150200Z 36005KT CAVOK 21/17 Q1008 NOSIG=",
"68816099999","2022-02-15T02:24:00","4","-33.964806","18.601667","46.02","CAPE TOWN INTERNATIONAL, SF","FM-16","99999","V020","300,1,N,0026,1","99999,9,9,Y","009900,5,9,9","+0230,1","+0170,1","99999,9",,,,,,,,,,,,"10080,1,99999,9",,,,,,"MET051SPECI FACT 150224Z 30005KT CAVOK 23/17 Q1008 NOSIG=",
"68816099999","2022-02-15T03:00:00","4","-33.964806","18.601667","46.02","CAPE TOWN INTERNATIONAL, SF","FM-15","99999","V020","330,1,N,0046,1","99999,9,9,Y","009900,5,9,9","+0220,1","+0160,1","99999,9",,,,,,,,,,,,"10080,1,99999,9",,,,,,"MET051METAR FACT 150300Z 33009KT CAVOK 22/16 Q1008 NOSIG=",
"68816099999","2022-02-15T04:00:00","4","-33.964806","18.601667","46.02","CAPE TOWN INTERNATIONAL, SF","FM-15","99999","V020","360,1,N,0046,1","99999,9,9,Y","009900,5,9,9","+0230,1","+0150,1","99999,9",,,,,,,,,,,,"10090,1,99999,9",,,,,,"MET051METAR FACT 150400Z 36009KT CAVOK 23/15 Q1009 NOSIG=",
"68816099999","2022-02-15T05:00:00","4","-33.964806","18.601667","46.02","CAPE TOWN INTERNATIONAL, SF","FM-15","99999","V020","010,1,N,0051,1","99999,9,9,Y","009900,5,9,9","+0250,1","+0160,1","99999,9",,,,,,,,,,,,"10100,1,99999,9",,,,,,"MET051METAR FACT 150500Z 01010KT CAVOK 25/16 Q1010 NOSIG=",
"68816099999","2022-02-15T06:00:00","4","-33.964806","18.601667","46.02","CAPE TOWN INTERNATIONAL, SF","FM-15","99999","V020","050,1,N,0051,1","99999,9,9,Y","009900,5,9,9","+0260,1","+0160,1","99999,9",,,,,,,,,,,,"10100,1,99999,9",,,,,,"MET051METAR FACT 150600Z 05010KT CAVOK 26/16 Q1010 NOSIG=",
"68816099999","2022-02-15T06:42:00","4","-33.964806","18.601667","46.02","CAPE TOWN INTERNATIONAL, SF","FM-16","99999","V020","010,1,N,0062,1","99999,9,9,Y","009900,5,9,9","+0280,1","+0160,1","99999,9",,,,,,,,,,,,"10100,1,99999,9",,,,,,"MET051SPECI FACT 150642Z 01012KT CAVOK 28/16 Q1010 NOSIG=",
"68816099999","2022-02-15T07:00:00","4","-33.964806","18.601667","46.02","CAPE TOWN INTERNATIONAL, SF","FM-15","99999","V020","010,1,N,0072,1","99999,9,9,Y","009900,5,9,9","+0290,1","+0160,1","99999,9",,,,,,,,,,,,"10100,1,99999,9",,,,,,"MET051METAR FACT 150700Z 01014KT CAVOK 29/16 Q1010 NOSIG=",
"68816099999","2022-02-15T07:25:00","4","-33.964806","18.601667","46.02","CAPE TOWN INTERNATIONAL, SF","FM-16","99999","V020","010,1,V,0046,1","99999,9,9,Y","009900,5,9,9","+0310,1","+0160,1","99999,9",,,,,,,,,,,,"10100,1,99999,9",,,,,,"MET059SPECI FACT 150725Z 01009KT 340V040 CAVOK 31/16 Q1010 NOSIG=",
"68816099999","2022-02-15T08:00:00","4","-33.964806","18.601667","46.02","CAPE TOWN INTERNATIONAL, SF","FM-15","99999","V020","010,1,V,0036,1","99999,9,9,Y","009900,5,9,9","+0320,1","+0150,1","99999,9",,,,,,,,,,,,"10100,1,99999,9",,,,,,"MET059METAR FACT 150800Z 01007KT 300V030 CAVOK 32/15 Q1010 NOSIG=",
"68816099999","2022-02-15T09:00:00","4","-33.964806","18.601667","46.02","CAPE TOWN INTERNATIONAL, SF","FM-15","99999","V020","340,1,N,0057,1","99999,9,9,Y","009900,5,9,9","+0320,1","+0160,1","99999,9",,,,,,,,,,,,"10110,1,99999,9",,,,,,"MET051METAR FACT 150900Z 34011KT CAVOK 32/16 Q1011 NOSIG=",
"68816099999","2022-02-15T10:00:00","4","-33.964806","18.601667","46.02","CAPE TOWN INTERNATIONAL, SF","FM-15","99999","V020","310,1,N,0077,1","99999,9,9,Y","009900,5,9,9","+0270,1","+0170,1","99999,9",,,,,,,,,,,,"10110,1,99999,9",,,,,,"MET051METAR FACT 151000Z 31015KT CAVOK 27/17 Q1011 NOSIG=",
"68816099999","2022-02-15T11:00:00","4","-33.964806","18.601667","46.02","CAPE TOWN INTERNATIONAL, SF","FM-15","99999","V020","310,1,N,0088,1","99999,9,9,Y","009900,5,9,9","+0230,1","+0170,1","99999,9",,,,,,,,,,,,"10110,1,99999,9",,,,,,"MET051METAR FACT 151100Z 31017KT CAVOK 23/17 Q1011 NOSIG=",
"68816099999","2022-02-15T12:00:00","4","-33.964806","18.601667","46.02","CAPE TOWN INTERNATIONAL, SF","FM-12","99999","V020","320,1,N,0077,1","99999,9,9,N","020000,1,9,9","+0214,1","+0171,1","10124,1",,,,,"06,1,+99999,9,03,1",,,"9,AGL   ,+99999,+99999","06,99,1,06,1,99,9,99999,9,99,9,99,9",,,"99999,9,10071,1","2,1,008,1,+999,9",,,,"4,99,0082,1,999","SYN08068816 32970 63215 10214 20171 30071 40124 52008 86050 333 20256 91016 555 91012=","Q0125.6  2EATMN "
"68816099999","2022-02-15T12:00:00","4","-33.964806","18.601667","46.02","CAPE TOWN INTERNATIONAL, SF","FM-15","99999","V020","320,1,N,0077,1","99999,9,9,Y","009900,5,9,9","+0210,1","+0170,1","99999,9",,,,,,,,,,,,"10120,1,99999,9",,,,,,"MET051METAR FACT 151200Z 32015KT CAVOK 21/17 Q1012 NOSIG=",
"68816099999","2022-02-15T13:00:00","4","-33.964806","18.601667","46.02","CAPE TOWN INTERNATIONAL, SF","FM-15","99999","V020","330,1,N,0077,1","99999,9,9,Y","009900,5,9,9","+0220,1","+0170,1","99999,9",,,,,,,,,,,,"10120,1,99999,9",,,,,,"MET051METAR FACT 151300Z 33015KT CAVOK 22/17 Q1012 NOSIG=",
"68816099999","2022-02-15T14:00:00","4","-33.964806","18.601667","46.02","CAPE TOWN INTERNATIONAL, SF","FM-15","99999","V020","340,1,N,0057,1","99999,9,9,Y","009900,5,9,9","+0230,1","+0170,1","99999,9",,,,,,,,,,,,"10120,1,99999,9",,,,,,"MET051METAR FACT 151400Z 34011KT CAVOK 23/17 Q1012 NOSIG=",
"68816099999","2022-02-15T15:00:00","4","-33.964806","18.601667","46.02","CAPE TOWN INTERNATIONAL, SF","FM-15","99999","V020","350,1,N,0057,1","99999,9,9,Y","009900,5,9,9","+0250,1","+0170,1","99999,9",,,,,,,,,,,,"10120,1,99999,9",,,,,,"MET051METAR FACT 151500Z 35011KT CAVOK 25/17 Q1012 NOSIG=",
"68816099999","2022-02-15T16:00:00","4","-33.964806","18.601667","46.02","CAPE TOWN INTERNATIONAL, SF","FM-15","99999","V020","230,1,V,0021,1","99999,9,9,Y","009900,5,9,9","+0260,1","+0170,1","99999,9",,,,,,,,,,,,"10130,1,99999,9",,,,,,"MET059METAR FACT 151600Z 23004KT 170V310 CAVOK 26/17 Q1013 NOSIG=",
"68816099999","2022-02-15T17:00:00","4","-33.964806","18.601667","46.02","CAPE TOWN INTERNATIONAL, SF","FM-15","99999","V020","170,1,N,0046,1","99999,9,9,N","009999,1,9,9","+0230,1","+0180,1","99999,9",,,,,"02,1,+00762,1,99,9",,,"9,AGL   ,+99999,+99999","99,99,9,02,1,99,9,00762,1,99,9,99,9",,,"10130,1,99999,9",,,,,,"MET057METAR FACT 151700Z 17009KT 9999 FEW025 23/18 Q1013 NOSIG=",
"68816099999","2022-02-15T18:00:00","4","-33.964806","18.601667","46.02","CAPE TOWN INTERNATIONAL, SF","FM-12","99999","V020","180,1,N,0046,1","22000,1,9,N","020000,1,9,9","+0211,1","+0181,1","10145,1",,,,,"01,1,+00800,1,06,1",,,"9,AGL   ,+99999,+99999","01,99,1,01,1,99,9,00800,1,99,9,99,9","120,M,+0335,1",,"99999,9,10090,1","2,1,015,1,+999,9",,,,"4,99,0067,1,999","SYN08068816 32570 11809 10211 20181 30090 40145 52015 81500 333 10335 91013 555 91014=",
"68816099999","2022-02-15T18:00:00","4","-33.964806","18.601667","46.02","CAPE TOWN INTERNATIONAL, SF","FM-15","99999","V020","180,1,N,0046,1","99999,9,9,N","009999,1,9,9","+0210,1","+0180,1","99999,9",,,,,"02,1,+00610,1,99,9",,,"9,AGL   ,+99999,+99999","99,99,9,02,1,99,9,00610,1,99,9,99,9",,,"10140,1,99999,9",,,,,,"MET064METAR FACT 151800Z 18009KT 9999 FEW020 21/18 Q1014 BECMG BKN015=",
"68816099999","2022-02-15T19:00:00","4","-33.964806","18.601667","46.02","CAPE TOWN INTERNATIONAL, SF","FM-15","99999","V020","160,1,N,0041,1","99999,9,9,N","009999,1,9,9","+0210,1","+0180,1","99999,9",,,,,"04,1,+00792,1,99,9",,,"9,AGL   ,+99999,+99999","99,99,9,04,1,99,9,00792,1,99,9,99,9",,,"10150,1,99999,9",,,,,,"MET064METAR FACT 151900Z 16008KT 9999 SCT026 21/18 Q1015 TEMPO BKN015=",
"68816099999","2022-02-15T20:00:00","4","-33.964806","18.601667","46.02","CAPE TOWN INTERNATIONAL, SF","FM-15","99999","V020","180,1,N,0046,1","99999,9,9,N","009999,1,9,9","+0210,1","+0180,1","99999,9",,,,,"02,1,+00914,1,99,9",,,"9,AGL   ,+99999,+99999","99,99,9,02,1,99,9,00914,1,99,9,99,9",,,"10160,1,99999,9",,,,,,"MET064METAR FACT 152000Z 18009KT 9999 FEW030 21/18 Q1016 TEMPO BKN015=",
"68816099999","2022-02-15T21:00:00","4","-33.964806","18.601667","46.02","CAPE TOWN INTERNATIONAL, SF","FM-15","99999","V020","170,1,N,0041,1","99999,9,9,N","009999,1,9,9","+0210,1","+0180,1","99999,9",,,,,"04,1,+00945,1,99,9",,,"9,AGL   ,+99999,+99999","99,99,9,04,1,99,9,00945,1,99,9,99,9",,,"10160,1,99999,9",,,,,,"MET064METAR FACT 152100Z 17008KT 9999 SCT031 21/18 Q1016 TEMPO BKN015=",
"68816099999","2022-02-15T22:00:00","4","-33.964806","18.601667","46.02","CAPE TOWN INTERNATIONAL, SF","FM-15","99999","V020","180,1,N,0036,1","00914,1,C,N","009999,1,9,9","+0210,1","+0180,1","99999,9",,,,,"07,1,+00914,1,99,9",,,"9,AGL   ,+99999,+99999","99,99,9,07,1,99,9,00914,1,99,9,99,9",,,"10170,1,99999,9",,,,,,"MET057METAR FACT 152200Z 18007KT 9999 BKN030 21/18 Q1017 NOSIG=",
"68816099999","2022-02-15T23:00:00","4","-33.964806","18.601667","46.02","CAPE TOWN INTERNATIONAL, SF","FM-15","99999","V020","190,1,N,0046,1","01036,1,9,N","009999,1,9,9","+0210,1","+0180,1","99999,9",,,,,"02,1,+00305,1,99,9","07,1,+01036,1,99,9",,"9,AGL   ,+99999,+99999","99,99,9,02,1,99,9,00305,1,99,9,99,9",,,"10170,1,99999,9",,,,,,"MET079METAR FACT 152300Z 19009KT 9999 FEW010 BKN034 21/18 Q1017 TEMPO 4000 DZ BKN008=",
"68816099999","2022-02-16T00:00:00","4","-33.964806","18.601667","46.02","CAPE TOWN INTERNATIONAL, SF","FM-12","99999","V020","190,1,N,0067,1","99999,9,9,N","020000,1,9,9","+0204,1","+0177,1","10171,1",,,,,"07,1,+01250,1,06,1",,,"9,AGL   ,+99999,+99999","07,99,1,07,1,99,9,01250,1,99,9,99,9","120,M,+0335,1",,"99999,9,10117,1","9,9,006,1,+999,9",,,,"4,99,0082,1,999","SYN08068816 32670 71913 10204 20177 30117 40171 50006 875// 333 10335 91016 555 91017=",
"68816099999","2022-02-16T00:00:00","4","-33.964806","18.601667","46.02","CAPE TOWN INTERNATIONAL, SF","FM-15","99999","V020","180,1,N,0062,1","01097,1,9,N","009999,1,9,9","+0210,1","+0180,1","99999,9",,,,,"02,1,+00305,1,99,9","07,1,+01097,1,99,9",,"9,AGL   ,+99999,+99999","99,99,9,02,1,99,9,00305,1,99,9,99,9",,,"10170,1,99999,9",,,,,,"MET064METAR FACT 160000Z 18012KT 9999 FEW010 BKN036 21/18 Q1017 NOSIG=",
"68816099999","2022-02-16T01:00:00","4","-33.964806","18.601667","46.02","CAPE TOWN INTERNATIONAL, SF","FM-15","99999","V020","180,1,N,0051,1","01036,1,C,N","009999,1,9,9","+0200,1","+0180,1","99999,9",,,,,"07,1,+01036,1,99,9",,,"9,AGL   ,+99999,+99999","99,99,9,07,1,99,9,01036,1,99,9,99,9",,,"10170,1,99999,9",,,,,,"MET057METAR FACT 160100Z 18010KT 9999 BKN034 20/18 Q1017 NOSIG=",
"68816099999","2022-02-16T02:00:00","4","-33.964806","18.601667","46.02","CAPE TOWN INTERNATIONAL, SF","FM-15","99999","V020","190,1,N,0041,1","99999,9,9,N","009999,1,9,9","+0190,1","+0170,1","99999,9",,,,,"02,1,+01067,1,99,9",,,"9,AGL   ,+99999,+99999","99,99,9,02,1,99,9,01067,1,99,9,99,9",,,"10170,1,99999,9",,,,,,"MET057METAR FACT 160200Z 19008KT 9999 FEW035 19/17 Q1017 NOSIG=",
"68816099999","2022-02-16T03:00:00","4","-33.964806","18.601667","46.02","CAPE TOWN INTERNATIONAL, SF","FM-15","99999","V020","180,1,N,0031,1","99999,9,9,Y","009900,5,9,9","+0190,1","+0170,1","99999,9",,,,,,,,,,,,"10170,1,99999,9",,,,,,"MET051METAR FACT 160300Z 18006KT CAVOK 19/17 Q1017 NOSIG=",
"68816099999","2022-02-16T04:00:00","4","-33.964806","18.601667","46.02","CAPE TOWN INTERNATIONAL, SF","FM-15","99999","V020","190,1,N,0051,1","99999,9,9,Y","009900,5,9,9","+0180,1","+0170,1","99999,9",,,,,,,,,,,,"10180,1,99999,9",,,,,,"MET051METAR FACT 160400Z 19010KT CAVOK 18/17 Q1018 NOSIG=",
"68816099999","2022-02-16T05:00:00","4","-33.964806","18.601667","46.02","CAPE TOWN INTERNATIONAL, SF","FM-15","99999","V020","190,1,N,0046,1","99999,9,9,N","009999,1,9,9","+0190,1","+0170,1","99999,9",,,,,"04,1,+01219,1,99,9",,,"9,AGL   ,+99999,+99999","99,99,9,04,1,99,9,01219,1,99,9,99,9",,,"10180,1,99999,9",,,,,,"MET057METAR FACT 160500Z 19009KT 9999 SCT040 19/17 Q1018 NOSIG=",
"68816099999","2022-02-16T05:28:00","4","-33.964806","18.601667","46.02","CAPE TOWN INTERNATIONAL, SF","FM-16","99999","V020","190,1,N,0088,1","00366,1,C,N","009999,1,9,9","+0190,1","+0170,1","99999,9",,,,,"07,1,+00366,1,99,9","08,1,+01067,1,99,9",,"9,AGL   ,+99999,+99999","99,99,9,07,1,99,9,00366,1,99,9,99,9",,,"10180,1,99999,9",,,,,,"MET071SPECI FACT 160528Z 19017KT 9999 BKN012 OVC035 19/17 Q1018 BECMG SCT012=",
"68816099999","2022-02-16T05:55:00","4","-33.964806","18.601667","46.02","CAPE TOWN INTERNATIONAL, SF","FM-16","99999","V020","180,1,N,0077,1","00610,1,9,N","009999,1,9,9","+0190,1","+0170,1","99999,9",,,,,"02,1,+00183,1,99,9","07,1,+00610,1,99,9",,"9,AGL   ,+99999,+99999","99,99,9,02,1,99,9,00183,1,99,9,99,9",,,"10190,1,99999,9",,,,,,"MET064SPECI FACT 160555Z 18015KT 9999 FEW006 BKN020 19/17 Q1019 NOSIG=",
"68816099999","2022-02-16T06:00:00","4","-33.964806","18.601667","46.02","CAPE TOWN INTERNATIONAL, SF","FM-12","99999","V020","190,1,N,0077,1","99999,9,9,N","030000,1,9,9","+0193,1","+0165,1","10191,1",,,,,"07,1,+00800,1,06,1",,,"9,AGL   ,+99999,+99999","07,99,1,07,1,99,9,00800,1,99,9,99,9","240,N,+0183,1",,"99999,9,10136,1","2,1,001,1,+999,9",,,,"4,99,0103,1,999","SYN08668816 32580 71915 10193 20165 30136 40191 52001 875// 333 20183 91020 555 10335 91019=",
"68816099999","2022-02-16T06:00:00","4","-33.964806","18.601667","46.02","CAPE TOWN INTERNATIONAL, SF","FM-15","99999","V020","180,1,N,0077,1","00610,1,9,N","009999,1,9,9","+0190,1","+0170,1","99999,9",,,,,"02,1,+00183,1,99,9","07,1,+00610,1,99,9",,"9,AGL   ,+99999,+99999","99,99,9,02,1,99,9,00183,1,99,9,99,9",,,"10190,1,99999,9",,,,,,"MET064METAR FACT 160600Z 18015KT 9999 FEW006 BKN020 19/17 Q1019 NOSIG=",
"68816099999","2022-02-16T07:00:00","4","-33.964806","18.601667","46.02","CAPE TOWN INTERNATIONAL, SF","FM-15","99999","V020","170,1,N,0082,1","01219,1,9,N","009999,1,9,9","+0210,1","+0170,1","99999,9",,,,,"02,1,+00305,1,99,9","07,1,+01219,1,99,9",,"9,AGL   ,+99999,+99999","99,99,9,02,1,99,9,00305,1,99,9,99,9",,,"10190,1,99999,9",,,,,,"MET064METAR FACT 160700Z 17016KT 9999 FEW010 BKN040 21/17 Q1019 NOSIG=",
"68816099999","2022-02-16T07:04:00","4","-33.964806","18.601667","46.02","CAPE TOWN INTERNATIONAL, SF","FM-16","99999","V020","170,1,N,0082,1","01219,1,9,N","009999,1,9,9","+0210,1","+0170,1","99999,9",,,,,"02,1,+00305,1,99,9","07,1,+01219,1,99,9",,"9,AGL   ,+99999,+99999","99,99,9,02,1,99,9,00305,1,99,9,99,9",,,"10190,1,99999,9",,,,,,"MET064SPECI FACT 160704Z 17016KT 9999 FEW010 BKN040 21/17 Q1019 NOSIG=",
"68816099999","2022-02-16T08:00:00","4","-33.964806","18.601667","46.02","CAPE TOWN INTERNATIONAL, SF","FM-15","99999","V020","170,1,N,0082,1","01219,1,9,N","009999,1,9,9","+0220,1","+0160,1","99999,9",,,,,"02,1,+00610,1,99,9","07,1,+01219,1,99,9",,"9,AGL   ,+99999,+99999","99,99,9,02,1,99,9,00610,1,99,9,99,9",,,"10200,1,99999,9",,,,,,"MET064METAR FACT 160800Z 17016KT 9999 FEW020 BKN040 22/16 Q1020 NOSIG=",
"68816099999","2022-02-16T09:00:00","4","-33.964806","18.601667","46.02","CAPE TOWN INTERNATIONAL, SF","FM-12","99999","V020","170,1,N,0077,1","99999,9,9,N","040000,1,9,9","+0234,1","+0144,1","10201,1",,,,,"07,1,+01250,1,06,1",,,"9,AGL   ,+99999,+99999","07,99,1,07,1,99,9,01250,1,99,9,99,9",,,"99999,9,10147,1","2,1,001,1,+999,9",,,,"4,99,0077,1,999","SYN06468816 42682 71715 10234 20144 30147 40201 52001 875// 333 91015=",
"68816099999","2022-02-16T09:00:00","4","-33.964806","18.601667","46.02","CAPE TOWN INTERNATIONAL, SF","FM-15","99999","V020","170,1,N,0093,1","01219,1,9,N","009999,1,9,9","+0230,1","+0150,1","99999,9",,,,,"02,1,+00610,1,99,9","07,1,+01219,1,99,9",,"9,AGL   ,+99999,+99999","99,99,9,02,1,99,9,00610,1,99,9,99,9",,,"10200,1,99999,9",,,,,,"MET064METAR FACT 160900Z 17018KT 9999 FEW020 BKN040 23/15 Q1020 NOSIG=",
"68816099999","2022-02-16T10:00:00","4","-33.964806","18.601667","46.02","CAPE TOWN INTERNATIONAL, SF","FM-15","99999","V020","170,1,N,0103,1","99999,9,9,N","009999,1,9,9","+0240,1","+0140,1","99999,9",,,,,"02,1,+00610,1,99,9",,,"9,AGL   ,+99999,+99999","99,99,9,02,1,99,9,00610,1,99,9,99,9",,,"10200,1,99999,9",,,,,,"MET057METAR FACT 161000Z 17020KT 9999 FEW020 24/14 Q1020 NOSIG=",
"68816099999","2022-02-16T11:00:00","4","-33.964806","18.601667","46.02","CAPE TOWN INTERNATIONAL, SF","FM-15","99999","V020","160,1,N,0113,1","99999,9,9,N","009999,1,9,9","+0230,1","+0140,1","99999,9",,,,,"02,1,+00610,1,99,9",,,"9,AGL   ,+99999,+99999","99,99,9,02,1,99,9,00610,1,99,9,99,9",,,"10190,1,99999,9",,,,,,"MET057METAR FACT 161100Z 16022KT 9999 FEW020 23/14 Q1019 NOSIG=",
"68816099999","2022-02-16T12:00:00","4","-33.964806","18.601667","46.02","CAPE TOWN INTERNATIONAL, SF","FM-15","99999","V020","170,1,N,0129,1","99999,9,9,N","009999,1,9,9","+0230,1","+0130,1","99999,9",,,,,"02,1,+00762,1,99,9",,,"9,AGL   ,+99999,+99999","99,99,9,02,1,99,9,00762,1,99,9,99,9",,,"10190,1,99999,9",,,,,,"MET057METAR FACT 161200Z 17025KT 9999 FEW025 23/13 Q1019 NOSIG=",
"68816099999","2022-02-16T13:00:00","4","-33.964806","18.601667","46.02","CAPE TOWN INTERNATIONAL, SF","FM-15","99999","V020","170,1,N,0134,1","99999,9,9,N","009999,1,9,9","+0230,1","+0130,1","99999,9",,,,,"02,1,+00914,1,99,9",,,"9,AGL   ,+99999,+99999","99,99,9,02,1,99,9,00914,1,99,9,99,9",,,"10190,1,99999,9",,,,,,"MET057METAR FACT 161300Z 17026KT 9999 FEW030 23/13 Q1019 NOSIG=",
"68816099999","2022-02-16T14:00:00","4","-33.964806","18.601667","46.02","CAPE TOWN INTERNATIONAL, SF","FM-15","99999","V020","170,1,N,0129,1","99999,9,9,N","009999,1,9,9","+0230,1","+0110,1","99999,9",,,,,"02,1,+01067,1,99,9",,,"9,AGL   ,+99999,+99999","99,99,9,02,1,99,9,01067,1,99,9,99,9",,,"10180,1,99999,9",,,,,,"MET057METAR FACT 161400Z 17025KT 9999 FEW035 23/11 Q1018 NOSIG=",
"68816099999","2022-02-16T15:00:00","4","-33.964806","18.601667","46.02","CAPE TOWN INTERNATIONAL, SF","FM-15","99999","V020","170,1,N,0139,1","99999,9,9,N","009999,1,9,9","+0210,1","+0110,1","99999,9",,,,,"02,1,+01067,1,99,9",,,"9,AGL   ,+99999,+99999","99,99,9,02,1,99,9,01067,1,99,9,99,9",,,"10180,1,99999,9",,,,,,"MET057METAR FACT 161500Z 17027KT 9999 FEW035 21/11 Q1018 NOSIG=",
"68816099999","2022-02-16T16:00:00","4","-33.964806","18.601667","46.02","CAPE TOWN INTERNATIONAL, SF","FM-15","99999","V020","170,1,N,0134,1","99999,9,9,N","009999,1,9,9","+0200,1","+0120,1","99999,9",,,,,"02,1,+01067,1,99,9",,,"9,AGL   ,+99999,+99999","99,99,9,02,1,99,9,01067,1,99,9,99,9",,,"10180,1,99999,9",,,,,,"MET057METAR FACT 161600Z 17026KT 9999 FEW035 20/12 Q1018 NOSIG=",
"68816099999","2022-02-16T17:00:00","4","-33.964806","18.601667","46.02","CAPE TOWN INTERNATIONAL, SF","FM-15","99999","V020","170,1,N,0113,1","99999,9,9,N","009999,1,9,9","+0190,1","+0120,1","99999,9",,,,,"02,1,+01067,1,99,9",,,"9,AGL   ,+99999,+99999","99,99,9,02,1,99,9,01067,1,99,9,99,9",,,"10180,1,99999,9",,,,,,"MET057METAR FACT 161700Z 17022KT 9999 FEW035 19/12 Q1018 NOSIG=",
"68816099999","2022-02-16T18:00:00","4","-33.964806","18.601667","46.02","CAPE TOWN INTERNATIONAL, SF","FM-12","99999","V020","180,1,N,0103,1","22000,1,9,N","030000,1,9,9","+0181,1","+0123,1","10191,1",,,,,"01,1,+01250,1,06,1",,,"9,AGL   ,+99999,+99999","01,99,1,01,1,99,9,01250,1,99,9,99,9","120,M,+0241,1",,"99999,9,10134,1","2,1,004,1,+999,9",,,,"4,99,0134,1,999","SYN08068816 32680 11820 10181 20123 30134 40191 52004 81500 333 10241 91026 555 91019=",
"68816099999","2022-02-16T18:00:00","4","-33.964806","18.601667","46.02","CAPE TOWN INTERNATIONAL, SF","FM-15","99999","V020","180,1,N,0103,1","99999,9,9,N","009999,1,9,9","+0180,1","+0120,1","99999,9",,,,,"02,1,+01067,1,99,9",,,"9,AGL   ,+99999,+99999","99,99,9,02,1,99,9,01067,1,99,9,99,9",,,"10190,1,99999,9",,,,,,"MET057METAR FACT 161800Z 18020KT 9999 FEW035 18/12 Q1019 NOSIG=",
"68816099999","2022-02-16T19:00:00","4","-33.964806","18.601667","46.02","CAPE TOWN INTERNATIONAL, SF","FM-15","99999","V020","180,1,N,0108,1","99999,9,9,N","009999,1,9,9","+0180,1","+0120,1","99999,9",,,,,"02,1,+01067,1,99,9",,,"9,AGL   ,+99999,+99999","99,99,9,02,1,99,9,01067,1,99,9,99,9",,,"10180,1,99999,9",,,,,,"MET057METAR FACT 161900Z 18021KT 9999 FEW035 18/12 Q1018 NOSIG=",
"68816099999","2022-02-16T20:00:00","4","-33.964806","18.601667","46.02","CAPE TOWN INTERNATIONAL, SF","FM-15","99999","V020","170,1,N,0103,1","99999,9,9,N","009999,1,9,9","+0180,1","+0110,1","99999,9",,,,,"02,1,+01067,1,99,9",,,"9,AGL   ,+99999,+99999","99,99,9,02,1,99,9,01067,1,99,9,99,9",,,"10180,1,99999,9",,,,"0154,1",,"MET060METAR FACT 162000Z 17020G30KT 9999 FEW035 18/11 Q1018 NOSIG=",
"68816099999","2022-02-16T20:01:00","4","-33.964806","18.601667","46.02","CAPE TOWN INTERNATIONAL, SF","FM-16","99999","V020","170,1,N,0103,1","99999,9,9,N","009999,1,9,9","+0180,1","+0110,1","99999,9",,,,,"02,1,+01067,1,99,9",,,"9,AGL   ,+99999,+99999","99,99,9,02,1,99,9,01067,1,99,9,99,9",,,"10180,1,99999,9",,,,"0154,1",,"MET060SPECI FACT 162001Z 17020G30KT 9999 FEW035 18/11 Q1018 NOSIG=",
"68816099999","2022-02-16T21:00:00","4","-33.964806","18.601667","46.02","CAPE TOWN INTERNATIONAL, SF","FM-15","99999","V020","170,1,N,0113,1","99999,9,9,Y","009900,5,9,9","+0180,1","+0110,1","99999,9",,,,,,,,,,,,"10170,1,99999,9",,,,,,"MET051METAR FACT 162100Z 17022KT CAVOK 18/11 Q1017 NOSIG=",
"68816099999","2022-02-16T22:00:00","4","-33.964806","18.601667","46.02","CAPE TOWN INTERNATIONAL, SF","FM-15","99999","V020","170,1,N,0098,1","99999,9,9,Y","009900,5,9,9","+0180,1","+0110,1","99999,9",,,,,,,,,,,,"10170,1,99999,9",,,,,,"MET051METAR FACT 162200Z 17019KT CAVOK 18/11 Q1017 NOSIG=",
"68816099999","2022-02-16T23:00:00","4","-33.964806","18.601667","46.02","CAPE TOWN INTERNATIONAL, SF","FM-15","99999","V020","160,1,N,0108,1","99999,9,9,Y","009900,5,9,9","+0170,1","+0110,1","99999,9",,,,,,,,,,,,"10160,1,99999,9",,,,"0160,1",,"MET054METAR FACT 162300Z 16021G31KT CAVOK 17/11 Q1016 NOSIG=",
"68816099999","2022-02-16T23:00:00","4","-33.964806","18.601667","46.02","CAPE TOWN INTERNATIONAL, SF","FM-16","99999","V020","160,1,N,0108,1","99999,9,9,Y","009900,5,9,9","+0170,1","+0110,1","99999,9",,,,,,,,,,,,"10160,1,99999,9",,,,"0160,1",,"MET054SPECI FACT 162300Z 16021G31KT CAVOK 17/11 Q1016 NOSIG=",
"68816099999","2022-02-17T00:00:00","4","-33.964806","18.601667","46.02","CAPE TOWN INTERNATIONAL, SF","FM-12","99999","V020","180,1,N,0098,1","99999,9,9,N","030000,1,9,9","+0173,1","+0107,1","10156,1",,,,,,,,,,"120,M,+0241,1",,"99999,9,10101,1","2,1,004,1,+999,9",,,,"4,99,0134,1,999","SYN07468816 32980 01819 10173 20107 30101 40156 52004 333 10241 91026 555 91015=",
"68816099999","2022-02-17T00:00:00","4","-33.964806","18.601667","46.02","CAPE TOWN INTERNATIONAL, SF","FM-15","99999","V020","170,1,N,0098,1","99999,9,9,Y","009900,5,9,9","+0170,1","+0110,1","99999,9",,,,,,,,,,,,"10150,1,99999,9",,,,,,"MET051METAR FACT 170000Z 17019KT CAVOK 17/11 Q1015 NOSIG=",
"68816099999","2022-02-17T01:00:00","4","-33.964806","18.601667","46.02","CAPE TOWN INTERNATIONAL, SF","FM-15","99999","V020","170,1,N,0093,1","99999,9,9,Y","009900,5,9,9","+0170,1","+0110,1","99999,9",,,,,,,,,,,,"10150,1,99999,9",,,,,,"MET051METAR FACT 170100Z 17018KT CAVOK 17/11 Q1015 NOSIG=",
"68816099999","2022-02-17T02:00:00","4","-33.964806","18.601667","46.02","CAPE TOWN INTERNATIONAL, SF","FM-15","99999","V020","150,1,N,0041,1","99999,9,9,Y","009900,5,9,9","+0140,1","+0090,1","99999,9",,,,,,,,,,,,"10140,1,99999,9",,,,,,"MET051METAR FACT 170200Z 15008KT CAVOK 14/09 Q1014 NOSIG=",
"68816099999","2022-02-17T02:30:00","4","-33.964806","18.601667","46.02","CAPE TOWN INTERNATIONAL, SF","FM-16","99999","V020","200,1,N,0051,1","99999,9,9,Y","009900,5,9,9","+0170,1","+0100,1","99999,9",,,,,,,,,,,,"10140,1,99999,9",,,,,,"MET051SPECI FACT 170230Z 20010KT CAVOK 17/10 Q1014 NOSIG=",
"68816099999","2022-02-17T03:00:00","4","-33.964806","18.601667","46.02","CAPE TOWN INTERNATIONAL, SF","FM-15","99999","V020","190,1,V,0072,1","99999,9,9,Y","009900,5,9,9","+0160,1","+0100,1","99999,9",,,,,,,,,,,,"10140,1,99999,9",,,,,,"MET059METAR FACT 170300Z 19014KT 160V220 CAVOK 16/10 Q1014 NOSIG=",
"68816099999","2022-02-17T03:56:00","4","-33.964806","18.601667","46.02","CAPE TOWN INTERNATIONAL, SF","FM-16","99999","V020","210,1,N,0077,1","99999,9,9,Y","009900,5,9,9","+0170,1","+0100,1","99999,9",,,,,,,,,,,,"10130,1,99999,9",,,,,,"MET051SPECI FACT 170356Z 21015KT CAVOK 17/10 Q1013 NOSIG=",
"68816099999","2022-02-17T04:00:00","4","-33.964806","18.601667","46.02","CAPE TOWN INTERNATIONAL, SF","FM-15","99999","V020","210,1,N,0077,1","99999,9,9,Y","009900,5,9,9","+0170,1","+0100,1","99999,9",,,,,,,,,,,,"10130,1,99999,9",,,,,,"MET051METAR FACT 170400Z 21015KT CAVOK 17/10 Q1013 NOSIG=",
"68816099999","2022-02-17T05:00:00","4","-33.964806","18.601667","46.02","CAPE TOWN INTERNATIONAL, SF","FM-15","99999","V020","220,1,V,0021,1","99999,9,9,Y","009900,5,9,9","+0160,1","+0100,1","99999,9",,,,,,,,,,,,"10140,1,99999,9",,,,,,"MET059METAR FACT 170500Z 22004KT 180V260 CAVOK 16/10 Q1014 NOSIG=",
"68816099999","2022-02-17T05:00:00","4","-33.964806","18.601667","46.02","CAPE TOWN INTERNATIONAL, SF","FM-16","99999","V020","220,1,V,0021,1","99999,9,9,Y","009900,5,9,9","+0160,1","+0100,1","99999,9",,,,,,,,,,,,"10140,1,99999,9",,,,,,"MET059SPECI FACT 170500Z 22004KT 180V260 CAVOK 16/10 Q1014 NOSIG=",
"68816099999","2022-02-17T05:59:00","4","-33.964806","18.601667","46.02","CAPE TOWN INTERNATIONAL, SF","FM-16","99999","V020","200,1,V,0021,1","99999,9,9,Y","009900,5,9,9","+0180,1","+0100,1","99999,9",,,,,,,,,,,,"10140,1,99999,9",,,,,,"MET059SPECI FACT 170559Z 20004KT 160V250 CAVOK 18/10 Q1014 NOSIG=",
"68816099999","2022-02-17T06:00:00","4","-33.964806","18.601667","46.02","CAPE TOWN INTERNATIONAL, SF","FM-12","99999","V020","160,1,N,0021,1","99999,9,9,N","022000,1,9,9","+0186,1","+0101,1","10147,1",,,,,,,,,,"240,N,+0122,1",,"99999,9,10093,1","2,1,004,1,+999,9",,,,"4,99,0026,1,999","SYN08068816 32972 01604 10186 20101 30093 40147 52004 333 20122 91005 555 10241 91014=",
"68816099999","2022-02-17T06:00:00","4","-33.964806","18.601667","46.02","CAPE TOWN INTERNATIONAL, SF","FM-15","99999","V020","200,1,V,0021,1","99999,9,9,Y","009900,5,9,9","+0180,1","+0100,1","99999,9",,,,,,,,,,,,"10140,1,99999,9",,,,,,"MET059METAR FACT 170600Z 20004KT 160V250 CAVOK 18/10 Q1014 NOSIG=",
"68816099999","2022-02-17T06:58:00","4","-33.964806","18.601667","46.02","CAPE TOWN INTERNATIONAL, SF","FM-16","99999","V020","200,1,N,0067,1","99999,9,9,Y","009900,5,9,9","+0210,1","+0110,1","99999,9",,,,,,,,,,,,"10150,1,99999,9",,,,,,"MET051SPECI FACT 170658Z 20013KT CAVOK 21/11 Q1015 NOSIG=",
"68816099999","2022-02-17T07:00:00","4","-33.964806","18.601667","46.02","CAPE TOWN INTERNATIONAL, SF","FM-15","99999","V020","200,1,N,0067,1","99999,9,9,Y","009900,5,9,9","+0210,1","+0110,1","99999,9",,,,,,,,,,,,"10150,1,99999,9",,,,,,"MET051METAR FACT 170700Z 20013KT CAVOK 21/11 Q1015 NOSIG=",
"68816099999","2022-02-17T08:00:00","4","-33.964806","18.601667","46.02","CAPE TOWN INTERNATIONAL, SF","FM-15","99999","V020","140,1,N,0046,1","99999,9,9,Y","009900,5,9,9","+0240,1","+0100,1","99999,9",,,,,,,,,,,,"10150,1,99999,9",,,,,,"MET055METAR COR FACT 170800Z 14009KT CAVOK 24/10 Q1015 NOSIG=",
"68816099999","2022-02-17T08:18:00","4","-33.964806","18.601667","46.02","CAPE TOWN INTERNATIONAL, SF","FM-16","99999","V020","140,1,N,0046,1","99999,9,9,Y","009900,5,9,9","+0240,1","+0100,1","99999,9",,,,,,,,,,,,"10150,1,99999,9",,,,,,"MET051SPECI FACT 170818Z 14009KT CAVOK 24/10 Q1015 NOSIG=",
"68816099999","2022-02-17T08:55:00","4","-33.964806","18.601667","46.02","CAPE TOWN INTERNATIONAL, SF","FM-16","99999","V020","170,1,V,0082,1","99999,9,9,Y","009900,5,9,9","+0270,1","+0110,1","99999,9",,,,,,,,,,,,"10150,1,99999,9",,,,,,"MET059SPECI FACT 170855Z 17016KT 140V200 CAVOK 27/11 Q1015 NOSIG=",
"68816099999","2022-02-17T09:00:00","4","-33.964806","18.601667","46.02","CAPE TOWN INTERNATIONAL, SF","FM-12","99999","V020","170,1,N,0082,1","99999,9,9,N","040000,1,9,9","+0267,1","+0108,1","10150,1",,,,,,,,,,,,"99999,9,10094,1","2,9,003,9,+999,9",,,,"4,99,0093,1,999","SYN05868816 42982 01716 10267 20108 30094 40150 54001 333 91018=","Q01.1    3APC3  Q024     3APCTEN"
"68816099999","2022-02-17T09:00:00","4","-33.964806","18.601667","46.02","CAPE TOWN INTERNATIONAL, SF","FM-15","99999","V020","170,1,V,0082,1","99999,9,9,Y","009900,5,9,9","+0270,1","+0110,1","99999,9",,,,,,,,,,,,"10150,1,99999,9",,,,,,"MET059METAR FACT 170900Z 17016KT 140V200 CAVOK 27/11 Q1015 NOSIG=",
"68816099999","2022-02-17T10:00:00","4","-33.964806","18.601667","46.02","CAPE TOWN INTERNATIONAL, SF","FM-15","99999","V020","180,1,V,0072,1","99999,9,9,Y","009900,5,9,9","+0270,1","+0100,1","99999,9",,,,,,,,,,,,"10150,1,99999,9",,,,,,"MET059METAR FACT 171000Z 18014KT 150V210 CAVOK 27/10 Q1015 NOSIG=",
"68816099999","2022-02-17T11:00:00","4","-33.964806","18.601667","46.02","CAPE TOWN INTERNATIONAL, SF","FM-15","99999","V020","180,1,V,0062,1","99999,9,9,Y","009900,5,9,9","+0280,1","+0100,1","99999,9",,,,,,,,,,,,"10140,1,99999,9",,,,,,"MET059METAR FACT 171100Z 18012KT 150V210 CAVOK 28/10 Q1014 NOSIG=",
"68816099999","2022-02-17T12:00:00","4","-33.964806","18.601667","46.02","CAPE TOWN INTERNATIONAL, SF","FM-12","99999","V020","200,1,N,0072,1","99999,9,9,N","040000,1,9,9","+0267,1","+0108,1","10150,1",,,,,,,,,,,,"99999,9,10094,1","7,1,002,1,+999,9",,,,"4,99,0098,1,999","SYN06868816 32982 02014 10267 20108 30094 40150 57002 333 91019 555 91015=",
"68816099999","2022-02-17T12:00:00","4","-33.964806","18.601667","46.02","CAPE TOWN INTERNATIONAL, SF","FM-15","99999","V020","200,1,N,0072,1","99999,9,9,Y","009900,5,9,9","+0280,1","+0110,1","99999,9",,,,,,,,,,,,"10130,1,99999,9",,,,,,"MET051METAR FACT 171200Z 20014KT CAVOK 28/11 Q1013 NOSIG=",
"68816099999","2022-02-17T13:00:00","4","-33.964806","18.601667","46.02","CAPE TOWN INTERNATIONAL, SF","FM-15","99999","V020","210,1,N,0062,1","99999,9,9,Y","009900,5,9,9","+0290,1","+0120,1","99999,9",,,,,,,,,,,,"10120,1,99999,9",,,,,,"MET051METAR FACT 171300Z 21012KT CAVOK 29/12 Q1012 NOSIG=",
"68816099999","2022-02-17T14:00:00","4","-33.964806","18.601667","46.02","CAPE TOWN INTERNATIONAL, SF","FM-15","99999","V020","220,1,N,0072,1","99999,9,9,Y","009900,5,9,9","+0280,1","+0150,1","99999,9",,,,,,,,,,,,"10120,1,99999,9",,,,,,"MET051METAR FACT 171400Z 22014KT CAVOK 28/15 Q1012 NOSIG=",
"68816099999","2022-02-17T15:00:00","4","-33.964806","18.601667","46.02","CAPE TOWN INTERNATIONAL, SF","FM-15","99999","V020","210,1,N,0067,1","99999,9,9,Y","009900,5,9,9","+0270,1","+0150,1","99999,9",,,,,,,,,,,,"10110,1,99999,9",,,,,,"MET051METAR FACT 171500Z 21013KT CAVOK 27/15 Q1011 NOSIG=",
"68816099999","2022-02-17T16:00:00","4","-33.964806","18.601667","46.02","CAPE TOWN INTERNATIONAL, SF","FM-15","99999","V020","230,1,N,0077,1","99999,9,9,Y","009900,5,9,9","+0240,1","+0160,1","99999,9",,,,,,,,,,,,"10110,1,99999,9",,,,,,"MET051METAR FACT 171600Z 23015KT CAVOK 24/16 Q1011 NOSIG=",
"68816099999","2022-02-17T17:00:00","4","-33.964806","18.601667","46.02","CAPE TOWN INTERNATIONAL, SF","FM-15","99999","V020","230,1,N,0082,1","99999,9,9,Y","009900,5,9,9","+0210,1","+0160,1","99999,9",,,,,,,,,,,,"10110,1,99999,9",,,,,,"MET051METAR FACT 171700Z 23016KT CAVOK 21/16 Q1011 NOSIG=",
"68816099999","2022-02-17T18:00:00","4","-33.964806","18.601667","46.02","CAPE TOWN INTERNATIONAL, SF","FM-12","99999","V020","230,1,N,0072,1","99999,9,9,N","030000,1,9,9","+0194,1","+0152,1","10113,1",,,,,,,,,,"120,M,+0293,1",,"99999,9,10059,1","3,1,001,1,+999,9",,,,"4,99,0088,1,999","SYN07468816 32980 02314 10194 20152 30059 40113 53001 333 10293 91017 555 91011=",
"68816099999","2022-02-17T18:00:00","4","-33.964806","18.601667","46.02","CAPE TOWN INTERNATIONAL, SF","FM-15","99999","V020","230,1,N,0088,1","99999,9,9,Y","009900,5,9,9","+0200,1","+0150,1","99999,9",,,,,,,,,,,,"10110,1,99999,9",,,,,,"MET051METAR FACT 171800Z 23017KT CAVOK 20/15 Q1011 NOSIG=",
"68816099999","2022-02-17T19:00:00","4","-33.964806","18.601667","46.02","CAPE TOWN INTERNATIONAL, SF","FM-15","99999","V020","230,1,N,0067,1","99999,9,9,Y","009900,5,9,9","+0190,1","+0150,1","99999,9",,,,,,,,,,,,"10110,1,99999,9",,,,,,"MET051METAR FACT 171900Z 23013KT CAVOK 19/15 Q1011 NOSIG=",
"68816099999","2022-02-17T19:55:00","4","-33.964806","18.601667","46.02","CAPE TOWN INTERNATIONAL, SF","FM-16","99999","V020","170,1,N,0057,1","99999,9,9,Y","009900,5,9,9","+0210,1","+0140,1","99999,9",,,,,,,,,,,,"10110,1,99999,9",,,,,,"MET051SPECI FACT 171955Z 17011KT CAVOK 21/14 Q1011 NOSIG=",
"68816099999","2022-02-17T20:00:00","4","-33.964806","18.601667","46.02","CAPE TOWN INTERNATIONAL, SF","FM-15","99999","V020","170,1,N,0057,1","99999,9,9,Y","009900,5,9,9","+0210,1","+0140,1","99999,9",,,,,,,,,,,,"10110,1,99999,9",,,,,,"MET051METAR FACT 172000Z 17011KT CAVOK 21/14 Q1011 NOSIG=",
"68816099999","2022-02-17T21:00:00","4","-33.964806","18.601667","46.02","CAPE TOWN INTERNATIONAL, SF","FM-15","99999","V020","190,1,N,0062,1","99999,9,9,Y","009900,5,9,9","+0200,1","+0140,1","99999,9",,,,,,,,,,,,"10110,1,99999,9",,,,,,"MET051METAR FACT 172100Z 19012KT CAVOK 20/14 Q1011 NOSIG=",
"68816099999","2022-02-17T22:00:00","4","-33.964806","18.601667","46.02","CAPE TOWN INTERNATIONAL, SF","FM-15","99999","V020","190,1,N,0072,1","99999,9,9,Y","009900,5,9,9","+0200,1","+0130,1","99999,9",,,,,,,,,,,,"10110,1,99999,9",,,,,,"MET051METAR FACT 172200Z 19014KT CAVOK 20/13 Q1011 NOSIG=",
"68816099999","2022-02-17T23:00:00","4","-33.964806","18.601667","46.02","CAPE TOWN INTERNATIONAL, SF","FM-15","99999","V020","170,1,N,0062,1","99999,9,9,Y","009900,5,9,9","+0190,1","+0130,1","99999,9",,,,,,,,,,,,"10110,1,99999,9",,,,,,"MET051METAR FACT 172300Z 17012KT CAVOK 19/13 Q1011 NOSIG=",
"68816099999","2022-02-18T00:00:00","4","-33.964806","18.601667","46.02","CAPE TOWN INTERNATIONAL, SF","FM-12","99999","V020","160,1,N,0088,1","99999,9,9,N","030000,1,9,9","+0187,1","+0128,1","10107,1",,,,,,,,,,,,"99999,9,10052,1",,,,,"4,99,0077,1,999","SYN06868816 32980 01617 10187 20128 30052 40107 54001 333 91015 555 91010=","Q014     3APCTENQ02.1    3APC3  "
"68816099999","2022-02-18T00:00:00","4","-33.964806","18.601667","46.02","CAPE TOWN INTERNATIONAL, SF","FM-15","99999","V020","160,1,N,0077,1","99999,9,9,Y","009900,5,9,9","+0190,1","+0130,1","99999,9",,,,,,,,,,,,"10100,1,99999,9",,,,,,"MET051METAR FACT 180000Z 16015KT CAVOK 19/13 Q1010 NOSIG=",
"68816099999","2022-02-18T01:00:00","4","-33.964806","18.601667","46.02","CAPE TOWN INTERNATIONAL, SF","FM-15","99999","V020","160,1,N,0093,1","99999,9,9,Y","009900,5,9,9","+0180,1","+0130,1","99999,9",,,,,,,,,,,,"10100,1,99999,9",,,,,,"MET051METAR FACT 180100Z 16018KT CAVOK 18/13 Q1010 NOSIG=",
"68816099999","2022-02-18T02:00:00","4","-33.964806","18.601667","46.02","CAPE TOWN INTERNATIONAL, SF","FM-15","99999","V020","170,1,N,0041,1","99999,9,9,Y","009900,5,9,9","+0180,1","+0120,1","99999,9",,,,,,,,,,,,"10090,1,99999,9",,,,,,"MET051METAR FACT 180200Z 17008KT CAVOK 18/12 Q1009 NOSIG=",
"68816099999","2022-02-18T03:00:00","4","-33.964806","18.601667","46.02","CAPE TOWN INTERNATIONAL, SF","FM-15","99999","V020","150,1,N,0082,1","99999,9,9,Y","009900,5,9,9","+0180,1","+0120,1","99999,9",,,,,,,,,,,,"10090,1,99999,9",,,,,,"MET051METAR FACT 180300Z 15016KT CAVOK 18/12 Q1009 NOSIG=",
"68816099999","2022-02-18T04:00:00","4","-33.964806","18.601667","46.02","CAPE TOWN INTERNATIONAL, SF","FM-15","99999","V020","190,1,V,0041,1","99999,9,9,Y","009900,5,9,9","+0170,1","+0120,1","99999,9",,,,,,,,,,,,"10090,1,99999,9",,,,,,"MET059METAR FACT 180400Z 19008KT 150V210 CAVOK 17/12 Q1009 NOSIG=",
"68816099999","2022-02-18T04:27:00","4","-33.964806","18.601667","46.02","CAPE TOWN INTERNATIONAL, SF","FM-16","99999","V020","190,1,N,0062,1","99999,9,9,Y","009900,5,9,9","+0190,1","+0120,1","99999,9",,,,,,,,,,,,"10090,1,99999,9",,,,,,"MET051SPECI FACT 180427Z 19012KT CAVOK 19/12 Q1009 NOSIG=",
"68816099999","2022-02-18T05:00:00","4","-33.964806","18.601667","46.02","CAPE TOWN INTERNATIONAL, SF","FM-15","99999","V020","160,1,N,0046,1","99999,9,9,Y","009900,5,9,9","+0180,1","+0120,1","99999,9",,,,,,,,,,,,"10090,1,99999,9",,,,,,"MET051METAR FACT 180500Z 16009KT CAVOK 18/12 Q1009 NOSIG=",
"68816099999","2022-02-18T05:24:00","4","-33.964806","18.601667","46.02","CAPE TOWN INTERNATIONAL, SF","FM-16","99999","V020","160,1,N,0072,1","99999,9,9,Y","009900,5,9,9","+0200,1","+0120,1","99999,9",,,,,,,,,,,,"10100,1,99999,9",,,,,,"MET051SPECI FACT 180524Z 16014KT CAVOK 20/12 Q1010 NOSIG=",
"68816099999","2022-02-18T06:00:00","4","-33.964806","18.601667","46.02","CAPE TOWN INTERNATIONAL, SF","FM-12","99999","V020","200,1,N,0057,1","99999,9,9,N","040000,1,9,9","+0208,1","+0124,1","10102,1",,,,,,,,,,"240,N,+0165,1",,"99999,9,10048,1","2,1,003,1,+999,9",,,,"4,99,0067,1,999","SYN08068816 32982 02011 10208 20124 30048 40102 52003 333 20165 91013 555 10293 91010=",
"68816099999","2022-02-18T06:00:00","4","-33.964806","18.601667","46.02","CAPE TOWN INTERNATIONAL, SF","FM-15","99999","V020","200,1,N,0057,1","99999,9,9,Y","009900,5,9,9","+0210,1","+0120,1","99999,9",,,,,,,,,,,,"10100,1,99999,9",,,,,,"MET051METAR FACT 180600Z 20011KT CAVOK 21/12 Q1010 NOSIG=",
"68816099999","2022-02-18T06:55:00","4","-33.964806","18.601667","46.02","CAPE TOWN INTERNATIONAL, SF","FM-16","99999","V020","160,1,N,0077,1","99999,9,9,Y","009900,5,9,9","+0240,1","+0130,1","99999,9",,,,,,,,,,,,"10100,1,99999,9",,,,,,"MET051SPECI FACT 180655Z 16015KT CAVOK 24/13 Q1010 NOSIG=",
"68816099999","2022-02-18T07:00:00","4","-33.964806","18.601667","46.02","CAPE TOWN INTERNATIONAL, SF","FM-15","99999","V020","160,1,N,0077,1","99999,9,9,Y","009900,5,9,9","+0240,1","+0130,1","99999,9",,,,,,,,,,,,"10100,1,99999,9",,,,,,"MET051METAR FACT 180700Z 16015KT CAVOK 24/13 Q1010 NOSIG=",
"68816099999","2022-02-18T08:00:00","4","-33.964806","18.601667","46.02","CAPE TOWN INTERNATIONAL, SF","FM-15","99999","V020","150,1,N,0057,1","99999,9,9,Y","009900,5,9,9","+0260,1","+0130,1","99999,9",,,,,,,,,,,,"10100,1,99999,9",,,,,,"MET051METAR FACT 180800Z 15011KT CAVOK 26/13 Q1010 NOSIG=",
"68816099999","2022-02-18T09:00:00","4","-33.964806","18.601667","46.02","CAPE TOWN INTERNATIONAL, SF","FM-15","99999","V020","190,1,N,0041,1","99999,9,9,Y","009900,5,9,9","+0270,1","+0120,1","99999,9",,,,,,,,,,,,"10100,1,99999,9",,,,,,"MET051METAR FACT 180900Z 19008KT CAVOK 27/12 Q1010 NOSIG=",
"68816099999","2022-02-18T10:00:00","4","-33.964806","18.601667","46.02","CAPE TOWN INTERNATIONAL, SF","FM-15","99999","V020","180,1,V,0041,1","99999,9,9,Y","009900,5,9,9","+0290,1","+0120,1","99999,9",,,,,,,,,,,,"10100,1,99999,9",,,,,,"MET059METAR FACT 181000Z 18008KT 150V220 CAVOK 29/12 Q1010 NOSIG=",
"68816099999","2022-02-18T11:00:00","4","-33.964806","18.601667","46.02","CAPE TOWN INTERNATIONAL, SF","FM-15","99999","V020","190,1,V,0026,1","99999,9,9,Y","009900,5,9,9","+0300,1","+0120,1","99999,9",,,,,,,,,,,,"10090,1,99999,9",,,,,,"MET059METAR FACT 181100Z 19005KT 140V240 CAVOK 30/12 Q1009 NOSIG=",
"68816099999","2022-02-18T12:00:00","4","-33.964806","18.601667","46.02","CAPE TOWN INTERNATIONAL, SF","FM-12","99999","V020","220,1,N,0062,1","99999,9,9,N","040000,1,9,9","+0296,1","+0135,1","10090,1",,,,,,,,,,"240,N,+0208,1",,"99999,9,10038,1","6,1,013,1,+999,9",,,,"4,99,0077,1,999","SYN07468816 32982 02212 10296 20135 30038 40090 56013 333 20208 91015 555 91009=",
"68816099999","2022-02-18T12:00:00","4","-33.964806","18.601667","46.02","CAPE TOWN INTERNATIONAL, SF","FM-15","99999","V020","220,1,N,0062,1","99999,9,9,Y","009900,5,9,9","+0300,1","+0140,1","99999,9",,,,,,,,,,,,"10090,1,99999,9",,,,,,"MET051METAR FACT 181200Z 22012KT CAVOK 30/14 Q1009 NOSIG=",
"68816099999","2022-02-18T13:00:00","4","-33.964806","18.601667","46.02","CAPE TOWN INTERNATIONAL, SF","FM-15","99999","V020","210,1,N,0057,1","99999,9,9,Y","009900,5,9,9","+0290,1","+0140,1","99999,9",,,,,,,,,,,,"10080,1,99999,9",,,,,,"MET051METAR FACT 181300Z 21011KT CAVOK 29/14 Q1008 NOSIG=",
"68816099999","2022-02-18T14:00:00","4","-33.964806","18.601667","46.02","CAPE TOWN INTERNATIONAL, SF","FM-15","99999","V020","220,1,N,0062,1","99999,9,9,Y","009900,5,9,9","+0270,1","+0150,1","99999,9",,,,,,,,,,,,"10080,1,99999,9",,,,,,"MET051METAR FACT 181400Z 22012KT CAVOK 27/15 Q1008 NOSIG=",
"68816099999","2022-02-18T15:00:00","4","-33.964806","18.601667","46.02","CAPE TOWN INTERNATIONAL, SF","FM-15","99999","V020","230,1,N,0057,1","99999,9,9,Y","009900,5,9,9","+0260,1","+0150,1","99999,9",,,,,,,,,,,,"10080,1,99999,9",,,,,,"MET051METAR FACT 181500Z 23011KT CAVOK 26/15 Q1008 NOSIG=",
"68816099999","2022-02-18T16:00:00","4","-33.964806","18.601667","46.02","CAPE TOWN INTERNATIONAL, SF","FM-15","99999","V020","220,1,N,0046,1","99999,9,9,Y","009900,5,9,9","+0240,1","+0150,1","99999,9",,,,,,,,,,,,"10070,1,99999,9",,,,,,"MET051METAR FACT 181600Z 22009KT CAVOK 24/15 Q1007 NOSIG=",
"68816099999","2022-02-18T17:00:00","4","-33.964806","18.601667","46.02","CAPE TOWN INTERNATIONAL, SF","FM-15","99999","V020","230,1,N,0041,1","99999,9,9,Y","009900,5,9,9","+0220,1","+0150,1","99999,9",,,,,,,,,,,,"10080,1,99999,9",,,,,,"MET051METAR FACT 181700Z 23008KT CAVOK 22/15 Q1008 NOSIG=",
"68816099999","2022-02-18T18:00:00","4","-33.964806","18.601667","46.02","CAPE TOWN INTERNATIONAL, SF","FM-15","99999","V020","230,1,N,0021,1","99999,9,9,Y","009900,5,9,9","+0210,1","+0140,1","99999,9",,,,,,,,,,,,"10080,1,99999,9",,,,,,"MET051METAR FACT 181800Z 23004KT CAVOK 21/14 Q1008 NOSIG=",
"68816099999","2022-02-18T19:00:00","4","-33.964806","18.601667","46.02","CAPE TOWN INTERNATIONAL, SF","FM-15","99999","V020","200,1,N,0021,1","99999,9,9,Y","009900,5,9,9","+0200,1","+0140,1","99999,9",,,,,,,,,,,,"10080,1,99999,9",,,,,,"MET051METAR FACT 181900Z 20004KT CAVOK 20/14 Q1008 NOSIG=",
"68816099999","2022-02-18T20:00:00","4","-33.964806","18.601667","46.02","CAPE TOWN INTERNATIONAL, SF","FM-15","99999","V020","999,9,V,0010,1","99999,9,9,Y","009900,5,9,9","+0190,1","+0140,1","99999,9",,,,,,,,,,,,"10080,1,99999,9",,,,,,"MET051METAR FACT 182000Z VRB02KT CAVOK 19/14 Q1008 NOSIG=",
"68816099999","2022-02-18T21:00:00","4","-33.964806","18.601667","46.02","CAPE TOWN INTERNATIONAL, SF","FM-15","99999","V020","999,9,V,0010,1","99999,9,9,Y","009900,5,9,9","+0200,1","+0140,1","99999,9",,,,,,,,,,,,"10080,1,99999,9",,,,,,"MET051METAR FACT 182100Z VRB02KT CAVOK 20/14 Q1008 NOSIG=",
"68816099999","2022-02-18T22:00:00","4","-33.964806","18.601667","46.02","CAPE TOWN INTERNATIONAL, SF","FM-15","99999","V020","999,9,V,0005,1","99999,9,9,Y","009900,5,9,9","+0200,1","+0140,1","99999,9",,,,,,,,,,,,"10080,1,99999,9",,,,,,"MET051METAR FACT 182200Z VRB01KT CAVOK 20/14 Q1008 NOSIG=",
"68816099999","2022-02-18T23:00:00","4","-33.964806","18.601667","46.02","CAPE TOWN INTERNATIONAL, SF","FM-15","99999","V020","310,1,N,0026,1","99999,9,9,Y","009900,5,9,9","+0190,1","+0140,1","99999,9",,,,,,,,,,,,"10080,1,99999,9",,,,,,"MET051METAR FACT 182300Z 31005KT CAVOK 19/14 Q1008 NOSIG=",
"68816099999","2022-02-19T00:00:00","4","-33.964806","18.601667","46.02","CAPE TOWN INTERNATIONAL, SF","FM-12","99999","V020","330,1,N,0041,1","99999,9,9,N","020000,1,9,9","+0190,1","+0127,1","10086,1",,,,,,,,,,"120,M,+0318,1",,"99999,9,10031,1","7,1,001,1,+999,9",,,,"4,99,0062,1,999","SYN07468816 32970 03308 10190 20127 30031 40086 57001 333 10318 91012 555 91008=",
"68816099999","2022-02-19T00:00:00","4","-33.964806","18.601667","46.02","CAPE TOWN INTERNATIONAL, SF","FM-15","99999","V020","330,1,N,0041,1","99999,9,9,Y","009900,5,9,9","+0190,1","+0130,1","99999,9",,,,,,,,,,,,"10080,1,99999,9",,,,,,"MET051METAR FACT 190000Z 33008KT CAVOK 19/13 Q1008 NOSIG=",
"68816099999","2022-02-19T01:00:00","4","-33.964806","18.601667","46.02","CAPE TOWN INTERNATIONAL, SF","FM-15","99999","V020","340,1,N,0046,1","99999,9,9,Y","009900,5,9,9","+0180,1","+0120,1","99999,9",,,,,,,,,,,,"10080,1,99999,9",,,,,,"MET051METAR FACT 190100Z 34009KT CAVOK 18/12 Q1008 NOSIG=",
"68816099999","2022-02-19T02:00:00","4","-33.964806","18.601667","46.02","CAPE TOWN INTERNATIONAL, SF","FM-15","99999","V020","330,1,N,0036,1","99999,9,9,Y","009900,5,9,9","+0180,1","+0120,1","99999,9",,,,,,,,,,,,"10090,1,99999,9",,,,,,"MET051METAR FACT 190200Z 33007KT CAVOK 18/12 Q1009 NOSIG=",
"68816099999","2022-02-19T03:00:00","4","-33.964806","18.601667","46.02","CAPE TOWN INTERNATIONAL, SF","FM-12","99999","V020","340,1,N,0036,1","99999,9,9,N","020000,1,9,9","+0161,1","+0123,1","10089,1",,,,,,,,,,"240,M,+0318,1",,"99999,9,10034,1","7,1,001,1,+999,9",,,,"4,99,0062,1,999","SYN06468816 42970 03407 10161 20123 30034 40089 57001 333 10318 91012=",
"68816099999","2022-02-19T03:00:00","4","-33.964806","18.601667","46.02","CAPE TOWN INTERNATIONAL, SF","FM-15","99999","V020","340,1,N,0041,1","99999,9,9,Y","009900,5,9,9","+0160,1","+0120,1","99999,9",,,,,,,,,,,,"10080,1,99999,9",,,,,,"MET051METAR FACT 190300Z 34008KT CAVOK 16/12 Q1008 NOSIG=",
"68816099999","2022-02-19T04:00:00","4","-33.964806","18.601667","46.02","CAPE TOWN INTERNATIONAL, SF","FM-15","99999","V020","330,1,N,0031,1","99999,9,9,Y","009900,5,9,9","+0150,1","+0130,1","99999,9",,,,,,,,,,,,"10090,1,99999,9",,,,,,"MET051METAR FACT 190400Z 33006KT CAVOK 15/13 Q1009 NOSIG=",
"68816099999","2022-02-19T05:00:00","4","-33.964806","18.601667","46.02","CAPE TOWN INTERNATIONAL, SF","FM-15","99999","V020","330,1,N,0026,1","99999,9,9,Y","009900,5,9,9","+0140,1","+0120,1","99999,9",,,,,,,,,,,,"10090,1,99999,9",,,,,,"MET051METAR FACT 190500Z 33005KT CAVOK 14/12 Q1009 NOSIG=",
"68816099999","2022-02-19T05:34:00","4","-33.964806","18.601667","46.02","CAPE TOWN INTERNATIONAL, SF","FM-16","99999","V020","340,1,N,0046,1","99999,9,9,Y","009900,5,9,9","+0160,1","+0130,1","99999,9",,,,,,,,,,,,"10090,1,99999,9",,,,,,"MET051SPECI FACT 190534Z 34009KT CAVOK 16/13 Q1009 NOSIG=",
"68816099999","2022-02-19T05:44:00","4","-33.964806","18.601667","46.02","CAPE TOWN INTERNATIONAL, SF","FM-16","99999","V020","340,1,N,0051,1","99999,9,9,Y","009900,5,9,9","+0180,1","+0130,1","99999,9",,,,,,,,,,,,"10090,1,99999,9",,,,,,"MET051SPECI FACT 190544Z 34010KT CAVOK 18/13 Q1009 NOSIG=",
"68816099999","2022-02-19T05:57:00","4","-33.964806","18.601667","46.02","CAPE TOWN INTERNATIONAL, SF","FM-16","99999","V020","010,1,N,0067,1","99999,9,9,Y","009900,5,9,9","+0200,1","+0130,1","99999,9",,,,,,,,,,,,"10090,1,99999,9",,,,,,"MET051SPECI FACT 190557Z 01013KT CAVOK 20/13 Q1009 NOSIG=",
"68816099999","2022-02-19T06:00:00","4","-33.964806","18.601667","46.02","CAPE TOWN INTERNATIONAL, SF","FM-12","99999","V020","010,1,N,0067,1","99999,9,9,N","040000,1,9,9","+0194,1","+0125,1","10098,1",,,,,,,,,,"240,N,+0136,1",,"99999,9,10044,1","7,1,001,1,+999,9",,,,"4,99,0077,1,999","SYN08068816 32982 00113 10194 20125 30044 40098 57001 333 20136 91015 555 10318 91009=",
"68816099999","2022-02-19T06:00:00","4","-33.964806","18.601667","46.02","CAPE TOWN INTERNATIONAL, SF","FM-15","99999","V020","010,1,N,0067,1","99999,9,9,Y","009900,5,9,9","+0200,1","+0130,1","99999,9",,,,,,,,,,,,"10090,1,99999,9",,,,,,"MET051METAR FACT 190600Z 01013KT CAVOK 20/13 Q1009 NOSIG=",
"68816099999","2022-02-19T07:00:00","4","-33.964806","18.601667","46.02","CAPE TOWN INTERNATIONAL, SF","FM-15","99999","V020","330,1,N,0072,1","99999,9,9,N","009999,1,9,9","+0190,1","+0140,1","99999,9",,,,,"02,1,+00305,1,99,9",,,"9,AGL   ,+99999,+99999","99,99,9,02,1,99,9,00305,1,99,9,99,9",,,"10100,1,99999,9",,,,,,"MET057METAR FACT 190700Z 33014KT 9999 FEW010 19/14 Q1010 NOSIG=",
"68816099999","2022-02-19T08:00:00","4","-33.964806","18.601667","46.02","CAPE TOWN INTERNATIONAL, SF","FM-15","99999","V020","340,1,N,0072,1","99999,9,9,N","009999,1,9,9","+0210,1","+0150,1","99999,9",,,,,"02,1,+00305,1,99,9",,,"9,AGL   ,+99999,+99999","99,99,9,02,1,99,9,00305,1,99,9,99,9",,,"10100,1,99999,9",,,,,,"MET061METAR COR FACT 190800Z 34014KT 9999 FEW010 21/15 Q1010 NOSIG=",
"68816099999","2022-02-19T09:00:00","4","-33.964806","18.601667","46.02","CAPE TOWN INTERNATIONAL, SF","FM-12","99999","V020","300,1,N,0072,1","22000,1,9,N","030000,1,9,9","+0194,1","+0125,1","10098,1",,,,,"01,1,+00450,1,06,1","99,9,+99999,9,00,1",,"9,AGL   ,+99999,+99999","04,99,1,01,1,99,9,00450,1,99,9,99,9",,,"99999,9,10044,1","2,1,008,1,+999,9",,,,"4,99,0093,1,999","SYN06468816 42480 43014 10194 20125 30044 40098 52008 81504 333 91018=",
"68816099999","2022-02-19T09:00:00","4","-33.964806","18.601667","46.02","CAPE TOWN INTERNATIONAL, SF","FM-15","99999","V020","300,1,N,0072,1","99999,9,9,N","009999,1,9,9","+0230,1","+0160,1","99999,9",,,,,"02,1,+00457,1,99,9",,,"9,AGL   ,+99999,+99999","99,99,9,02,1,99,9,00457,1,99,9,99,9",,,"10100,1,99999,9",,,,,,"MET057METAR FACT 190900Z 30014KT 9999 FEW015 23/16 Q1010 NOSIG=",
"68816099999","2022-02-19T10:00:00","4","-33.964806","18.601667","46.02","CAPE TOWN INTERNATIONAL, SF","FM-15","99999","V020","310,1,N,0098,1","99999,9,9,Y","009900,5,9,9","+0220,1","+0160,1","99999,9",,,,,,,,,,,,"10100,1,99999,9",,,,,,"MET051METAR FACT 191000Z 31019KT CAVOK 22/16 Q1010 NOSIG=",
"68816099999","2022-02-19T11:00:00","4","-33.964806","18.601667","46.02","CAPE TOWN INTERNATIONAL, SF","FM-15","99999","V020","320,1,V,0082,1","99999,9,9,N","009999,1,9,9","+0220,1","+0160,1","99999,9",,,,,"02,1,+00914,1,99,9",,,"9,AGL   ,+99999,+99999","99,99,9,02,1,99,9,00914,1,99,9,99,9",,,"10110,1,99999,9",,,,,,"MET065METAR FACT 191100Z 32016KT 270V350 9999 FEW030 22/16 Q1011 NOSIG=",
"68816099999","2022-02-19T12:00:00","4","-33.964806","18.601667","46.02","CAPE TOWN INTERNATIONAL, SF","FM-12","99999","V020","320,1,N,0082,1","22000,1,9,N","030000,1,9,9","+0221,1","+0151,1","10111,1",,,,,"99,9,+99999,9,02,1",,,"9,AGL   ,+99999,+99999","03,99,1,00,1,99,9,99999,9,99,9,99,9","240,N,+0195,1",,"99999,9,10057,1","7,1,001,1,+999,9",,,,"4,99,0103,1,999","SYN08068816 32980 33216 10221 20151 30057 40111 57001 80008 333 20195 91020 555 91011=","Q01    003SCCGA1"
"68816099999","2022-02-19T12:00:00","4","-33.964806","18.601667","46.02","CAPE TOWN INTERNATIONAL, SF","FM-15","99999","V020","310,1,N,0088,1","99999,9,9,Y","009900,5,9,9","+0220,1","+0150,1","99999,9",,,,,,,,,,,,"10110,1,99999,9",,,,,,"MET051METAR FACT 191200Z 31017KT CAVOK 22/15 Q1011 NOSIG=",
"68816099999","2022-02-19T13:00:00","4","-33.964806","18.601667","46.02","CAPE TOWN INTERNATIONAL, SF","FM-15","99999","V020","310,1,N,0062,1","99999,9,9,Y","009900,5,9,9","+0230,1","+0140,1","99999,9",,,,,,,,,,,,"10100,1,99999,9",,,,,,"MET051METAR FACT 191300Z 31012KT CAVOK 23/14 Q1010 NOSIG=",
"68816099999","2022-02-19T13:42:00","4","-33.964806","18.601667","46.02","CAPE TOWN INTERNATIONAL, SF","FM-16","99999","V020","310,1,N,0046,1","22000,1,9,N","004300,1,9,9","+0220,1","+0140,1","99999,9",,,,,,,,,"00,99,1,99,9,99,9,99999,9,99,9,99,9",,,"10110,1,99999,9",,"04,1",,,,"MET057SPECI FACT 191342Z 31009KT 4300 FU NSC 22/14 Q1011 NOSIG=",
"68816099999","2022-02-19T13:55:00","4","-33.964806","18.601667","46.02","CAPE TOWN INTERNATIONAL, SF","FM-16","99999","V020","320,1,N,0051,1","22000,1,9,N","004000,1,9,9","+0220,1","+0140,1","99999,9",,,,,,,,,"00,99,1,99,9,99,9,99999,9,99,9,99,9",,,"10100,1,99999,9",,"04,1",,,,"MET057SPECI FACT 191355Z 32010KT 4000 FU NSC 22/14 Q1010 NOSIG=",
"68816099999","2022-02-19T13:56:00","4","-33.964806","18.601667","46.02","CAPE TOWN INTERNATIONAL, SF","FM-16","99999","V020","320,1,N,0051,1","22000,1,9,N","004000,1,9,9","+0220,1","+0140,1","99999,9",,,,,,,,,"00,99,1,99,9,99,9,99999,9,99,9,99,9",,,"10100,1,99999,9",,"04,1",,,,"MET057SPECI FACT 191356Z 32010KT 4000 FU NSC 22/14 Q1010 NOSIG=",
"68816099999","2022-02-19T14:00:00","4","-33.964806","18.601667","46.02","CAPE TOWN INTERNATIONAL, SF","FM-15","99999","V020","320,1,N,0051,1","22000,1,9,N","004000,1,9,9","+0220,1","+0140,1","99999,9",,,,,,,,,"00,99,1,99,9,99,9,99999,9,99,9,99,9",,,"10100,1,99999,9",,"04,1",,,,"MET057METAR FACT 191400Z 32010KT 4000 FU NSC 22/14 Q1010 NOSIG=",
"68816099999","2022-02-19T14:26:00","4","-33.964806","18.601667","46.02","CAPE TOWN INTERNATIONAL, SF","FM-16","99999","V020","320,1,N,0051,1","99999,9,9,Y","009900,5,9,9","+0220,1","+0140,1","99999,9",,,,,,,,,,,,"10110,1,99999,9",,,,,,"MET051SPECI FACT 191426Z 32010KT CAVOK 22/14 Q1011 NOSIG=",
"68816099999","2022-02-19T15:00:00","4","-33.964806","18.601667","46.02","CAPE TOWN INTERNATIONAL, SF","FM-15","99999","V020","320,1,V,0046,1","99999,9,9,N","009999,1,9,9","+0220,1","+0140,1","99999,9",,,,,"02,1,+01067,1,99,9",,,"9,AGL   ,+99999,+99999","99,99,9,02,1,99,9,01067,1,99,9,99,9",,,"10110,1,99999,9",,,,,,"MET069METAR COR FACT 191500Z 32009KT 290V350 9999 FEW035 22/14 Q1011 NOSIG=",
"68816099999","2022-02-19T16:00:00","4","-33.964806","18.601667","46.02","CAPE TOWN INTERNATIONAL, SF","FM-15","99999","V020","320,1,N,0036,1","99999,9,9,N","009999,1,9,9","+0220,1","+0140,1","99999,9",,,,,"04,1,+01067,1,99,9",,,"9,AGL   ,+99999,+99999","99,99,9,04,1,99,9,01067,1,99,9,99,9",,,"10110,1,99999,9",,,,,,"MET057METAR FACT 191600Z 32007KT 9999 SCT035 22/14 Q1011 NOSIG=",
"68816099999","2022-02-19T17:00:00","4","-33.964806","18.601667","46.02","CAPE TOWN INTERNATIONAL, SF","FM-15","99999","V020","999,9,V,0021,1","99999,9,9,N","009999,1,9,9","+0220,1","+0150,1","99999,9",,,,,"02,1,+01067,1,99,9",,,"9,AGL   ,+99999,+99999","99,99,9,02,1,99,9,01067,1,99,9,99,9",,,"10110,1,99999,9",,,,,,"MET057METAR FACT 191700Z VRB04KT 9999 FEW035 22/15 Q1011 NOSIG=",
"68816099999","2022-02-19T17:39:00","4","-33.964806","18.601667","46.02","CAPE TOWN INTERNATIONAL, SF","FM-16","99999","V020","190,1,N,0057,1","99999,9,9,N","009999,1,9,9","+0220,1","+0170,1","99999,9",,,,,"02,1,+00914,1,99,9",,,"9,AGL   ,+99999,+99999","99,99,9,02,1,99,9,00914,1,99,9,99,9",,,"10120,1,99999,9",,,,,,"MET057SPECI FACT 191739Z 19011KT 9999 FEW030 22/17 Q1012 NOSIG=",
"68816099999","2022-02-19T18:00:00","4","-33.964806","18.601667","46.02","CAPE TOWN INTERNATIONAL, SF","FM-12","99999","V020","190,1,N,0041,1","22000,1,9,N","030000,1,9,9","+0211,1","+0176,1","10124,1",,,,,"02,1,+01250,1,06,1",,,"9,AGL   ,+99999,+99999","02,99,1,02,1,99,9,01250,1,99,9,99,9","120,M,+0239,1",,"99999,9,10071,1","9,9,002,1,+999,9",,,,"4,99,0062,1,999","SYN08068816 32680 21908 10211 20176 30071 40124 50002 82500 333 10239 91012 555 91012=",
"68816099999","2022-02-19T18:00:00","4","-33.964806","18.601667","46.02","CAPE TOWN INTERNATIONAL, SF","FM-15","99999","V020","190,1,N,0046,1","99999,9,9,N","009999,1,9,9","+0210,1","+0180,1","99999,9",,,,,"04,1,+01067,1,99,9",,,"9,AGL   ,+99999,+99999","99,99,9,04,1,99,9,01067,1,99,9,99,9",,,"10120,1,99999,9",,,,,,"MET061METAR COR FACT 191800Z 19009KT 9999 SCT035 21/18 Q1012 NOSIG=",
"68816099999","2022-02-19T19:00:00","4","-33.964806","18.601667","46.02","CAPE TOWN INTERNATIONAL, SF","FM-15","99999","V020","190,1,N,0067,1","01219,1,C,N","009999,1,9,9","+0210,1","+0180,1","99999,9",,,,,"07,1,+01219,1,99,9",,,"9,AGL   ,+99999,+99999","99,99,9,07,1,99,9,01219,1,99,9,99,9",,,"10130,1,99999,9",,,,,,"MET057METAR FACT 191900Z 19013KT 9999 BKN040 21/18 Q1013 NOSIG=",
"68816099999","2022-02-19T20:00:00","4","-33.964806","18.601667","46.02","CAPE TOWN INTERNATIONAL, SF","FM-15","99999","V020","190,1,N,0062,1","01250,1,C,N","009999,1,9,9","+0200,1","+0180,1","99999,9",,,,,"07,1,+01250,1,99,9",,,"9,AGL   ,+99999,+99999","99,99,9,07,1,99,9,01250,1,99,9,99,9",,,"10130,1,99999,9",,,,,,"MET057METAR FACT 192000Z 19012KT 9999 BKN041 20/18 Q1013 NOSIG=",
"68816099999","2022-02-19T21:00:00","4","-33.964806","18.601667","46.02","CAPE TOWN INTERNATIONAL, SF","FM-12","99999","V020","200,1,N,0051,1","99999,9,9,N","020000,1,9,9","+0203,1","+0176,1","10140,1",,,,,"06,1,+01250,1,06,1",,,"9,AGL   ,+99999,+99999","06,99,1,06,1,99,9,01250,1,99,9,99,9","240,M,+0239,1","240,N,+0202,1","99999,9,10086,1","9,9,002,1,+999,9",,,,"4,99,0051,1,999","SYN07668816 42670 62010 10203 20176 30086 40140 50002 86500 333 10239 20202 91010=",
"68816099999","2022-02-19T21:00:00","4","-33.964806","18.601667","46.02","CAPE TOWN INTERNATIONAL, SF","FM-15","99999","V020","200,1,N,0051,1","01402,1,9,N","009999,1,9,9","+0200,1","+0180,1","99999,9",,,,,"02,1,+01067,1,99,9","07,1,+01402,1,99,9",,"9,AGL   ,+99999,+99999","99,99,9,02,1,99,9,01067,1,99,9,99,9",,,"10140,1,99999,9",,,,,,"MET064METAR FACT 192100Z 20010KT 9999 FEW035 BKN046 20/18 Q1014 NOSIG=",
"68816099999","2022-02-19T22:00:00","4","-33.964806","18.601667","46.02","CAPE TOWN INTERNATIONAL, SF","FM-15","99999","V020","190,1,N,0046,1","01463,1,C,N","009999,1,9,9","+0200,1","+0180,1","99999,9",,,,,"07,1,+01463,1,99,9",,,"9,AGL   ,+99999,+99999","99,99,9,07,1,99,9,01463,1,99,9,99,9",,,"10140,1,99999,9",,,,,,"MET057METAR FACT 192200Z 19009KT 9999 BKN048 20/18 Q1014 NOSIG=",
"68816099999","2022-02-19T23:00:00","4","-33.964806","18.601667","46.02","CAPE TOWN INTERNATIONAL, SF","FM-15","99999","V020","180,1,N,0046,1","01402,1,C,N","009999,1,9,9","+0200,1","+0170,1","99999,9",,,,,"07,1,+01402,1,99,9",,,"9,AGL   ,+99999,+99999","99,99,9,07,1,99,9,01402,1,99,9,99,9",,,"10140,1,99999,9",,,,,,"MET057METAR FACT 192300Z 18009KT 9999 BKN046 20/17 Q1014 NOSIG=",
"68816099999","2022-02-20T00:00:00","4","-33.964806","18.601667","46.02","CAPE TOWN INTERNATIONAL, SF","FM-12","99999","V020","170,1,N,0036,1","22000,1,9,N","020000,1,9,9","+0185,1","+0165,1","10139,1",,,,,"02,1,+01250,1,06,1",,,"9,AGL   ,+99999,+99999","02,99,1,02,1,99,9,01250,1,99,9,99,9","120,M,+0239,1","120,N,+0185,1","99999,9,10084,1","9,9,002,1,+999,9",,,,"4,99,0051,1,999","SYN08668816 32670 21707 10185 20165 30084 40139 50002 82500 333 10239 20185 91010 555 91013=",
"68816099999","2022-02-20T00:00:00","4","-33.964806","18.601667","46.02","CAPE TOWN INTERNATIONAL, SF","FM-15","99999","V020","170,1,N,0036,1","99999,9,9,N","009999,1,9,9","+0190,1","+0170,1","99999,9",,,,,"02,1,+01433,1,99,9",,,"9,AGL   ,+99999,+99999","99,99,9,02,1,99,9,01433,1,99,9,99,9",,,"10140,1,99999,9",,,,,,"MET057METAR FACT 200000Z 17007KT 9999 FEW047 19/17 Q1014 NOSIG=",
"68816099999","2022-02-20T01:00:00","4","-33.964806","18.601667","46.02","CAPE TOWN INTERNATIONAL, SF","FM-15","99999","V020","180,1,N,0036,1","99999,9,9,N","009999,1,9,9","+0180,1","+0160,1","99999,9",,,,,"02,1,+01524,1,99,9",,,"9,AGL   ,+99999,+99999","99,99,9,02,1,99,9,01524,1,99,9,99,9",,,"10140,1,99999,9",,,,,,"MET057METAR FACT 200100Z 18007KT 9999 FEW050 18/16 Q1014 NOSIG=",
"68816099999","2022-02-20T02:00:00","4","-33.964806","18.601667","46.02","CAPE TOWN INTERNATIONAL, SF","FM-15","99999","V020","160,1,N,0021,1","99999,9,9,N","009999,1,9,9","+0170,1","+0150,1","99999,9",,,,,"02,1,+01524,1,99,9",,,"9,AGL   ,+99999,+99999","99,99,9,02,1,99,9,01524,1,99,9,99,9",,,"10140,1,99999,9",,,,,,"MET057METAR FACT 200200Z 16004KT 9999 FEW050 17/15 Q1014 NOSIG=",
"68816099999","2022-02-20T03:00:00","4","-33.964806","18.601667","46.02","CAPE TOWN INTERNATIONAL, SF","FM-12","99999","V020","140,1,N,0021,1","22000,1,9,N","020000,1,9,9","+0161,1","+0148,1","10140,1",,,,,"02,1,+00800,1,06,1",,,"9,AGL   ,+99999,+99999","02,99,1,02,1,99,9,00800,1,99,9,99,9","240,M,+0211,1","240,N,+0136,1","99999,9,10085,1","9,9,002,1,+999,9",,,,"4,99,0051,1,999","SYN07668816 42570 21404 10161 20148 30085 40140 50002 82500 333 10211 20136 91010=",
"68816099999","2022-02-20T03:00:00","4","-33.964806","18.601667","46.02","CAPE TOWN INTERNATIONAL, SF","FM-15","99999","V020","140,1,N,0021,1","99999,9,9,N","009999,1,9,9","+0160,1","+0150,1","99999,9",,,,,"02,1,+00762,1,99,9",,,"9,AGL   ,+99999,+99999","99,99,9,02,1,99,9,00762,1,99,9,99,9",,,"10140,1,99999,9",,,,,,"MET057METAR FACT 200300Z 14004KT 9999 FEW025 16/15 Q1014 NOSIG=",
"68816099999","2022-02-20T04:00:00","4","-33.964806","18.601667","46.02","CAPE TOWN INTERNATIONAL, SF","FM-15","99999","V020","130,1,N,0015,1","99999,9,9,N","009999,1,9,9","+0160,1","+0140,1","99999,9",,,,,"02,1,+00914,1,99,9",,,"9,AGL   ,+99999,+99999","99,99,9,02,1,99,9,00914,1,99,9,99,9",,,"10140,1,99999,9",,,,,,"MET057METAR FACT 200400Z 13003KT 9999 FEW030 16/14 Q1014 NOSIG=",
"68816099999","2022-02-20T05:00:00","4","-33.964806","18.601667","46.02","CAPE TOWN INTERNATIONAL, SF","FM-15","99999","V020","999,9,V,0015,1","99999,9,9,N","009999,1,9,9","+0160,1","+0150,1","99999,9",,,,,"04,1,+00975,1,99,9",,,"9,AGL   ,+99999,+99999","99,99,9,04,1,99,9,00975,1,99,9,99,9",,,"10150,1,99999,9",,,,,,"MET057METAR FACT 200500Z VRB03KT 9999 SCT032 16/15 Q1015 NOSIG=",
"68816099999","2022-02-20T05:26:00","4","-33.964806","18.601667","46.02","CAPE TOWN INTERNATIONAL, SF","FM-16","99999","V020","999,9,V,0015,1","00945,1,C,N","009999,1,9,9","+0180,1","+0160,1","99999,9",,,,,"07,1,+00945,1,99,9",,,"9,AGL   ,+99999,+99999","99,99,9,07,1,99,9,00945,1,99,9,99,9",,,"10150,1,99999,9",,,,,,"MET057SPECI FACT 200526Z VRB03KT 9999 BKN031 18/16 Q1015 NOSIG=",
"68816099999","2022-02-20T06:00:00","4","-33.964806","18.601667","46.02","CAPE TOWN INTERNATIONAL, SF","FM-12","99999","V020","250,1,N,0021,1","99999,9,9,N","020000,1,9,9","+0190,1","+0153,1","10154,1",,,,,"06,1,+00800,1,06,1",,,"9,AGL   ,+99999,+99999","06,99,1,06,1,99,9,00800,1,99,9,99,9","240,N,+0150,1",,"99999,9,10100,1","2,1,014,1,+999,9",,,,"4,99,0026,1,999","SYN08668816 32570 62504 10190 20153 30100 40154 52014 86500 333 20150 91005 555 10239 91015=",
"68816099999","2022-02-20T06:00:00","4","-33.964806","18.601667","46.02","CAPE TOWN INTERNATIONAL, SF","FM-15","99999","V020","270,1,V,0021,1","00945,1,C,N","009999,1,9,9","+0190,1","+0150,1","99999,9",,,,,"07,1,+00945,1,99,9",,,"9,AGL   ,+99999,+99999","99,99,9,07,1,99,9,00945,1,99,9,99,9",,,"10150,1,99999,9",,,,,,"MET065METAR FACT 200600Z 27004KT 200V280 9999 BKN031 19/15 Q1015 NOSIG=",
"68816099999","2022-02-20T07:00:00","4","-33.964806","18.601667","46.02","CAPE TOWN INTERNATIONAL, SF","FM-15","99999","V020","250,1,V,0026,1","01219,1,9,N","009999,1,9,9","+0200,1","+0140,1","99999,9",,,,,"02,1,+00884,1,99,9","07,1,+01219,1,99,9",,"9,AGL   ,+99999,+99999","99,99,9,02,1,99,9,00884,1,99,9,99,9",,,"10150,1,99999,9",,,,,,"MET072METAR FACT 200700Z 25005KT 220V360 9999 FEW029 BKN040 20/14 Q1015 NOSIG=",
"68816099999","2022-02-20T08:00:00","4","-33.964806","18.601667","46.02","CAPE TOWN INTERNATIONAL, SF","FM-15","99999","V020","999,9,V,0015,1","99999,9,9,N","009999,1,9,9","+0210,1","+0140,1","99999,9",,,,,"04,1,+01219,1,99,9",,,"9,AGL   ,+99999,+99999","99,99,9,04,1,99,9,01219,1,99,9,99,9",,,"10150,1,99999,9",,,,,,"MET057METAR FACT 200800Z VRB03KT 9999 SCT040 21/14 Q1015 NOSIG=",
"68816099999","2022-02-20T09:00:00","4","-33.964806","18.601667","46.02","CAPE TOWN INTERNATIONAL, SF","FM-15","99999","V020","999,9,V,0026,1","99999,9,9,N","009999,1,9,9","+0230,1","+0130,1","99999,9",,,,,"04,1,+01067,1,99,9",,,"9,AGL   ,+99999,+99999","99,99,9,04,1,99,9,01067,1,99,9,99,9",,,"10150,1,99999,9",,,,,,"MET057METAR FACT 200900Z VRB05KT 9999 SCT035 23/13 Q1015 NOSIG=",
"68816099999","2022-02-20T10:00:00","4","-33.964806","18.601667","46.02","CAPE TOWN INTERNATIONAL, SF","FM-15","99999","V020","340,1,V,0031,1","99999,9,9,N","009999,1,9,9","+0240,1","+0120,1","99999,9",,,,,"04,1,+01067,1,99,9",,,"9,AGL   ,+99999,+99999","99,99,9,04,1,99,9,01067,1,99,9,99,9",,,"10150,1,99999,9",,,,,,"MET065METAR FACT 201000Z 34006KT 290V040 9999 SCT035 24/12 Q1015 NOSIG=",
"68816099999","2022-02-20T11:00:00","4","-33.964806","18.601667","46.02","CAPE TOWN INTERNATIONAL, SF","FM-15","99999","V020","999,9,V,0031,1","99999,9,9,N","009999,1,9,9","+0240,1","+0130,1","99999,9",,,,,"04,1,+01219,1,99,9",,,"9,AGL   ,+99999,+99999","99,99,9,04,1,99,9,01219,1,99,9,99,9",,,"10140,1,99999,9",,,,,,"MET057METAR FACT 201100Z VRB06KT 9999 SCT040 24/13 Q1014 NOSIG=",
"68816099999","2022-02-20T12:00:00","4","-33.964806","18.601667","46.02","CAPE TOWN INTERNATIONAL, SF","FM-15","99999","V020","320,1,V,0026,1","99999,9,9,N","009999,1,9,9","+0240,1","+0130,1","99999,9",,,,,"04,1,+01219,1,99,9",,,"9,AGL   ,+99999,+99999","99,99,9,04,1,99,9,01219,1,99,9,99,9",,,"10140,1,99999,9",,,,,,"MET065METAR FACT 201200Z 32005KT 280V360 9999 SCT040 24/13 Q1014 NOSIG=",
"68816099999","2022-02-20T13:00:00","4","-33.964806","18.601667","46.02","CAPE TOWN INTERNATIONAL, SF","FM-15","99999","V020","300,1,V,0031,1","99999,9,9,N","009999,1,9,9","+0250,1","+0130,1","99999,9",,,,,"04,1,+01219,1,99,9",,,"9,AGL   ,+99999,+99999","99,99,9,04,1,99,9,01219,1,99,9,99,9",,,"10140,1,99999,9",,,,,,"MET065METAR FACT 201300Z 30006KT 240V350 9999 SCT040 25/13 Q1014 NOSIG=",
"68816099999","2022-02-20T14:00:00","4","-33.964806","18.601667","46.02","CAPE TOWN INTERNATIONAL, SF","FM-15","99999","V020","999,9,V,0026,1","99999,9,9,N","009999,1,9,9","+0240,1","+0140,1","99999,9",,,,,"04,1,+01219,1,99,9",,,"9,AGL   ,+99999,+99999","99,99,9,04,1,99,9,01219,1,99,9,99,9",,,"10130,1,99999,9",,,,,,"MET057METAR FACT 201400Z VRB05KT 9999 SCT040 24/14 Q1013 NOSIG=",
"68816099999","2022-02-20T14:28:00","4","-33.964806","18.601667","46.02","CAPE TOWN INTERNATIONAL, SF","FM-16","99999","V020","190,1,V,0057,1","99999,9,9,N","009999,1,9,9","+0260,1","+0150,1","99999,9",,,,,"04,1,+01219,1,99,9",,,"9,AGL   ,+99999,+99999","99,99,9,04,1,99,9,01219,1,99,9,99,9",,,"10140,1,99999,9",,,,,,"MET065SPECI FACT 201428Z 19011KT 160V220 9999 SCT040 26/15 Q1014 NOSIG=",
"68816099999","2022-02-20T15:00:00","4","-33.964806","18.601667","46.02","CAPE TOWN INTERNATIONAL, SF","FM-15","99999","V020","200,1,N,0062,1","99999,9,9,N","009999,1,9,9","+0250,1","+0150,1","99999,9",,,,,"04,1,+01219,1,99,9",,,"9,AGL   ,+99999,+99999","99,99,9,04,1,99,9,01219,1,99,9,99,9",,,"10140,1,99999,9",,,,,,"MET057METAR FACT 201500Z 20012KT 9999 SCT040 25/15 Q1014 NOSIG=",
"68816099999","2022-02-20T16:00:00","4","-33.964806","18.601667","46.02","CAPE TOWN INTERNATIONAL, SF","FM-15","99999","V020","180,1,N,0072,1","99999,9,9,N","009999,1,9,9","+0240,1","+0150,1","99999,9",,,,,"04,1,+01219,1,99,9",,,"9,AGL   ,+99999,+99999","99,99,9,04,1,99,9,01219,1,99,9,99,9",,,"10140,1,99999,9",,,,,,"MET057METAR FACT 201600Z 18014KT 9999 SCT040 24/15 Q1014 NOSIG=",
"68816099999","2022-02-20T17:00:00","4","-33.964806","18.601667","46.02","CAPE TOWN INTERNATIONAL, SF","FM-15","99999","V020","190,1,V,0051,1","99999,9,9,N","009999,1,9,9","+0230,1","+0150,1","99999,9",,,,,"04,1,+01219,1,99,9",,,"9,AGL   ,+99999,+99999","99,99,9,04,1,99,9,01219,1,99,9,99,9",,,"10140,1,99999,9",,,,,,"MET065METAR FACT 201700Z 19010KT 160V220 9999 SCT040 23/15 Q1014 NOSIG=",
"68816099999","2022-02-20T18:00:00","4","-33.964806","18.601667","46.02","CAPE TOWN INTERNATIONAL, SF","FM-12","99999","V020","170,1,N,0041,1","22000,1,9,N","030000,1,9,9","+0204,1","+0158,1","10146,1",,,,,"03,1,+01250,1,06,1",,,"9,AGL   ,+99999,+99999","03,99,1,03,1,99,9,01250,1,99,9,99,9","120,M,+0262,1",,"99999,9,10092,1","3,1,004,1,+999,9",,,,"4,99,0051,1,999","SYN08068816 32680 31708 10204 20158 30092 40146 53004 83500 333 10262 91010 555 91014=",
"68816099999","2022-02-20T18:00:00","4","-33.964806","18.601667","46.02","CAPE TOWN INTERNATIONAL, SF","FM-15","99999","V020","160,1,N,0041,1","99999,9,9,N","009999,1,9,9","+0200,1","+0160,1","99999,9",,,,,"04,1,+01219,1,99,9",,,"9,AGL   ,+99999,+99999","99,99,9,04,1,99,9,01219,1,99,9,99,9",,,"10140,1,99999,9",,,,,,"MET057METAR FACT 201800Z 16008KT 9999 SCT040 20/16 Q1014 NOSIG=",
"68816099999","2022-02-20T19:00:00","4","-33.964806","18.601667","46.02","CAPE TOWN INTERNATIONAL, SF","FM-15","99999","V020","170,1,N,0036,1","99999,9,9,N","009999,1,9,9","+0190,1","+0160,1","99999,9",,,,,"02,1,+01067,1,99,9",,,"9,AGL   ,+99999,+99999","99,99,9,02,1,99,9,01067,1,99,9,99,9",,,"10150,1,99999,9",,,,,,"MET057METAR FACT 201900Z 17007KT 9999 FEW035 19/16 Q1015 NOSIG=",
"68816099999","2022-02-20T20:00:00","4","-33.964806","18.601667","46.02","CAPE TOWN INTERNATIONAL, SF","FM-15","99999","V020","170,1,N,0026,1","99999,9,9,N","009999,1,9,9","+0190,1","+0160,1","99999,9",,,,,"02,1,+01097,1,99,9",,,"9,AGL   ,+99999,+99999","99,99,9,02,1,99,9,01097,1,99,9,99,9",,,"10150,1,99999,9",,,,,,"MET057METAR FACT 202000Z 17005KT 9999 FEW036 19/16 Q1015 NOSIG=",
"68816099999","2022-02-20T21:00:00","4","-33.964806","18.601667","46.02","CAPE TOWN INTERNATIONAL, SF","FM-15","99999","V020","160,1,N,0026,1","99999,9,9,N","009999,1,9,9","+0180,1","+0160,1","99999,9",,,,,"02,1,+00823,1,99,9",,,"9,AGL   ,+99999,+99999","99,99,9,02,1,99,9,00823,1,99,9,99,9",,,"10150,1,99999,9",,,,,,"MET057METAR FACT 202100Z 16005KT 9999 FEW027 18/16 Q1015 NOSIG=",
"68816099999","2022-02-20T22:00:00","4","-33.964806","18.601667","46.02","CAPE TOWN INTERNATIONAL, SF","FM-15","99999","V020","160,1,N,0026,1","00732,1,C,N","009999,1,9,9","+0180,1","+0170,1","99999,9",,,,,"07,1,+00732,1,99,9",,,"9,AGL   ,+99999,+99999","99,99,9,07,1,99,9,00732,1,99,9,99,9",,,"10150,1,99999,9",,,,,,"MET072METAR FACT 202200Z 16005KT 9999 BKN024 18/17 Q1015 TEMPO 2000 BR BKN005=",
"68816099999","2022-02-20T23:00:00","4","-33.964806","18.601667","46.02","CAPE TOWN INTERNATIONAL, SF","FM-15","99999","V020","140,1,N,0015,1","00914,1,9,N","009999,1,9,9","+0190,1","+0170,1","99999,9",,,,,"02,1,+00488,1,99,9","07,1,+00914,1,99,9",,"9,AGL   ,+99999,+99999","99,99,9,02,1,99,9,00488,1,99,9,99,9",,,"10150,1,99999,9",,,,,,"MET079METAR FACT 202300Z 14003KT 9999 FEW016 BKN030 19/17 Q1015 TEMPO 4000 BR BKN006=",
"68816099999","2022-02-21T00:00:00","4","-33.964806","18.601667","46.02","CAPE TOWN INTERNATIONAL, SF","FM-12","99999","V020","130,1,N,0010,1","99999,9,9,N","020000,1,9,9","+0185,1","+0174,1","10148,1",,,,,"07,1,+00800,1,06,1",,,"9,AGL   ,+99999,+99999","07,99,1,07,1,99,9,00800,1,99,9,99,9","120,M,+0262,1",,"99999,9,10094,1","6,1,008,1,+999,9",,,,"4,99,0015,1,999","SYN08068816 32570 71302 10185 20174 30094 40148 56008 875// 333 10262 91003 555 91014=",
"68816099999","2022-02-21T00:00:00","4","-33.964806","18.601667","46.02","CAPE TOWN INTERNATIONAL, SF","FM-15","99999","V020","999,9,V,0010,1","00823,1,9,N","009999,1,9,9","+0190,1","+0170,1","99999,9",,,,,"04,1,+00396,1,99,9","07,1,+00823,1,99,9",,"9,AGL   ,+99999,+99999","99,99,9,04,1,99,9,00396,1,99,9,99,9",,,"10150,1,99999,9",,,,,,"MET071METAR FACT 210000Z VRB02KT 9999 SCT013 BKN027 19/17 Q1015 TEMPO BKN008=",
"68816099999","2022-02-21T01:00:00","4","-33.964806","18.601667","46.02","CAPE TOWN INTERNATIONAL, SF","FM-15","99999","V020","200,1,N,0015,1","00792,1,9,N","009999,1,9,9","+0190,1","+0160,1","99999,9",,,,,"02,1,+00396,1,99,9","07,1,+00792,1,99,9",,"9,AGL   ,+99999,+99999","99,99,9,02,1,99,9,00396,1,99,9,99,9",,,"10150,1,99999,9",,,,,,"MET064METAR FACT 210100Z 20003KT 9999 FEW013 BKN026 19/16 Q1015 NOSIG=",
"68816099999","2022-02-21T02:00:00","4","-33.964806","18.601667","46.02","CAPE TOWN INTERNATIONAL, SF","FM-15","99999","V020","020,1,N,0010,1","01006,1,C,N","009999,1,9,9","+0190,1","+0170,1","99999,9",,,,,"07,1,+01006,1,99,9",,,"9,AGL   ,+99999,+99999","99,99,9,07,1,99,9,01006,1,99,9,99,9",,,"10140,1,99999,9",,,,,,"MET057METAR FACT 210200Z 02002KT 9999 BKN033 19/17 Q1014 NOSIG=",
"68816099999","2022-02-21T03:00:00","4","-33.964806","18.601667","46.02","CAPE TOWN INTERNATIONAL, SF","FM-15","99999","V020","260,1,N,0021,1","01189,1,9,N","009999,1,9,9","+0190,1","+0170,1","99999,9",,,,,"02,1,+00488,1,99,9","07,1,+01189,1,99,9",,"9,AGL   ,+99999,+99999","99,99,9,02,1,99,9,00488,1,99,9,99,9",,,"10140,1,99999,9",,,,,,"MET064METAR FACT 210300Z 26004KT 9999 FEW016 BKN039 19/17 Q1014 NOSIG=",
"68816099999","2022-02-21T04:00:00","4","-33.964806","18.601667","46.02","CAPE TOWN INTERNATIONAL, SF","FM-15","99999","V020","999,9,V,0005,1","01036,1,9,N","009999,1,9,9","+0190,1","+0160,1","99999,9",,,,,"02,1,+00549,1,99,9","07,1,+01036,1,99,9",,"9,AGL   ,+99999,+99999","99,99,9,02,1,99,9,00549,1,99,9,99,9",,,"10150,1,99999,9",,,,,,"MET064METAR FACT 210400Z VRB01KT 9999 FEW018 BKN034 19/16 Q1015 NOSIG=",
"68816099999","2022-02-21T05:00:00","4","-33.964806","18.601667","46.02","CAPE TOWN INTERNATIONAL, SF","FM-15","99999","V020","999,9,V,0015,1","01219,1,9,N","009999,1,9,9","+0180,1","+0160,1","99999,9",,,,,"02,1,+00914,1,99,9","07,1,+01219,1,99,9",,"9,AGL   ,+99999,+99999","99,99,9,02,1,99,9,00914,1,99,9,99,9",,,"10150,1,99999,9",,,,,,"MET064METAR FACT 210500Z VRB03KT 9999 FEW030 BKN040 18/16 Q1015 NOSIG=",
"68816099999","2022-02-21T06:00:00","4","-33.964806","18.601667","46.02","CAPE TOWN INTERNATIONAL, SF","FM-12","99999","V020","020,1,N,0005,1","99999,9,9,N","055000,1,9,9","+0203,1","+0155,1","10161,1",,,,,"06,1,+00800,1,06,1",,,"9,AGL   ,+99999,+99999","06,99,1,06,1,99,9,00800,1,99,9,99,9","240,N,+0174,1",,"99999,9,10107,1","7,1,003,1,+999,9",,,,"4,99,0026,1,999","SYN08668816 32585 60201 10203 20155 30107 40161 57003 86500 333 20174 91005 555 10262 91011=",
"68816099999","2022-02-21T06:00:00","4","-33.964806","18.601667","46.02","CAPE TOWN INTERNATIONAL, SF","FM-15","99999","V020","999,9,V,0010,1","01219,1,9,N","009999,1,9,9","+0200,1","+0160,1","99999,9",,,,,"02,1,+00914,1,99,9","07,1,+01219,1,99,9",,"9,AGL   ,+99999,+99999","99,99,9,02,1,99,9,00914,1,99,9,99,9",,,"10160,1,99999,9",,,,,,"MET064METAR FACT 210600Z VRB02KT 9999 FEW030 BKN040 20/16 Q1016 NOSIG=",
"68816099999","2022-02-21T07:00:00","4","-33.964806","18.601667","46.02","CAPE TOWN INTERNATIONAL, SF","FM-15","99999","V020","999,9,V,0010,1","01219,1,9,N","009999,1,9,9","+0210,1","+0140,1","99999,9",,,,,"02,1,+00610,1,99,9","07,1,+01219,1,99,9",,"9,AGL   ,+99999,+99999","99,99,9,02,1,99,9,00610,1,99,9,99,9",,,"10160,1,99999,9",,,,,,"MET064METAR FACT 210700Z VRB02KT 9999 FEW020 BKN040 21/14 Q1016 NOSIG=",
"68816099999","2022-02-21T08:00:00","4","-33.964806","18.601667","46.02","CAPE TOWN INTERNATIONAL, SF","FM-15","99999","V020","320,1,V,0021,1","00914,1,C,N","009999,1,9,9","+0230,1","+0130,1","99999,9",,,,,"07,1,+00914,1,99,9",,,"9,AGL   ,+99999,+99999","99,99,9,07,1,99,9,00914,1,99,9,99,9",,,"10160,1,99999,9",,,,,,"MET065METAR FACT 210800Z 32004KT 250V030 9999 BKN030 23/13 Q1016 NOSIG=",
"68816099999","2022-02-21T09:00:00","4","-33.964806","18.601667","46.02","CAPE TOWN INTERNATIONAL, SF","FM-15","99999","V020","310,1,V,0041,1","99999,9,9,N","009999,1,9,9","+0230,1","+0140,1","99999,9",,,,,"04,1,+01219,1,99,9",,,"9,AGL   ,+99999,+99999","99,99,9,04,1,99,9,01219,1,99,9,99,9",,,"10160,1,99999,9",,,,,,"MET065METAR FACT 210900Z 31008KT 280V340 9999 SCT040 23/14 Q1016 NOSIG=",
"68816099999","2022-02-21T10:00:00","4","-33.964806","18.601667","46.02","CAPE TOWN INTERNATIONAL, SF","FM-15","99999","V020","320,1,V,0036,1","99999,9,9,N","009999,1,9,9","+0240,1","+0140,1","99999,9",,,,,"02,1,+01067,1,99,9",,,"9,AGL   ,+99999,+99999","99,99,9,02,1,99,9,01067,1,99,9,99,9",,,"10160,1,99999,9",,,,,,"MET065METAR FACT 211000Z 32007KT 260V020 9999 FEW035 24/14 Q1016 NOSIG=",
"68816099999","2022-02-21T11:00:00","4","-33.964806","18.601667","46.02","CAPE TOWN INTERNATIONAL, SF","FM-15","99999","V020","320,1,V,0046,1","99999,9,9,N","009999,1,9,9","+0240,1","+0140,1","99999,9",,,,,"02,1,+01067,1,99,9",,,"9,AGL   ,+99999,+99999","99,99,9,02,1,99,9,01067,1,99,9,99,9",,,"10150,1,99999,9",,,,,,"MET065METAR FACT 211100Z 32009KT 270V360 9999 FEW035 24/14 Q1015 NOSIG=",
"68816099999","2022-02-21T12:00:00","4","-33.964806","18.601667","46.02","CAPE TOWN INTERNATIONAL, SF","FM-12","99999","V020","330,1,N,0046,1","22000,1,9,N","030000,1,9,9","+0250,1","+0142,1","10155,1",,,,,"02,1,+01250,1,06,1",,,"9,AGL   ,+99999,+99999","02,99,1,02,1,99,9,01250,1,99,9,99,9","240,M,+0260,1","240,N,+0203,1","99999,9,10102,1","7,1,011,1,+999,9",,,,"4,99,0051,1,999","SYN08668816 32680 23309 10250 20142 30102 40155 57011 82500 333 10260 20203 91010 555 91015=",
"68816099999","2022-02-21T12:00:00","4","-33.964806","18.601667","46.02","CAPE TOWN INTERNATIONAL, SF","FM-15","99999","V020","330,1,V,0051,1","99999,9,9,N","009999,1,9,9","+0250,1","+0140,1","99999,9",,,,,"02,1,+01067,1,99,9",,,"9,AGL   ,+99999,+99999","99,99,9,02,1,99,9,01067,1,99,9,99,9",,,"10150,1,99999,9",,,,,,"MET065METAR FACT 211200Z 33010KT 280V010 9999 FEW035 25/14 Q1015 NOSIG=",
"68816099999","2022-02-21T13:00:00","4","-33.964806","18.601667","46.02","CAPE TOWN INTERNATIONAL, SF","FM-15","99999","V020","310,1,V,0041,1","99999,9,9,N","009999,1,9,9","+0250,1","+0150,1","99999,9",,,,,"02,1,+01067,1,99,9",,,"9,AGL   ,+99999,+99999","99,99,9,02,1,99,9,01067,1,99,9,99,9",,,"10150,1,99999,9",,,,,,"MET065METAR FACT 211300Z 31008KT 280V350 9999 FEW035 25/15 Q1015 NOSIG=",
"68816099999","2022-02-21T14:00:00","4","-33.964806","18.601667","46.02","CAPE TOWN INTERNATIONAL, SF","FM-15","99999","V020","320,1,N,0057,1","99999,9,9,N","009999,1,9,9","+0250,1","+0150,1","99999,9",,,,,"04,1,+01128,1,99,9",,,"9,AGL   ,+99999,+99999","99,99,9,04,1,99,9,01128,1,99,9,99,9",,,"10140,1,99999,9",,,,,,"MET057METAR FACT 211400Z 32011KT 9999 SCT037 25/15 Q1014 NOSIG=",
"68816099999","2022-02-21T15:00:00","4","-33.964806","18.601667","46.02","CAPE TOWN INTERNATIONAL, SF","FM-15","99999","V020","240,1,V,0046,1","99999,9,9,N","009999,1,9,9","+0240,1","+0150,1","99999,9",,,,,"04,1,+01097,1,99,9",,,"9,AGL   ,+99999,+99999","99,99,9,04,1,99,9,01097,1,99,9,99,9",,,"10140,1,99999,9",,,,,,"MET065METAR FACT 211500Z 24009KT 200V290 9999 SCT036 24/15 Q1014 NOSIG=",
"68816099999","2022-02-21T16:00:00","4","-33.964806","18.601667","46.02","CAPE TOWN INTERNATIONAL, SF","FM-15","99999","V020","190,1,N,0057,1","99999,9,9,N","009999,1,9,9","+0240,1","+0150,1","99999,9",,,,,"02,1,+01067,1,99,9",,,"9,AGL   ,+99999,+99999","99,99,9,02,1,99,9,01067,1,99,9,99,9",,,"10140,1,99999,9",,,,,,"MET057METAR FACT 211600Z 19011KT 9999 FEW035 24/15 Q1014 NOSIG=",
"68816099999","2022-02-21T17:00:00","4","-33.964806","18.601667","46.02","CAPE TOWN INTERNATIONAL, SF","FM-15","99999","V020","180,1,N,0072,1","99999,9,9,N","009999,1,9,9","+0210,1","+0150,1","99999,9",,,,,"02,1,+01158,1,99,9",,,"9,AGL   ,+99999,+99999","99,99,9,02,1,99,9,01158,1,99,9,99,9",,,"10150,1,99999,9",,,,,,"MET057METAR FACT 211700Z 18014KT 9999 FEW038 21/15 Q1015 NOSIG=",
"68816099999","2022-02-21T18:00:00","4","-33.964806","18.601667","46.02","CAPE TOWN INTERNATIONAL, SF","FM-15","99999","V020","160,1,N,0051,1","99999,9,9,N","009999,1,9,9","+0190,1","+0150,1","99999,9",,,,,"02,1,+00914,1,99,9",,,"9,AGL   ,+99999,+99999","99,99,9,02,1,99,9,00914,1,99,9,99,9",,,"10150,1,99999,9",,,,,,"MET057METAR FACT 211800Z 16010KT 9999 FEW030 19/15 Q1015 NOSIG=",
"68816099999","2022-02-21T19:00:00","4","-33.964806","18.601667","46.02","CAPE TOWN INTERNATIONAL, SF","FM-15","99999","V020","150,1,N,0031,1","99999,9,9,Y","009900,5,9,9","+0180,1","+0150,1","99999,9",,,,,,,,,,,,"10160,1,99999,9",,,,,,"MET051METAR FACT 211900Z 15006KT CAVOK 18/15 Q1016 NOSIG=",
"68816099999","2022-02-21T20:00:00","4","-33.964806","18.601667","46.02","CAPE TOWN INTERNATIONAL, SF","FM-15","99999","V020","150,1,N,0026,1","99999,9,9,Y","009900,5,9,9","+0170,1","+0150,1","99999,9",,,,,,,,,,,,"10160,1,99999,9",,,,,,"MET051METAR FACT 212000Z 15005KT CAVOK 17/15 Q1016 NOSIG=",
"68816099999","2022-02-21T21:00:00","4","-33.964806","18.601667","46.02","CAPE TOWN INTERNATIONAL, SF","FM-15","99999","V020","190,1,N,0031,1","99999,9,9,Y","009900,5,9,9","+0180,1","+0150,1","99999,9",,,,,,,,,,,,"10160,1,99999,9",,,,,,"MET051METAR FACT 212100Z 19006KT CAVOK 18/15 Q1016 NOSIG=",
"68816099999","2022-02-21T22:00:00","4","-33.964806","18.601667","46.02","CAPE TOWN INTERNATIONAL, SF","FM-15","99999","V020","190,1,N,0036,1","99999,9,9,Y","009900,5,9,9","+0180,1","+0150,1","99999,9",,,,,,,,,,,,"10160,1,99999,9",,,,,,"MET051METAR FACT 212200Z 19007KT CAVOK 18/15 Q1016 NOSIG=",
"68816099999","2022-02-21T23:00:00","4","-33.964806","18.601667","46.02","CAPE TOWN INTERNATIONAL, SF","FM-15","99999","V020","190,1,N,0026,1","99999,9,9,Y","009900,5,9,9","+0170,1","+0150,1","99999,9",,,,,,,,,,,,"10160,1,99999,9",,,,,,"MET051METAR FACT 212300Z 19005KT CAVOK 17/15 Q1016 NOSIG=",
"68816099999","2022-02-22T00:00:00","4","-33.964806","18.601667","46.02","CAPE TOWN INTERNATIONAL, SF","FM-12","99999","V020","200,1,N,0036,1","99999,9,9,N","045000,1,9,9","+0173,1","+0144,1","10155,1",,,,,,,,,,,,"99999,9,10100,1","2,1,008,1,+999,9",,,,"4,99,0026,1,999","SYN06868816 32983 02007 10173 20144 30100 40155 52008 333 91005 555 91015=",
"68816099999","2022-02-22T00:00:00","4","-33.964806","18.601667","46.02","CAPE TOWN INTERNATIONAL, SF","FM-15","99999","V020","200,1,N,0031,1","99999,9,9,Y","009900,5,9,9","+0170,1","+0140,1","99999,9",,,,,,,,,,,,"10150,1,99999,9",,,,,,"MET051METAR FACT 220000Z 20006KT CAVOK 17/14 Q1015 NOSIG=",
"68816099999","2022-02-22T01:00:00","4","-33.964806","18.601667","46.02","CAPE TOWN INTERNATIONAL, SF","FM-15","99999","V020","220,1,N,0041,1","99999,9,9,Y","009900,5,9,9","+0170,1","+0150,1","99999,9",,,,,,,,,,,,"10150,1,99999,9",,,,,,"MET051METAR FACT 220100Z 22008KT CAVOK 17/15 Q1015 NOSIG=",
"68816099999","2022-02-22T03:00:00","4","-33.964806","18.601667","46.02","CAPE TOWN INTERNATIONAL, SF","FM-15","99999","V020","220,1,N,0036,1","99999,9,9,Y","009900,5,9,9","+0170,1","+0140,1","99999,9",,,,,,,,,,,,"10140,1,99999,9",,,,,,"MET051METAR FACT 220300Z 22007KT CAVOK 17/14 Q1014 NOSIG=",
"68816099999","2022-02-22T04:00:00","4","-33.964806","18.601667","46.02","CAPE TOWN INTERNATIONAL, SF","FM-15","99999","V020","220,1,N,0036,1","99999,9,9,Y","009900,5,9,9","+0160,1","+0140,1","99999,9",,,,,,,,,,,,"10140,1,99999,9",,,,,,"MET051METAR FACT 220400Z 22007KT CAVOK 16/14 Q1014 NOSIG=",
"68816099999","2022-02-22T05:00:00","4","-33.964806","18.601667","46.02","CAPE TOWN INTERNATIONAL, SF","FM-15","99999","V020","210,1,N,0036,1","99999,9,9,Y","009900,5,9,9","+0170,1","+0150,1","99999,9",,,,,,,,,,,,"10150,1,99999,9",,,,,,"MET051METAR FACT 220500Z 21007KT CAVOK 17/15 Q1015 NOSIG=",
"68816099999","2022-02-22T06:00:00","4","-33.964806","18.601667","46.02","CAPE TOWN INTERNATIONAL, SF","FM-12","99999","V020","200,1,N,0036,1","99999,9,9,N","030000,1,9,9","+0184,1","+0153,1","10156,1",,,,,,,,,,"240,N,+0162,1",,"99999,9,10101,1","2,1,008,1,+999,9",,,,"4,99,0051,1,999","SYN08068816 32980 02007 10184 20153 30101 40156 52008 333 20162 91010 555 10259 91015=",
"68816099999","2022-02-22T06:00:00","4","-33.964806","18.601667","46.02","CAPE TOWN INTERNATIONAL, SF","FM-15","99999","V020","210,1,N,0036,1","99999,9,9,Y","009900,5,9,9","+0180,1","+0150,1","99999,9",,,,,,,,,,,,"10150,1,99999,9",,,,,,"MET051METAR FACT 220600Z 21007KT CAVOK 18/15 Q1015 NOSIG=",
"68816099999","2022-02-22T06:32:00","4","-33.964806","18.601667","46.02","CAPE TOWN INTERNATIONAL, SF","FM-16","99999","V020","190,1,N,0051,1","99999,9,9,Y","009900,5,9,9","+0200,1","+0140,1","99999,9",,,,,,,,,,,,"10150,1,99999,9",,,,,,"MET051SPECI FACT 220632Z 19010KT CAVOK 20/14 Q1015 NOSIG=",
"68816099999","2022-02-22T07:00:00","4","-33.964806","18.601667","46.02","CAPE TOWN INTERNATIONAL, SF","FM-15","99999","V020","200,1,N,0046,1","99999,9,9,Y","009900,5,9,9","+0210,1","+0140,1","99999,9",,,,,,,,,,,,"10150,1,99999,9",,,,,,"MET051METAR FACT 220700Z 20009KT CAVOK 21/14 Q1015 NOSIG=",
"68816099999","2022-02-22T08:00:00","4","-33.964806","18.601667","46.02","CAPE TOWN INTERNATIONAL, SF","FM-15","99999","V020","200,1,N,0051,1","99999,9,9,Y","009900,5,9,9","+0210,1","+0130,1","99999,9",,,,,,,,,,,,"10150,1,99999,9",,,,,,"MET051METAR FACT 220800Z 20010KT CAVOK 21/13 Q1015 NOSIG=",
"68816099999","2022-02-22T09:00:00","4","-33.964806","18.601667","46.02","CAPE TOWN INTERNATIONAL, SF","FM-15","99999","V020","190,1,N,0062,1","99999,9,9,Y","009900,5,9,9","+0230,1","+0130,1","99999,9",,,,,,,,,,,,"10150,1,99999,9",,,,,,"MET051METAR FACT 220900Z 19012KT CAVOK 23/13 Q1015 NOSIG=",
"68816099999","2022-02-22T10:00:00","4","-33.964806","18.601667","46.02","CAPE TOWN INTERNATIONAL, SF","FM-15","99999","V020","180,1,N,0051,1","99999,9,9,Y","009900,5,9,9","+0230,1","+0130,1","99999,9",,,,,,,,,,,,"10150,1,99999,9",,,,,,"MET051METAR FACT 221000Z 18010KT CAVOK 23/13 Q1015 NOSIG=",
"68816099999","2022-02-22T11:00:00","4","-33.964806","18.601667","46.02","CAPE TOWN INTERNATIONAL, SF","FM-15","99999","V020","170,1,V,0051,1","99999,9,9,Y","009900,5,9,9","+0240,1","+0120,1","99999,9",,,,,,,,,,,,"10150,1,99999,9",,,,,,"MET059METAR FACT 221100Z 17010KT 140V210 CAVOK 24/12 Q1015 NOSIG=",
"68816099999","2022-02-22T12:00:00","4","-33.964806","18.601667","46.02","CAPE TOWN INTERNATIONAL, SF","FM-12","99999","V020","180,1,N,0057,1","99999,9,9,N","070001,1,9,9","+0248,1","+0123,1","10148,1",,,,,,,,,,"240,M,+0246,1","240,N,+0186,1","99999,9,10095,1","9,9,001,1,+999,9",,,,"4,99,0077,1,999","SYN08068816 32989 01811 10248 20123 30095 40148 50001 333 10246 20186 91015 555 91014=",
"68816099999","2022-02-22T12:00:00","4","-33.964806","18.601667","46.02","CAPE TOWN INTERNATIONAL, SF","FM-15","99999","V020","180,1,V,0057,1","99999,9,9,Y","009900,5,9,9","+0250,1","+0120,1","99999,9",,,,,,,,,,,,"10150,1,99999,9",,,,,,"MET059METAR FACT 221200Z 18011KT 150V210 CAVOK 25/12 Q1015 NOSIG=",
"68816099999","2022-02-22T13:00:00","4","-33.964806","18.601667","46.02","CAPE TOWN INTERNATIONAL, SF","FM-15","99999","V020","160,1,N,0077,1","99999,9,9,Y","009900,5,9,9","+0240,1","+0130,1","99999,9",,,,,,,,,,,,"10140,1,99999,9",,,,,,"MET051METAR FACT 221300Z 16015KT CAVOK 24/13 Q1014 NOSIG=",
"68816099999","2022-02-22T14:00:00","4","-33.964806","18.601667","46.02","CAPE TOWN INTERNATIONAL, SF","FM-15","99999","V020","170,1,N,0077,1","99999,9,9,Y","009900,5,9,9","+0240,1","+0130,1","99999,9",,,,,,,,,,,,"10140,1,99999,9",,,,,,"MET051METAR FACT 221400Z 17015KT CAVOK 24/13 Q1014 NOSIG=",
"68816099999","2022-02-22T15:00:00","4","-33.964806","18.601667","46.02","CAPE TOWN INTERNATIONAL, SF","FM-12","99999","V020","170,1,N,0088,1","99999,9,9,N","070001,1,9,9","+0235,1","+0139,1","10141,1",,,,,,,,,,"240,M,+0258,1","240,N,+0235,1","99999,9,10087,1","9,9,001,1,+999,9",,,,"4,99,0098,1,999","SYN07068816 42989 01717 10235 20139 30087 40141 50001 333 10258 20235 91019=",
"68816099999","2022-02-22T15:00:00","4","-33.964806","18.601667","46.02","CAPE TOWN INTERNATIONAL, SF","FM-15","99999","V020","170,1,N,0088,1","99999,9,9,Y","009900,5,9,9","+0240,1","+0140,1","99999,9",,,,,,,,,,,,"10140,1,99999,9",,,,,,"MET051METAR FACT 221500Z 17017KT CAVOK 24/14 Q1014 NOSIG=",
"68816099999","2022-02-22T16:00:00","4","-33.964806","18.601667","46.02","CAPE TOWN INTERNATIONAL, SF","FM-15","99999","V020","170,1,N,0088,1","99999,9,9,Y","009900,5,9,9","+0230,1","+0140,1","99999,9",,,,,,,,,,,,"10140,1,99999,9",,,,,,"MET051METAR FACT 221600Z 17017KT CAVOK 23/14 Q1014 NOSIG=",
"68816099999","2022-02-22T17:00:00","4","-33.964806","18.601667","46.02","CAPE TOWN INTERNATIONAL, SF","FM-15","99999","V020","180,1,N,0082,1","99999,9,9,Y","009900,5,9,9","+0210,1","+0150,1","99999,9",,,,,,,,,,,,"10140,1,99999,9",,,,,,"MET051METAR FACT 221700Z 18016KT CAVOK 21/15 Q1014 NOSIG=",
"68816099999","2022-02-22T18:00:00","4","-33.964806","18.601667","46.02","CAPE TOWN INTERNATIONAL, SF","FM-12","99999","V020","190,1,N,0062,1","99999,9,9,N","070001,1,9,9","+0200,1","+0158,1","10145,1",,,,,,,,,,"120,M,+0258,1","120,N,+0200,1","99999,9,10090,1","9,9,001,1,+999,9",,,,"4,99,0077,1,999","SYN08068816 32989 01912 10200 20158 30090 40145 50001 333 10258 20200 91015 555 91014=",
"68816099999","2022-02-22T18:00:00","4","-33.964806","18.601667","46.02","CAPE TOWN INTERNATIONAL, SF","FM-15","99999","V020","190,1,N,0077,1","99999,9,9,Y","009900,5,9,9","+0200,1","+0160,1","99999,9",,,,,,,,,,,,"10140,1,99999,9",,,,,,"MET051METAR FACT 221800Z 19015KT CAVOK 20/16 Q1014 NOSIG=",
"68816099999","2022-02-22T19:00:00","4","-33.964806","18.601667","46.02","CAPE TOWN INTERNATIONAL, SF","FM-15","99999","V020","190,1,N,0062,1","99999,9,9,Y","009900,5,9,9","+0200,1","+0160,1","99999,9",,,,,,,,,,,,"10140,1,99999,9",,,,,,"MET051METAR FACT 221900Z 19012KT CAVOK 20/16 Q1014 NOSIG=",
"68816099999","2022-02-22T20:00:00","4","-33.964806","18.601667","46.02","CAPE TOWN INTERNATIONAL, SF","FM-15","99999","V020","200,1,N,0057,1","99999,9,9,Y","009900,5,9,9","+0190,1","+0160,1","99999,9",,,,,,,,,,,,"10140,1,99999,9",,,,,,"MET051METAR FACT 222000Z 20011KT CAVOK 19/16 Q1014 NOSIG=",
"68816099999","2022-02-22T21:00:00","4","-33.964806","18.601667","46.02","CAPE TOWN INTERNATIONAL, SF","FM-15","99999","V020","220,1,N,0051,1","99999,9,9,Y","009900,5,9,9","+0190,1","+0150,1","99999,9",,,,,,,,,,,,"10140,1,99999,9",,,,,,"MET051METAR FACT 222100Z 22010KT CAVOK 19/15 Q1014 NOSIG=",
"68816099999","2022-02-22T22:00:00","4","-33.964806","18.601667","46.02","CAPE TOWN INTERNATIONAL, SF","FM-15","99999","V020","220,1,N,0062,1","99999,9,9,Y","009900,5,9,9","+0180,1","+0160,1","99999,9",,,,,,,,,,,,"10140,1,99999,9",,,,,,"MET051METAR FACT 222200Z 22012KT CAVOK 18/16 Q1014 NOSIG=",
"68816099999","2022-02-22T23:00:00","4","-33.964806","18.601667","46.02","CAPE TOWN INTERNATIONAL, SF","FM-15","99999","V020","210,1,N,0046,1","99999,9,9,Y","009900,5,9,9","+0180,1","+0160,1","99999,9",,,,,,,,,,,,"10130,1,99999,9",,,,,,"MET051METAR FACT 222300Z 21009KT CAVOK 18/16 Q1013 NOSIG=",
"68816099999","2022-02-23T00:00:00","4","-33.964806","18.601667","46.02","CAPE TOWN INTERNATIONAL, SF","FM-12","99999","V020","220,1,N,0046,1","99999,9,9,N","030000,1,9,9","+0178,1","+0156,1","10136,1",,,,,,,,,,"120,M,+0258,1",,"99999,9,10082,1","9,9,001,1,+999,9",,,,"4,99,0077,1,999","SYN07468816 32980 02209 10178 20156 30082 40136 50001 333 10258 91015 555 91013=",
"68816099999","2022-02-23T00:00:00","4","-33.964806","18.601667","46.02","CAPE TOWN INTERNATIONAL, SF","FM-15","99999","V020","220,1,N,0046,1","99999,9,9,Y","009900,5,9,9","+0180,1","+0160,1","99999,9",,,,,,,,,,,,"10130,1,99999,9",,,,,,"MET051METAR FACT 230000Z 22009KT CAVOK 18/16 Q1013 NOSIG=",
"68816099999","2022-02-23T01:00:00","4","-33.964806","18.601667","46.02","CAPE TOWN INTERNATIONAL, SF","FM-15","99999","V020","210,1,N,0041,1","99999,9,9,Y","009900,5,9,9","+0170,1","+0150,1","99999,9",,,,,,,,,,,,"10130,1,99999,9",,,,,,"MET051METAR FACT 230100Z 21008KT CAVOK 17/15 Q1013 NOSIG=",
"68816099999","2022-02-23T02:00:00","4","-33.964806","18.601667","46.02","CAPE TOWN INTERNATIONAL, SF","FM-15","99999","V020","210,1,N,0057,1","99999,9,9,Y","009900,5,9,9","+0170,1","+0150,1","99999,9",,,,,,,,,,,,"10120,1,99999,9",,,,,,"MET051METAR FACT 230200Z 21011KT CAVOK 17/15 Q1012 NOSIG=",
"68816099999","2022-02-23T03:00:00","4","-33.964806","18.601667","46.02","CAPE TOWN INTERNATIONAL, SF","FM-15","99999","V020","220,1,N,0036,1","99999,9,9,Y","009900,5,9,9","+0170,1","+0150,1","99999,9",,,,,,,,,,,,"10120,1,99999,9",,,,,,"MET051METAR FACT 230300Z 22007KT CAVOK 17/15 Q1012 NOSIG=",
"68816099999","2022-02-23T04:00:00","4","-33.964806","18.601667","46.02","CAPE TOWN INTERNATIONAL, SF","FM-15","99999","V020","220,1,N,0051,1","99999,9,9,Y","009900,5,9,9","+0170,1","+0160,1","99999,9",,,,,,,,,,,,"10120,1,99999,9",,,,,,"MET051METAR FACT 230400Z 22010KT CAVOK 17/16 Q1012 NOSIG=",
"68816099999","2022-02-23T05:00:00","4","-33.964806","18.601667","46.02","CAPE TOWN INTERNATIONAL, SF","FM-15","99999","V020","220,1,N,0041,1","99999,9,9,Y","009900,5,9,9","+0170,1","+0160,1","99999,9",,,,,,,,,,,,"10130,1,99999,9",,,,,,"MET051METAR FACT 230500Z 22008KT CAVOK 17/16 Q1013 NOSIG=",
"68816099999","2022-02-23T06:00:00","4","-33.964806","18.601667","46.02","CAPE TOWN INTERNATIONAL, SF","FM-12","99999","V020","220,1,N,0046,1","99999,9,9,N","030000,1,9,9","+0185,1","+0160,1","10138,1",,,,,,,,,,"240,N,+0168,1",,"99999,9,10084,1","2,1,014,1,+999,9",,,,"4,99,0041,1,999","SYN08068816 32980 02209 10185 20160 30084 40138 52014 333 20168 91008 555 10258 91013=",
"68816099999","2022-02-23T06:00:00","4","-33.964806","18.601667","46.02","CAPE TOWN INTERNATIONAL, SF","FM-15","99999","V020","210,1,N,0046,1","99999,9,9,Y","009900,5,9,9","+0180,1","+0160,1","99999,9",,,,,,,,,,,,"10130,1,99999,9",,,,,,"MET051METAR FACT 230600Z 21009KT CAVOK 18/16 Q1013 NOSIG=",
"68816099999","2022-02-23T07:00:00","4","-33.964806","18.601667","46.02","CAPE TOWN INTERNATIONAL, SF","FM-15","99999","V020","200,1,N,0051,1","99999,9,9,Y","009900,5,9,9","+0200,1","+0160,1","99999,9",,,,,,,,,,,,"10140,1,99999,9",,,,,,"MET051METAR FACT 230700Z 20010KT CAVOK 20/16 Q1014 NOSIG=",
"68816099999","2022-02-23T08:00:00","4","-33.964806","18.601667","46.02","CAPE TOWN INTERNATIONAL, SF","FM-15","99999","V020","170,1,V,0051,1","99999,9,9,Y","009900,5,9,9","+0220,1","+0160,1","99999,9",,,,,,,,,,,,"10150,1,99999,9",,,,,,"MET059METAR FACT 230800Z 17010KT 160V220 CAVOK 22/16 Q1015 NOSIG=",
"68816099999","2022-02-23T09:00:00","4","-33.964806","18.601667","46.02","CAPE TOWN INTERNATIONAL, SF","FM-15","99999","V020","180,1,V,0057,1","99999,9,9,Y","009900,5,9,9","+0230,1","+0160,1","99999,9",,,,,,,,,,,,"10140,1,99999,9",,,,,,"MET059METAR FACT 230900Z 18011KT 140V200 CAVOK 23/16 Q1014 NOSIG=",
"68816099999","2022-02-23T10:00:00","4","-33.964806","18.601667","46.02","CAPE TOWN INTERNATIONAL, SF","FM-15","99999","V020","220,1,N,0077,1","99999,9,9,Y","009900,5,9,9","+0240,1","+0160,1","99999,9",,,,,,,,,,,,"10150,1,99999,9",,,,,,"MET051METAR FACT 231000Z 22015KT CAVOK 24/16 Q1015 NOSIG=",
"68816099999","2022-02-23T11:00:00","4","-33.964806","18.601667","46.02","CAPE TOWN INTERNATIONAL, SF","FM-15","99999","V020","180,1,N,0077,1","99999,9,9,N","009999,1,9,9","+0240,1","+0160,1","99999,9",,,,,"02,1,+00610,1,99,9",,,"9,AGL   ,+99999,+99999","99,99,9,02,1,99,9,00610,1,99,9,99,9",,,"10150,1,99999,9",,,,,,"MET061METAR COR FACT 231100Z 18015KT 9999 FEW020 24/16 Q1015 NOSIG=",
"68816099999","2022-02-23T12:00:00","4","-33.964806","18.601667","46.02","CAPE TOWN INTERNATIONAL, SF","FM-12","99999","V020","180,1,N,0098,1","22000,1,9,N","030000,1,9,9","+0246,1","+0164,1","10160,1",,,,,"01,1,+01250,1,06,1",,,"9,AGL   ,+99999,+99999","01,99,1,01,1,99,9,01250,1,99,9,99,9","240,M,+0255,1","240,N,+0187,1","99999,9,10106,1","9,9,007,1,+999,9",,,,"4,99,0108,1,999","SYN08668816 32680 11819 10246 20164 30106 40160 50007 81500 333 10255 20187 91021 555 91016=",
"68816099999","2022-02-23T12:00:00","4","-33.964806","18.601667","46.02","CAPE TOWN INTERNATIONAL, SF","FM-15","99999","V020","180,1,N,0098,1","99999,9,9,N","009999,1,9,9","+0250,1","+0160,1","99999,9",,,,,"02,1,+01067,1,99,9",,,"9,AGL   ,+99999,+99999","99,99,9,02,1,99,9,01067,1,99,9,99,9",,,"10160,1,99999,9",,,,,,"MET057METAR FACT 231200Z 18019KT 9999 FEW035 25/16 Q1016 NOSIG=",
"68816099999","2022-02-23T13:00:00","4","-33.964806","18.601667","46.02","CAPE TOWN INTERNATIONAL, SF","FM-15","99999","V020","170,1,N,0093,1","99999,9,9,N","009999,1,9,9","+0250,1","+0160,1","99999,9",,,,,"02,1,+01067,1,99,9",,,"9,AGL   ,+99999,+99999","99,99,9,02,1,99,9,01067,1,99,9,99,9",,,"10160,1,99999,9",,,,,,"MET057METAR FACT 231300Z 17018KT 9999 FEW035 25/16 Q1016 NOSIG=",
"68816099999","2022-02-23T14:00:00","4","-33.964806","18.601667","46.02","CAPE TOWN INTERNATIONAL, SF","FM-15","99999","V020","180,1,N,0072,1","99999,9,9,Y","009900,5,9,9","+0250,1","+0160,1","99999,9",,,,,,,,,,,,"10150,1,99999,9",,,,,,"MET051METAR FACT 231400Z 18014KT CAVOK 25/16 Q1015 NOSIG=",
"68816099999","2022-02-23T15:00:00","4","-33.964806","18.601667","46.02","CAPE TOWN INTERNATIONAL, SF","FM-12","99999","V020","190,1,N,0088,1","22000,1,9,N","070001,1,9,9","+0244,1","+0158,1","10152,1",,,,,,,,"9,AGL   ,+99999,+99999","01,99,1,99,9,99,9,99999,9,99,9,99,9","240,M,+0256,1","240,N,+0244,1","99999,9,10099,1","9,9,007,1,+999,9",,,,"4,99,0103,1,999","SYN07068816 42989 11917 10244 20158 30099 40152 50007 333 10256 20244 91020=",
"68816099999","2022-02-23T15:00:00","4","-33.964806","18.601667","46.02","CAPE TOWN INTERNATIONAL, SF","FM-15","99999","V020","190,1,N,0082,1","99999,9,9,Y","009900,5,9,9","+0240,1","+0160,1","99999,9",,,,,,,,,,,,"10150,1,99999,9",,,,,,"MET051METAR FACT 231500Z 19016KT CAVOK 24/16 Q1015 NOSIG=",
"68816099999","2022-02-23T16:00:00","4","-33.964806","18.601667","46.02","CAPE TOWN INTERNATIONAL, SF","FM-15","99999","V020","180,1,N,0082,1","99999,9,9,Y","009900,5,9,9","+0230,1","+0170,1","99999,9",,,,,,,,,,,,"10150,1,99999,9",,,,,,"MET051METAR FACT 231600Z 18016KT CAVOK 23/17 Q1015 NOSIG=",
"68816099999","2022-02-23T17:00:00","4","-33.964806","18.601667","46.02","CAPE TOWN INTERNATIONAL, SF","FM-15","99999","V020","190,1,N,0088,1","99999,9,9,Y","009900,5,9,9","+0220,1","+0170,1","99999,9",,,,,,,,,,,,"10160,1,99999,9",,,,,,"MET051METAR FACT 231700Z 19017KT CAVOK 22/17 Q1016 NOSIG=",
"68816099999","2022-02-23T18:00:00","4","-33.964806","18.601667","46.02","CAPE TOWN INTERNATIONAL, SF","FM-12","99999","V020","190,1,N,0072,1","22000,1,9,N","070000,1,9,9","+0205,1","+0171,1","10165,1",,,,,,,,"9,AGL   ,+99999,+99999","01,99,1,99,9,99,9,99999,9,99,9,99,9","120,M,+0256,1","120,N,+0205,1","99999,9,10111,1","9,9,007,1,+999,9",,,,"4,99,0088,1,999","SYN08068816 32988 11914 10205 20171 30111 40165 50007 333 10256 20205 91017 555 91019=",
"68816099999","2022-02-23T18:00:00","4","-33.964806","18.601667","46.02","CAPE TOWN INTERNATIONAL, SF","FM-15","99999","V020","190,1,N,0072,1","99999,9,9,Y","009900,5,9,9","+0210,1","+0170,1","99999,9",,,,,,,,,,,,"10160,1,99999,9",,,,,,"MET051METAR FACT 231800Z 19014KT CAVOK 21/17 Q1016 NOSIG=",
"68816099999","2022-02-23T19:00:00","4","-33.964806","18.601667","46.02","CAPE TOWN INTERNATIONAL, SF","FM-15","99999","V020","180,1,N,0072,1","99999,9,9,Y","009900,5,9,9","+0200,1","+0170,1","99999,9",,,,,,,,,,,,"10170,1,99999,9",,,,,,"MET051METAR FACT 231900Z 18014KT CAVOK 20/17 Q1017 NOSIG=",
"68816099999","2022-02-23T20:00:00","4","-33.964806","18.601667","46.02","CAPE TOWN INTERNATIONAL, SF","FM-15","99999","V020","190,1,N,0072,1","99999,9,9,Y","009900,5,9,9","+0200,1","+0170,1","99999,9",,,,,,,,,,,,"10170,1,99999,9",,,,,,"MET051METAR FACT 232000Z 19014KT CAVOK 20/17 Q1017 NOSIG=",
"68816099999","2022-02-23T21:00:00","4","-33.964806","18.601667","46.02","CAPE TOWN INTERNATIONAL, SF","FM-15","99999","V020","190,1,N,0082,1","99999,9,9,Y","009900,5,9,9","+0200,1","+0170,1","99999,9",,,,,,,,,,,,"10170,1,99999,9",,,,,,"MET051METAR FACT 232100Z 19016KT CAVOK 20/17 Q1017 NOSIG=",
"68816099999","2022-02-23T22:00:00","4","-33.964806","18.601667","46.02","CAPE TOWN INTERNATIONAL, SF","FM-15","99999","V020","200,1,N,0082,1","99999,9,9,Y","009900,5,9,9","+0200,1","+0170,1","99999,9",,,,,,,,,,,,"10160,1,99999,9",,,,,,"MET051METAR FACT 232200Z 20016KT CAVOK 20/17 Q1016 NOSIG=",
"68816099999","2022-02-23T23:00:00","4","-33.964806","18.601667","46.02","CAPE TOWN INTERNATIONAL, SF","FM-15","99999","V020","200,1,N,0067,1","99999,9,9,Y","009900,5,9,9","+0190,1","+0160,1","99999,9",,,,,,,,,,,,"10160,1,99999,9",,,,,,"MET051METAR FACT 232300Z 20013KT CAVOK 19/16 Q1016 NOSIG=",
"68816099999","2022-02-24T00:00:00","4","-33.964806","18.601667","46.02","CAPE TOWN INTERNATIONAL, SF","FM-15","99999","V020","190,1,N,0051,1","99999,9,9,Y","009900,5,9,9","+0190,1","+0160,1","99999,9",,,,,,,,,,,,"10160,1,99999,9",,,,,,"MET051METAR FACT 240000Z 19010KT CAVOK 19/16 Q1016 NOSIG=",
"68816099999","2022-02-24T01:00:00","4","-33.964806","18.601667","46.02","CAPE TOWN INTERNATIONAL, SF","FM-15","99999","V020","230,1,N,0036,1","99999,9,9,Y","009900,5,9,9","+0180,1","+0160,1","99999,9",,,,,,,,,,,,"10150,1,99999,9",,,,,,"MET051METAR FACT 240100Z 23007KT CAVOK 18/16 Q1015 NOSIG=",
"68816099999","2022-02-24T02:00:00","4","-33.964806","18.601667","46.02","CAPE TOWN INTERNATIONAL, SF","FM-15","99999","V020","230,1,N,0046,1","99999,9,9,Y","009900,5,9,9","+0180,1","+0160,1","99999,9",,,,,,,,,,,,"10140,1,99999,9",,,,,,"MET051METAR FACT 240200Z 23009KT CAVOK 18/16 Q1014 NOSIG=",
"68816099999","2022-02-24T03:00:00","4","-33.964806","18.601667","46.02","CAPE TOWN INTERNATIONAL, SF","FM-12","99999","V020","220,1,N,0041,1","99999,9,9,N","030000,1,9,9","+0183,1","+0159,1","10149,1",,,,,,,,,,,,"99999,9,10094,1","7,1,010,1,+999,9",,,,"4,99,0036,1,999","SYN05868816 42980 02208 10183 20159 30094 40149 57010 333 91007=",
"68816099999","2022-02-24T03:00:00","4","-33.964806","18.601667","46.02","CAPE TOWN INTERNATIONAL, SF","FM-15","99999","V020","220,1,N,0046,1","99999,9,9,Y","009900,5,9,9","+0190,1","+0160,1","99999,9",,,,,,,,,,,,"10150,1,99999,9",,,,,,"MET055METAR COR FACT 240300Z 22009KT CAVOK 19/16 Q1015 NOSIG=",
"68816099999","2022-02-24T04:00:00","4","-33.964806","18.601667","46.02","CAPE TOWN INTERNATIONAL, SF","FM-15","99999","V020","240,1,N,0046,1","99999,9,9,Y","009900,5,9,9","+0180,1","+0160,1","99999,9",,,,,,,,,,,,"10140,1,99999,9",,,,,,"MET051METAR FACT 240400Z 24009KT CAVOK 18/16 Q1014 NOSIG=",
"68816099999","2022-02-24T05:00:00","4","-33.964806","18.601667","46.02","CAPE TOWN INTERNATIONAL, SF","FM-15","99999","V020","240,1,N,0036,1","99999,9,9,Y","009900,5,9,9","+0180,1","+0160,1","99999,9",,,,,,,,,,,,"10150,1,99999,9",,,,,,"MET051METAR FACT 240500Z 24007KT CAVOK 18/16 Q1015 NOSIG=",
"68816099999","2022-02-24T06:00:00","4","-33.964806","18.601667","46.02","CAPE TOWN INTERNATIONAL, SF","FM-15","99999","V020","240,1,V,0031,1","99999,9,9,Y","009900,5,9,9","+0190,1","+0160,1","99999,9",,,,,,,,,,,,"10150,1,99999,9",,,,,,"MET059METAR FACT 240600Z 24006KT 150V260 CAVOK 19/16 Q1015 NOSIG=",
"68816099999","2022-02-24T06:46:00","4","-33.964806","18.601667","46.02","CAPE TOWN INTERNATIONAL, SF","FM-16","99999","V020","200,1,V,0041,1","99999,9,9,Y","009900,5,9,9","+0220,1","+0150,1","99999,9",,,,,,,,,,,,"10160,1,99999,9",,,,,,"MET059SPECI FACT 240646Z 20008KT 160V230 CAVOK 22/15 Q1016 NOSIG=",
"68816099999","2022-02-24T07:00:00","4","-33.964806","18.601667","46.02","CAPE TOWN INTERNATIONAL, SF","FM-15","99999","V020","180,1,V,0041,1","99999,9,9,Y","009900,5,9,9","+0220,1","+0150,1","99999,9",,,,,,,,,,,,"10160,1,99999,9",,,,,,"MET059METAR FACT 240700Z 18008KT 160V230 CAVOK 22/15 Q1016 NOSIG=",
"68816099999","2022-02-24T08:00:00","4","-33.964806","18.601667","46.02","CAPE TOWN INTERNATIONAL, SF","FM-15","99999","V020","220,1,N,0041,1","99999,9,9,Y","009900,5,9,9","+0230,1","+0150,1","99999,9",,,,,,,,,,,,"10160,1,99999,9",,,,,,"MET051METAR FACT 240800Z 22008KT CAVOK 23/15 Q1016 NOSIG=",
"68816099999","2022-02-24T09:00:00","4","-33.964806","18.601667","46.02","CAPE TOWN INTERNATIONAL, SF","FM-15","99999","V020","230,1,V,0041,1","99999,9,9,Y","009900,5,9,9","+0250,1","+0150,1","99999,9",,,,,,,,,,,,"10160,1,99999,9",,,,,,"MET059METAR FACT 240900Z 23008KT 180V260 CAVOK 25/15 Q1016 NOSIG=",
"68816099999","2022-02-24T10:00:00","4","-33.964806","18.601667","46.02","CAPE TOWN INTERNATIONAL, SF","FM-15","99999","V020","999,9,V,0031,1","99999,9,9,Y","009900,5,9,9","+0260,1","+0150,1","99999,9",,,,,,,,,,,,"10150,1,99999,9",,,,,,"MET051METAR FACT 241000Z VRB06KT CAVOK 26/15 Q1015 NOSIG=",
"68816099999","2022-02-24T11:00:00","4","-33.964806","18.601667","46.02","CAPE TOWN INTERNATIONAL, SF","FM-15","99999","V020","200,1,N,0062,1","99999,9,9,Y","009900,5,9,9","+0270,1","+0160,1","99999,9",,,,,,,,,,,,"10150,1,99999,9",,,,,,"MET051METAR FACT 241100Z 20012KT CAVOK 27/16 Q1015 NOSIG=",
"68816099999","2022-02-24T12:00:00","4","-33.964806","18.601667","46.02","CAPE TOWN INTERNATIONAL, SF","FM-12","99999","V020","200,1,N,0077,1","99999,9,9,N","045000,1,9,9","+0258,1","+0169,1","10149,1",,,,,,,,,,"240,M,+0273,1","240,N,+0192,1","99999,9,10096,1","2,1,009,1,+999,9",,,,"4,99,0098,1,999","SYN08068816 32983 02015 10258 20169 30096 40149 52009 333 10273 20192 91019 555 91014=",
"68816099999","2022-02-24T12:00:00","4","-33.964806","18.601667","46.02","CAPE TOWN INTERNATIONAL, SF","FM-15","99999","V020","200,1,N,0077,1","99999,9,9,Y","009900,5,9,9","+0270,1","+0170,1","99999,9",,,,,,,,,,,,"10150,1,99999,9",,,,,,"MET051METAR FACT 241200Z 20015KT CAVOK 27/17 Q1015 NOSIG=",
"68816099999","2022-02-24T13:00:00","4","-33.964806","18.601667","46.02","CAPE TOWN INTERNATIONAL, SF","FM-15","99999","V020","200,1,N,0093,1","99999,9,9,Y","009900,5,9,9","+0250,1","+0170,1","99999,9",,,,,,,,,,,,"10140,1,99999,9",,,,,,"MET051METAR FACT 241300Z 20018KT CAVOK 25/17 Q1014 NOSIG=",
"68816099999","2022-02-24T14:00:00","4","-33.964806","18.601667","46.02","CAPE TOWN INTERNATIONAL, SF","FM-15","99999","V020","190,1,N,0113,1","99999,9,9,N","009999,1,9,9","+0240,1","+0180,1","99999,9",,,,,"02,1,+00762,1,99,9",,,"9,AGL   ,+99999,+99999","99,99,9,02,1,99,9,00762,1,99,9,99,9",,,"10140,1,99999,9",,,,,,"MET057METAR FACT 241400Z 19022KT 9999 FEW025 24/18 Q1014 NOSIG=",
"68816099999","2022-02-24T15:00:00","4","-33.964806","18.601667","46.02","CAPE TOWN INTERNATIONAL, SF","FM-15","99999","V020","190,1,N,0124,1","99999,9,9,N","009999,1,9,9","+0230,1","+0170,1","99999,9",,,,,"02,1,+00762,1,99,9",,,"9,AGL   ,+99999,+99999","99,99,9,02,1,99,9,00762,1,99,9,99,9",,,"10140,1,99999,9",,,,,,"MET057METAR FACT 241500Z 19024KT 9999 FEW025 23/17 Q1014 NOSIG=",
"68816099999","2022-02-24T16:00:00","4","-33.964806","18.601667","46.02","CAPE TOWN INTERNATIONAL, SF","FM-15","99999","V020","180,1,N,0113,1","99999,9,9,N","009999,1,9,9","+0230,1","+0170,1","99999,9",,,,,"02,1,+00762,1,99,9",,,"9,AGL   ,+99999,+99999","99,99,9,02,1,99,9,00762,1,99,9,99,9",,,"10140,1,99999,9",,,,,,"MET057METAR FACT 241600Z 18022KT 9999 FEW025 23/17 Q1014 NOSIG=",
"68816099999","2022-02-24T17:00:00","4","-33.964806","18.601667","46.02","CAPE TOWN INTERNATIONAL, SF","FM-15","99999","V020","190,1,N,0098,1","99999,9,9,N","009999,1,9,9","+0210,1","+0170,1","99999,9",,,,,"02,1,+00762,1,99,9",,,"9,AGL   ,+99999,+99999","99,99,9,02,1,99,9,00762,1,99,9,99,9",,,"10140,1,99999,9",,,,,,"MET057METAR FACT 241700Z 19019KT 9999 FEW025 21/17 Q1014 NOSIG=",
"68816099999","2022-02-24T18:00:00","4","-33.964806","18.601667","46.02","CAPE TOWN INTERNATIONAL, SF","FM-15","99999","V020","200,1,N,0093,1","99999,9,9,N","009999,1,9,9","+0200,1","+0170,1","99999,9",,,,,"02,1,+00610,1,99,9",,,"9,AGL   ,+99999,+99999","99,99,9,02,1,99,9,00610,1,99,9,99,9",,,"10140,1,99999,9",,,,,,"MET057METAR FACT 241800Z 20018KT 9999 FEW020 20/17 Q1014 NOSIG=",
"68816099999","2022-02-24T19:00:00","4","-33.964806","18.601667","46.02","CAPE TOWN INTERNATIONAL, SF","FM-15","99999","V020","230,1,N,0062,1","99999,9,9,Y","009900,5,9,9","+0200,1","+0170,1","99999,9",,,,,,,,,,,,"10150,1,99999,9",,,,,,"MET051METAR FACT 241900Z 23012KT CAVOK 20/17 Q1015 NOSIG=",
"68816099999","2022-02-24T20:00:00","4","-33.964806","18.601667","46.02","CAPE TOWN INTERNATIONAL, SF","FM-15","99999","V020","210,1,N,0072,1","99999,9,9,Y","009900,5,9,9","+0200,1","+0170,1","99999,9",,,,,,,,,,,,"10150,1,99999,9",,,,,,"MET051METAR FACT 242000Z 21014KT CAVOK 20/17 Q1015 NOSIG=",
"68816099999","2022-02-24T21:00:00","4","-33.964806","18.601667","46.02","CAPE TOWN INTERNATIONAL, SF","FM-15","99999","V020","210,1,N,0077,1","99999,9,9,Y","009900,5,9,9","+0200,1","+0170,1","99999,9",,,,,,,,,,,,"10150,1,99999,9",,,,,,"MET051METAR FACT 242100Z 21015KT CAVOK 20/17 Q1015 NOSIG=",
"68816099999","2022-02-24T22:00:00","4","-33.964806","18.601667","46.02","CAPE TOWN INTERNATIONAL, SF","FM-15","99999","V020","210,1,N,0057,1","99999,9,9,Y","009900,5,9,9","+0200,1","+0170,1","99999,9",,,,,,,,,,,,"10150,1,99999,9",,,,,,"MET051METAR FACT 242200Z 21011KT CAVOK 20/17 Q1015 NOSIG=",
"68816099999","2022-02-24T23:00:00","4","-33.964806","18.601667","46.02","CAPE TOWN INTERNATIONAL, SF","FM-15","99999","V020","220,1,N,0057,1","99999,9,9,Y","009900,5,9,9","+0210,1","+0170,1","99999,9",,,,,,,,,,,,"10150,1,99999,9",,,,,,"MET051METAR FACT 242300Z 22011KT CAVOK 21/17 Q1015 NOSIG=",
"68816099999","2022-02-25T00:00:00","4","-33.964806","18.601667","46.02","CAPE TOWN INTERNATIONAL, SF","FM-15","99999","V020","210,1,N,0051,1","99999,9,9,Y","009900,5,9,9","+0200,1","+0170,1","99999,9",,,,,,,,,,,,"10140,1,99999,9",,,,,,"MET051METAR FACT 250000Z 21010KT CAVOK 20/17 Q1014 NOSIG=",
"68816099999","2022-02-25T01:00:00","4","-33.964806","18.601667","46.02","CAPE TOWN INTERNATIONAL, SF","FM-15","99999","V020","240,1,N,0051,1","99999,9,9,Y","009900,5,9,9","+0190,1","+0170,1","99999,9",,,,,,,,,,,,"10140,1,99999,9",,,,,,"MET051METAR FACT 250100Z 24010KT CAVOK 19/17 Q1014 NOSIG=",
"68816099999","2022-02-25T02:00:00","4","-33.964806","18.601667","46.02","CAPE TOWN INTERNATIONAL, SF","FM-15","99999","V020","240,1,N,0057,1","99999,9,9,Y","009900,5,9,9","+0180,1","+0170,1","99999,9",,,,,,,,,,,,"10140,1,99999,9",,,,,,"MET051METAR FACT 250200Z 24011KT CAVOK 18/17 Q1014 NOSIG=",
"68816099999","2022-02-25T03:00:00","4","-33.964806","18.601667","46.02","CAPE TOWN INTERNATIONAL, SF","FM-15","99999","V020","220,1,N,0057,1","99999,9,9,Y","009900,5,9,9","+0190,1","+0170,1","99999,9",,,,,,,,,,,,"10140,1,99999,9",,,,,,"MET051METAR FACT 250300Z 22011KT CAVOK 19/17 Q1014 NOSIG=",
"68816099999","2022-02-25T04:00:00","4","-33.964806","18.601667","46.02","CAPE TOWN INTERNATIONAL, SF","FM-15","99999","V020","220,1,N,0057,1","99999,9,9,Y","009900,5,9,9","+0190,1","+0170,1","99999,9",,,,,,,,,,,,"10140,1,99999,9",,,,,,"MET051METAR FACT 250400Z 22011KT CAVOK 19/17 Q1014 NOSIG=",
"68816099999","2022-02-25T05:00:00","4","-33.964806","18.601667","46.02","CAPE TOWN INTERNATIONAL, SF","FM-15","99999","V020","230,1,N,0051,1","99999,9,9,N","009999,1,9,9","+0190,1","+0170,1","99999,9",,,,,"02,1,+00457,1,99,9",,,"9,AGL   ,+99999,+99999","99,99,9,02,1,99,9,00457,1,99,9,99,9",,,"10140,1,99999,9",,,,,,"MET057METAR FACT 250500Z 23010KT 9999 FEW015 19/17 Q1014 NOSIG=",
"68816099999","2022-02-25T05:30:00","4","-33.964806","18.601667","46.02","CAPE TOWN INTERNATIONAL, SF","FM-16","99999","V020","200,1,N,0051,1","99999,9,9,N","009999,1,9,9","+0210,1","+0180,1","99999,9",,,,,"02,1,+00305,1,99,9",,,"9,AGL   ,+99999,+99999","99,99,9,02,1,99,9,00305,1,99,9,99,9",,,"10150,1,99999,9",,,,,,"MET057SPECI FACT 250530Z 20010KT 9999 FEW010 21/18 Q1015 NOSIG=",
"68816099999","2022-02-25T06:00:00","4","-33.964806","18.601667","46.02","CAPE TOWN INTERNATIONAL, SF","FM-12","99999","V020","190,1,N,0077,1","22000,1,9,N","030000,1,9,9","+0219,1","+0181,1","10151,1",,,,,"01,1,+00450,1,06,1",,,"9,AGL   ,+99999,+99999","01,99,1,01,1,99,9,00450,1,99,9,99,9","240,N,+0182,1",,"99999,9,10097,1","6,1,008,1,+999,9",,,,"4,99,0088,1,999","SYN08668816 32480 11915 10219 20181 30097 40151 56008 81500 333 20182 91017 555 10273 91015=",
"68816099999","2022-02-25T06:00:00","4","-33.964806","18.601667","46.02","CAPE TOWN INTERNATIONAL, SF","FM-15","99999","V020","190,1,N,0077,1","99999,9,9,N","009999,1,9,9","+0220,1","+0180,1","99999,9",,,,,"02,1,+00305,1,99,9",,,"9,AGL   ,+99999,+99999","99,99,9,02,1,99,9,00305,1,99,9,99,9",,,"10150,1,99999,9",,,,,,"MET057METAR FACT 250600Z 19015KT 9999 FEW010 22/18 Q1015 NOSIG=",
"68816099999","2022-02-25T06:25:00","4","-33.964806","18.601667","46.02","CAPE TOWN INTERNATIONAL, SF","FM-16","99999","V020","190,1,N,0077,1","99999,9,9,N","009999,1,9,9","+0240,1","+0180,1","99999,9",,,,,"02,1,+00305,1,99,9",,,"9,AGL   ,+99999,+99999","99,99,9,02,1,99,9,00305,1,99,9,99,9",,,"10150,1,99999,9",,,,,,"MET057SPECI FACT 250625Z 19015KT 9999 FEW010 24/18 Q1015 NOSIG=",
"68816099999","2022-02-25T07:00:00","4","-33.964806","18.601667","46.02","CAPE TOWN INTERNATIONAL, SF","FM-15","99999","V020","180,1,N,0072,1","99999,9,9,N","009999,1,9,9","+0240,1","+0190,1","99999,9",,,,,"02,1,+00305,1,99,9",,,"9,AGL   ,+99999,+99999","99,99,9,02,1,99,9,00305,1,99,9,99,9",,,"10150,1,99999,9",,,,,,"MET057METAR FACT 250700Z 18014KT 9999 FEW010 24/19 Q1015 NOSIG=",
"68816099999","2022-02-25T08:00:00","4","-33.964806","18.601667","46.02","CAPE TOWN INTERNATIONAL, SF","FM-15","99999","V020","180,1,N,0098,1","99999,9,9,N","009999,1,9,9","+0250,1","+0190,1","99999,9",,,,,"02,1,+00610,1,99,9",,,"9,AGL   ,+99999,+99999","99,99,9,02,1,99,9,00610,1,99,9,99,9",,,"10150,1,99999,9",,,,,,"MET057METAR FACT 250800Z 18019KT 9999 FEW020 25/19 Q1015 NOSIG=",
"68816099999","2022-02-25T09:00:00","4","-33.964806","18.601667","46.02","CAPE TOWN INTERNATIONAL, SF","FM-15","99999","V020","170,1,N,0108,1","99999,9,9,N","009999,1,9,9","+0250,1","+0190,1","99999,9",,,,,"02,1,+00610,1,99,9",,,"9,AGL   ,+99999,+99999","99,99,9,02,1,99,9,00610,1,99,9,99,9",,,"10150,1,99999,9",,,,,,"MET057METAR FACT 250900Z 17021KT 9999 FEW020 25/19 Q1015 NOSIG=",
"68816099999","2022-02-25T10:00:00","4","-33.964806","18.601667","46.02","CAPE TOWN INTERNATIONAL, SF","FM-15","99999","V020","190,1,N,0093,1","99999,9,9,N","009999,1,9,9","+0260,1","+0190,1","99999,9",,,,,"02,1,+00610,1,99,9",,,"9,AGL   ,+99999,+99999","99,99,9,02,1,99,9,00610,1,99,9,99,9",,,"10140,1,99999,9",,,,,,"MET057METAR FACT 251000Z 19018KT 9999 FEW020 26/19 Q1014 NOSIG=",
"68816099999","2022-02-25T11:00:00","4","-33.964806","18.601667","46.02","CAPE TOWN INTERNATIONAL, SF","FM-15","99999","V020","180,1,N,0124,1","99999,9,9,N","009999,1,9,9","+0250,1","+0190,1","99999,9",,,,,"02,1,+00610,1,99,9",,,"9,AGL   ,+99999,+99999","99,99,9,02,1,99,9,00610,1,99,9,99,9",,,"10140,1,99999,9",,,,,,"MET057METAR FACT 251100Z 18024KT 9999 FEW020 25/19 Q1014 NOSIG=",
"68816099999","2022-02-25T12:00:00","4","-33.964806","18.601667","46.02","CAPE TOWN INTERNATIONAL, SF","FM-12","99999","V020","180,1,N,0103,1","22000,1,9,N","020000,1,9,9","+0252,1","+0171,1","10148,1",,,,,"02,1,+01250,1,06,1",,,"9,AGL   ,+99999,+99999","02,99,1,02,1,99,9,01250,1,99,9,99,9","240,N,+0219,1",,"99999,9,10094,1","6,1,008,1,+999,9",,,,"4,99,0129,1,999","SYN08068816 32670 21820 10252 20171 30094 40148 56008 82500 333 20219 91025 555 91014=",
"68816099999","2022-02-25T12:00:00","4","-33.964806","18.601667","46.02","CAPE TOWN INTERNATIONAL, SF","FM-15","99999","V020","180,1,N,0118,1","99999,9,9,N","009999,1,9,9","+0250,1","+0170,1","99999,9",,,,,"02,1,+00610,1,99,9",,,"9,AGL   ,+99999,+99999","99,99,9,02,1,99,9,00610,1,99,9,99,9",,,"10140,1,99999,9",,,,,,"MET057METAR FACT 251200Z 18023KT 9999 FEW020 25/17 Q1014 NOSIG=",
"68816099999","2022-02-25T13:00:00","4","-33.964806","18.601667","46.02","CAPE TOWN INTERNATIONAL, SF","FM-15","99999","V020","180,1,N,0113,1","99999,9,9,N","009999,1,9,9","+0260,1","+0170,1","99999,9",,,,,"02,1,+01219,1,99,9",,,"9,AGL   ,+99999,+99999","99,99,9,02,1,99,9,01219,1,99,9,99,9",,,"10140,1,99999,9",,,,,,"MET057METAR FACT 251300Z 18022KT 9999 FEW040 26/17 Q1014 NOSIG=",
"68816099999","2022-02-25T14:00:00","4","-33.964806","18.601667","46.02","CAPE TOWN INTERNATIONAL, SF","FM-15","99999","V020","180,1,N,0118,1","99999,9,9,N","009999,1,9,9","+0250,1","+0160,1","99999,9",,,,,"02,1,+01219,1,99,9",,,"9,AGL   ,+99999,+99999","99,99,9,02,1,99,9,01219,1,99,9,99,9",,,"10140,1,99999,9",,,,,,"MET057METAR FACT 251400Z 18023KT 9999 FEW040 25/16 Q1014 NOSIG=",
"68816099999","2022-02-25T15:00:00","4","-33.964806","18.601667","46.02","CAPE TOWN INTERNATIONAL, SF","FM-15","99999","V020","170,1,N,0108,1","99999,9,9,N","009999,1,9,9","+0250,1","+0160,1","99999,9",,,,,"02,1,+01219,1,99,9",,,"9,AGL   ,+99999,+99999","99,99,9,02,1,99,9,01219,1,99,9,99,9",,,"10130,1,99999,9",,,,,,"MET057METAR FACT 251500Z 17021KT 9999 FEW040 25/16 Q1013 NOSIG=",
"68816099999","2022-02-25T16:00:00","4","-33.964806","18.601667","46.02","CAPE TOWN INTERNATIONAL, SF","FM-15","99999","V020","180,1,N,0098,1","99999,9,9,N","009999,1,9,9","+0250,1","+0150,1","99999,9",,,,,"02,1,+01219,1,99,9",,,"9,AGL   ,+99999,+99999","99,99,9,02,1,99,9,01219,1,99,9,99,9",,,"10130,1,99999,9",,,,,,"MET057METAR FACT 251600Z 18019KT 9999 FEW040 25/15 Q1013 NOSIG=",
"68816099999","2022-02-25T17:00:00","4","-33.964806","18.601667","46.02","CAPE TOWN INTERNATIONAL, SF","FM-15","99999","V020","180,1,N,0098,1","99999,9,9,N","009999,1,9,9","+0230,1","+0160,1","99999,9",,,,,"02,1,+01219,1,99,9",,,"9,AGL   ,+99999,+99999","99,99,9,02,1,99,9,01219,1,99,9,99,9",,,"10130,1,99999,9",,,,,,"MET057METAR FACT 251700Z 18019KT 9999 FEW040 23/16 Q1013 NOSIG=",
"68816099999","2022-02-25T18:00:00","4","-33.964806","18.601667","46.02","CAPE TOWN INTERNATIONAL, SF","FM-12","99999","V020","190,1,N,0093,1","22000,1,9,N","030000,1,9,9","+0216,1","+0164,1","10143,1",,,,,"02,1,+99999,9,06,1",,,"9,AGL   ,+99999,+99999","02,99,1,02,1,99,9,99999,9,99,9,99,9","120,M,+0267,1",,"99999,9,10089,1","6,1,008,1,+999,9",,,,"4,99,0113,1,999","SYN08068816 32980 21918 10216 20164 30089 40143 56008 82500 333 10267 91022 555 91014=",
"68816099999","2022-02-25T18:00:00","4","-33.964806","18.601667","46.02","CAPE TOWN INTERNATIONAL, SF","FM-15","99999","V020","190,1,N,0093,1","99999,9,9,N","009999,1,9,9","+0220,1","+0160,1","99999,9",,,,,"02,1,+01219,1,99,9",,,"9,AGL   ,+99999,+99999","99,99,9,02,1,99,9,01219,1,99,9,99,9",,,"10140,1,99999,9",,,,,,"MET057METAR FACT 251800Z 19018KT 9999 FEW040 22/16 Q1014 NOSIG=",
"68816099999","2022-02-25T19:00:00","4","-33.964806","18.601667","46.02","CAPE TOWN INTERNATIONAL, SF","FM-15","99999","V020","200,1,N,0088,1","99999,9,9,Y","009900,5,9,9","+0210,1","+0170,1","99999,9",,,,,,,,,,,,"10150,1,99999,9",,,,,,"MET051METAR FACT 251900Z 20017KT CAVOK 21/17 Q1015 NOSIG=",
"68816099999","2022-02-25T20:00:00","4","-33.964806","18.601667","46.02","CAPE TOWN INTERNATIONAL, SF","FM-15","99999","V020","200,1,N,0088,1","99999,9,9,Y","009900,5,9,9","+0200,1","+0170,1","99999,9",,,,,,,,,,,,"10150,1,99999,9",,,,,,"MET051METAR FACT 252000Z 20017KT CAVOK 20/17 Q1015 NOSIG=",
"68816099999","2022-02-25T21:00:00","4","-33.964806","18.601667","46.02","CAPE TOWN INTERNATIONAL, SF","FM-15","99999","V020","200,1,N,0077,1","99999,9,9,Y","009900,5,9,9","+0200,1","+0170,1","99999,9",,,,,,,,,,,,"10140,1,99999,9",,,,,,"MET051METAR FACT 252100Z 20015KT CAVOK 20/17 Q1014 NOSIG=",
"68816099999","2022-02-25T22:00:00","4","-33.964806","18.601667","46.02","CAPE TOWN INTERNATIONAL, SF","FM-15","99999","V020","200,1,N,0077,1","99999,9,9,Y","009900,5,9,9","+0190,1","+0170,1","99999,9",,,,,,,,,,,,"10140,1,99999,9",,,,,,"MET051METAR FACT 252200Z 20015KT CAVOK 19/17 Q1014 NOSIG=",
"68816099999","2022-02-25T23:00:00","4","-33.964806","18.601667","46.02","CAPE TOWN INTERNATIONAL, SF","FM-15","99999","V020","190,1,N,0093,1","99999,9,9,N","009999,1,9,9","+0190,1","+0170,1","99999,9",,,,,"02,1,+00610,1,99,9",,,"9,AGL   ,+99999,+99999","99,99,9,02,1,99,9,00610,1,99,9,99,9",,,"10140,1,99999,9",,,,,,"MET057METAR FACT 252300Z 19018KT 9999 FEW020 19/17 Q1014 NOSIG=",
"68816099999","2022-02-26T00:00:00","4","-33.964806","18.601667","46.02","CAPE TOWN INTERNATIONAL, SF","FM-12","99999","V020","190,1,N,0072,1","22000,1,9,N","020000,1,9,9","+0187,1","+0170,1","10138,1",,,,,"01,1,+00800,1,06,1",,,"9,AGL   ,+99999,+99999","01,99,1,01,1,99,9,00800,1,99,9,99,9","120,M,+0219,1","120,N,+0186,1","99999,9,10084,1","6,1,008,1,+999,9",,,,"4,99,0077,1,999","SYN08668816 32570 11914 10187 20170 30084 40138 56008 81500 333 10219 20186 91015 555 91013=",
"68816099999","2022-02-26T00:00:00","4","-33.964806","18.601667","46.02","CAPE TOWN INTERNATIONAL, SF","FM-15","99999","V020","190,1,N,0072,1","99999,9,9,N","009999,1,9,9","+0190,1","+0170,1","99999,9",,,,,"02,1,+00610,1,99,9",,,"9,AGL   ,+99999,+99999","99,99,9,02,1,99,9,00610,1,99,9,99,9",,,"10140,1,99999,9",,,,,,"MET057METAR FACT 260000Z 19014KT 9999 FEW020 19/17 Q1014 NOSIG=",
"68816099999","2022-02-26T01:00:00","4","-33.964806","18.601667","46.02","CAPE TOWN INTERNATIONAL, SF","FM-15","99999","V020","230,1,N,0041,1","99999,9,9,N","009999,1,9,9","+0180,1","+0170,1","99999,9",,,,,"02,1,+00305,1,99,9",,,"9,AGL   ,+99999,+99999","99,99,9,02,1,99,9,00305,1,99,9,99,9",,,"10130,1,99999,9",,,,,,"MET057METAR FACT 260100Z 23008KT 9999 FEW010 18/17 Q1013 NOSIG=",
"68816099999","2022-02-26T02:00:00","4","-33.964806","18.601667","46.02","CAPE TOWN INTERNATIONAL, SF","FM-15","99999","V020","230,1,N,0057,1","99999,9,9,Y","009900,5,9,9","+0180,1","+0160,1","99999,9",,,,,,,,,,,,"10130,1,99999,9",,,,,,"MET051METAR FACT 260200Z 23011KT CAVOK 18/16 Q1013 NOSIG=",
"68816099999","2022-02-26T03:00:00","4","-33.964806","18.601667","46.02","CAPE TOWN INTERNATIONAL, SF","FM-15","99999","V020","230,1,N,0062,1","99999,9,9,Y","009900,5,9,9","+0180,1","+0160,1","99999,9",,,,,,,,,,,,"10130,1,99999,9",,,,,,"MET051METAR FACT 260300Z 23012KT CAVOK 18/16 Q1013 NOSIG=",
"68816099999","2022-02-26T04:00:00","4","-33.964806","18.601667","46.02","CAPE TOWN INTERNATIONAL, SF","FM-15","99999","V020","230,1,N,0062,1","99999,9,9,Y","009900,5,9,9","+0180,1","+0160,1","99999,9",,,,,,,,,,,,"10130,1,99999,9",,,,,,"MET051METAR FACT 260400Z 23012KT CAVOK 18/16 Q1013 NOSIG=",
"68816099999","2022-02-26T05:00:00","4","-33.964806","18.601667","46.02","CAPE TOWN INTERNATIONAL, SF","FM-15","99999","V020","240,1,N,0062,1","99999,9,9,Y","009900,5,9,9","+0180,1","+0160,1","99999,9",,,,,,,,,,,,"10130,1,99999,9",,,,,,"MET051METAR FACT 260500Z 24012KT CAVOK 18/16 Q1013 NOSIG=",
"68816099999","2022-02-26T06:00:00","4","-33.964806","18.601667","46.02","CAPE TOWN INTERNATIONAL, SF","FM-12","99999","V020","230,1,N,0051,1","99999,9,9,N","030000,1,9,9","+0192,1","+0168,1","10142,1",,,,,,,,,,"240,N,+0175,1",,"99999,9,10087,1","2,1,008,1,+999,9",,,,"4,99,0062,1,999","SYN08068816 32980 02310 10192 20168 30087 40142 52008 333 20175 91012 555 10267 91014=",
"68816099999","2022-02-26T06:00:00","4","-33.964806","18.601667","46.02","CAPE TOWN INTERNATIONAL, SF","FM-15","99999","V020","230,1,N,0051,1","99999,9,9,Y","009900,5,9,9","+0190,1","+0170,1","99999,9",,,,,,,,,,,,"10140,1,99999,9",,,,,,"MET051METAR FACT 260600Z 23010KT CAVOK 19/17 Q1014 NOSIG=",
"68816099999","2022-02-26T07:00:00","4","-33.964806","18.601667","46.02","CAPE TOWN INTERNATIONAL, SF","FM-15","99999","V020","230,1,N,0051,1","99999,9,9,Y","009900,5,9,9","+0210,1","+0170,1","99999,9",,,,,,,,,,,,"10140,1,99999,9",,,,,,"MET051METAR FACT 260700Z 23010KT CAVOK 21/17 Q1014 NOSIG=",
"68816099999","2022-02-26T08:00:00","4","-33.964806","18.601667","46.02","CAPE TOWN INTERNATIONAL, SF","FM-15","99999","V020","220,1,V,0041,1","99999,9,9,Y","009900,5,9,9","+0230,1","+0170,1","99999,9",,,,,,,,,,,,"10140,1,99999,9",,,,,,"MET059METAR FACT 260800Z 22008KT 190V250 CAVOK 23/17 Q1014 NOSIG=",
"68816099999","2022-02-26T08:23:00","4","-33.964806","18.601667","46.02","CAPE TOWN INTERNATIONAL, SF","FM-16","99999","V020","220,1,V,0036,1","99999,9,9,Y","009900,5,9,9","+0250,1","+0170,1","99999,9",,,,,,,,,,,,"10140,1,99999,9",,,,,,"MET059SPECI FACT 260823Z 22007KT 140V250 CAVOK 25/17 Q1014 NOSIG=",
"68816099999","2022-02-26T08:53:00","4","-33.964806","18.601667","46.02","CAPE TOWN INTERNATIONAL, SF","FM-16","99999","V020","190,1,N,0062,1","99999,9,9,Y","009900,5,9,9","+0270,1","+0170,1","99999,9",,,,,,,,,,,,"10140,1,99999,9",,,,,,"MET051SPECI FACT 260853Z 19012KT CAVOK 27/17 Q1014 NOSIG=",
"68816099999","2022-02-26T09:00:00","4","-33.964806","18.601667","46.02","CAPE TOWN INTERNATIONAL, SF","FM-15","99999","V020","190,1,N,0062,1","99999,9,9,Y","009900,5,9,9","+0270,1","+0170,1","99999,9",,,,,,,,,,,,"10140,1,99999,9",,,,,,"MET051METAR FACT 260900Z 19012KT CAVOK 27/17 Q1014 NOSIG=",
"68816099999","2022-02-26T10:00:00","4","-33.964806","18.601667","46.02","CAPE TOWN INTERNATIONAL, SF","FM-15","99999","V020","220,1,N,0057,1","99999,9,9,Y","009900,5,9,9","+0270,1","+0170,1","99999,9",,,,,,,,,,,,"10130,1,99999,9",,,,,,"MET051METAR FACT 261000Z 22011KT CAVOK 27/17 Q1013 NOSIG=",
"68816099999","2022-02-26T11:00:00","4","-33.964806","18.601667","46.02","CAPE TOWN INTERNATIONAL, SF","FM-15","99999","V020","220,1,N,0062,1","99999,9,9,Y","009900,5,9,9","+0280,1","+0170,1","99999,9",,,,,,,,,,,,"10130,1,99999,9",,,,,,"MET051METAR FACT 261100Z 22012KT CAVOK 28/17 Q1013 NOSIG=",
"68816099999","2022-02-26T12:00:00","4","-33.964806","18.601667","46.02","CAPE TOWN INTERNATIONAL, SF","FM-12","99999","V020","220,1,N,0067,1","99999,9,9,N","040000,1,9,9","+0291,1","+0162,1","10123,1",,,,,,,,,,"240,M,+0299,1","240,N,+0194,1","99999,9,10070,1","7,1,017,1,+999,9",,,,"4,99,0077,1,999","SYN08068816 32982 02213 10291 20162 30070 40123 57017 333 10299 20194 91015 555 91012=",
"68816099999","2022-02-26T12:00:00","4","-33.964806","18.601667","46.02","CAPE TOWN INTERNATIONAL, SF","FM-15","99999","V020","220,1,N,0072,1","99999,9,9,Y","009900,5,9,9","+0290,1","+0160,1","99999,9",,,,,,,,,,,,"10120,1,99999,9",,,,,,"MET051METAR FACT 261200Z 22014KT CAVOK 29/16 Q1012 NOSIG=",
"68816099999","2022-02-26T13:00:00","4","-33.964806","18.601667","46.02","CAPE TOWN INTERNATIONAL, SF","FM-15","99999","V020","220,1,N,0067,1","99999,9,9,Y","009900,5,9,9","+0290,1","+0180,1","99999,9",,,,,,,,,,,,"10110,1,99999,9",,,,,,"MET051METAR FACT 261300Z 22013KT CAVOK 29/18 Q1011 NOSIG=",
"68816099999","2022-02-26T14:00:00","4","-33.964806","18.601667","46.02","CAPE TOWN INTERNATIONAL, SF","FM-15","99999","V020","210,1,N,0077,1","99999,9,9,Y","009900,5,9,9","+0270,1","+0180,1","99999,9",,,,,,,,,,,,"10110,1,99999,9",,,,,,"MET051METAR FACT 261400Z 21015KT CAVOK 27/18 Q1011 NOSIG=",
"68816099999","2022-02-26T15:00:00","4","-33.964806","18.601667","46.02","CAPE TOWN INTERNATIONAL, SF","FM-15","99999","V020","210,1,N,0067,1","99999,9,9,Y","009900,5,9,9","+0260,1","+0180,1","99999,9",,,,,,,,,,,,"10110,1,99999,9",,,,,,"MET051METAR FACT 261500Z 21013KT CAVOK 26/18 Q1011 NOSIG=",
"68816099999","2022-02-26T16:00:00","4","-33.964806","18.601667","46.02","CAPE TOWN INTERNATIONAL, SF","FM-15","99999","V020","210,1,N,0072,1","99999,9,9,Y","009900,5,9,9","+0250,1","+0180,1","99999,9",,,,,,,,,,,,"10100,1,99999,9",,,,,,"MET051METAR FACT 261600Z 21014KT CAVOK 25/18 Q1010 NOSIG=",
"68816099999","2022-02-26T17:00:00","4","-33.964806","18.601667","46.02","CAPE TOWN INTERNATIONAL, SF","FM-15","99999","V020","230,1,N,0082,1","99999,9,9,Y","009900,5,9,9","+0220,1","+0170,1","99999,9",,,,,,,,,,,,"10100,1,99999,9",,,,,,"MET051METAR FACT 261700Z 23016KT CAVOK 22/17 Q1010 NOSIG=",
"68816099999","2022-02-26T18:00:00","4","-33.964806","18.601667","46.02","CAPE TOWN INTERNATIONAL, SF","FM-12","99999","V020","230,1,N,0072,1","99999,9,9,N","020000,1,9,9","+0210,1","+0169,1","10105,1",,,,,,,,,,"120,M,+0302,1","120,N,+0194,1","99999,9,10051,1","7,1,005,1,+999,9",,,,"4,99,0088,1,999","SYN08068816 32970 02314 10210 20169 30051 40105 57005 333 10302 20194 91017 555 91010=",
"68816099999","2022-02-26T18:00:00","4","-33.964806","18.601667","46.02","CAPE TOWN INTERNATIONAL, SF","FM-15","99999","V020","230,1,N,0072,1","99999,9,9,Y","009900,5,9,9","+0210,1","+0170,1","99999,9",,,,,,,,,,,,"10100,1,99999,9",,,,,,"MET051METAR FACT 261800Z 23014KT CAVOK 21/17 Q1010 NOSIG=",
"68816099999","2022-02-26T19:00:00","4","-33.964806","18.601667","46.02","CAPE TOWN INTERNATIONAL, SF","FM-15","99999","V020","230,1,N,0062,1","99999,9,9,Y","009900,5,9,9","+0210,1","+0170,1","99999,9",,,,,,,,,,,,"10100,1,99999,9",,,,,,"MET051METAR FACT 261900Z 23012KT CAVOK 21/17 Q1010 NOSIG=",
"68816099999","2022-02-26T20:00:00","4","-33.964806","18.601667","46.02","CAPE TOWN INTERNATIONAL, SF","FM-15","99999","V020","230,1,N,0057,1","99999,9,9,Y","009900,5,9,9","+0220,1","+0170,1","99999,9",,,,,,,,,,,,"10100,1,99999,9",,,,,,"MET051METAR FACT 262000Z 23011KT CAVOK 22/17 Q1010 NOSIG=",
"68816099999","2022-02-26T21:00:00","4","-33.964806","18.601667","46.02","CAPE TOWN INTERNATIONAL, SF","FM-12","99999","V020","240,1,N,0046,1","99999,9,9,N","030000,1,9,9","+0221,1","+0173,1","10104,1",,,,,,,,,,,,"99999,9,10051,1","2,1,004,1,+999,9",,,,"4,99,0057,1,999","SYN05868816 42980 02409 10221 20173 30051 40104 52004 333 91011=",
"68816099999","2022-02-26T21:00:00","4","-33.964806","18.601667","46.02","CAPE TOWN INTERNATIONAL, SF","FM-15","99999","V020","240,1,N,0046,1","99999,9,9,Y","009900,5,9,9","+0220,1","+0170,1","99999,9",,,,,,,,,,,,"10100,1,99999,9",,,,,,"MET051METAR FACT 262100Z 24009KT CAVOK 22/17 Q1010 NOSIG=",
"68816099999","2022-02-26T22:00:00","4","-33.964806","18.601667","46.02","CAPE TOWN INTERNATIONAL, SF","FM-15","99999","V020","240,1,V,0021,1","99999,9,9,Y","009900,5,9,9","+0210,1","+0170,1","99999,9",,,,,,,,,,,,"10100,1,99999,9",,,,,,"MET059METAR FACT 262200Z 24004KT 220V280 CAVOK 21/17 Q1010 NOSIG=",
"68816099999","2022-02-26T23:00:00","4","-33.964806","18.601667","46.02","CAPE TOWN INTERNATIONAL, SF","FM-15","99999","V020","230,1,N,0031,1","99999,9,9,Y","009900,5,9,9","+0210,1","+0170,1","99999,9",,,,,,,,,,,,"10100,1,99999,9",,,,,,"MET051METAR FACT 262300Z 23006KT CAVOK 21/17 Q1010 NOSIG=",
"68816099999","2022-02-27T00:00:00","4","-33.964806","18.601667","46.02","CAPE TOWN INTERNATIONAL, SF","FM-12","99999","V020","999,9,V,0015,1","99999,9,9,N","030000,1,9,9","+0200,1","+0162,1","10097,1",,,,,,,,,,,,"99999,9,10043,1","7,1,002,1,+999,9",,,,"4,99,0021,1,999","SYN06868816 32980 09903 10200 20162 30043 40097 57002 333 91004 555 91009=",
"68816099999","2022-02-27T00:00:00","4","-33.964806","18.601667","46.02","CAPE TOWN INTERNATIONAL, SF","FM-15","99999","V020","999,9,V,0015,1","99999,9,9,Y","009900,5,9,9","+0200,1","+0160,1","99999,9",,,,,,,,,,,,"10090,1,99999,9",,,,,,"MET051METAR FACT 270000Z VRB03KT CAVOK 20/16 Q1009 NOSIG=",
"68816099999","2022-02-27T01:00:00","4","-33.964806","18.601667","46.02","CAPE TOWN INTERNATIONAL, SF","FM-15","99999","V020","999,9,V,0005,1","99999,9,9,Y","009900,5,9,9","+0190,1","+0160,1","99999,9",,,,,,,,,,,,"10090,1,99999,9",,,,,,"MET051METAR FACT 270100Z VRB01KT CAVOK 19/16 Q1009 NOSIG=",
"68816099999","2022-02-27T02:00:00","4","-33.964806","18.601667","46.02","CAPE TOWN INTERNATIONAL, SF","FM-15","99999","V020","999,9,V,0010,1","99999,9,9,Y","009900,5,9,9","+0190,1","+0160,1","99999,9",,,,,,,,,,,,"10090,1,99999,9",,,,,,"MET051METAR FACT 270200Z VRB02KT CAVOK 19/16 Q1009 NOSIG=",
"68816099999","2022-02-27T03:00:00","4","-33.964806","18.601667","46.02","CAPE TOWN INTERNATIONAL, SF","FM-15","99999","V020","160,1,N,0005,1","99999,9,9,Y","009900,5,9,9","+0180,1","+0160,1","99999,9",,,,,,,,,,,,"10080,1,99999,9",,,,,,"MET051METAR FACT 270300Z 16001KT CAVOK 18/16 Q1008 NOSIG=",
"68816099999","2022-02-27T04:00:00","4","-33.964806","18.601667","46.02","CAPE TOWN INTERNATIONAL, SF","FM-15","99999","V020","999,9,V,0010,1","99999,9,9,Y","009900,5,9,9","+0190,1","+0160,1","99999,9",,,,,,,,,,,,"10090,1,99999,9",,,,,,"MET051METAR FACT 270400Z VRB02KT CAVOK 19/16 Q1009 NOSIG=",
"68816099999","2022-02-27T05:00:00","4","-33.964806","18.601667","46.02","CAPE TOWN INTERNATIONAL, SF","FM-15","99999","V020","120,1,N,0010,1","99999,9,9,Y","009900,5,9,9","+0180,1","+0150,1","99999,9",,,,,,,,,,,,"10090,1,99999,9",,,,,,"MET051METAR FACT 270500Z 12002KT CAVOK 18/15 Q1009 NOSIG=",
"68816099999","2022-02-27T05:25:00","4","-33.964806","18.601667","46.02","CAPE TOWN INTERNATIONAL, SF","FM-16","99999","V020","999,9,V,0005,1","99999,9,9,Y","009900,5,9,9","+0200,1","+0160,1","99999,9",,,,,,,,,,,,"10090,1,99999,9",,,,,,"MET051SPECI FACT 270525Z VRB01KT CAVOK 20/16 Q1009 NOSIG=",
"68816099999","2022-02-27T06:00:00","4","-33.964806","18.601667","46.02","CAPE TOWN INTERNATIONAL, SF","FM-12","99999","V020","280,1,N,0010,1","99999,9,9,N","030000,1,9,9","+0214,1","+0163,1","10099,1",,,,,,,,,,"240,N,+0173,1",,"99999,9,10045,1","7,1,005,1,+999,9",,,,"4,99,0051,1,999","SYN08068816 32980 02802 10214 20163 30045 40099 57005 333 20173 91010 555 10302 91009=",
"68816099999","2022-02-27T06:00:00","4","-33.964806","18.601667","46.02","CAPE TOWN INTERNATIONAL, SF","FM-15","99999","V020","999,9,V,0010,1","99999,9,9,Y","009900,5,9,9","+0210,1","+0160,1","99999,9",,,,,,,,,,,,"10090,1,99999,9",,,,,,"MET051METAR FACT 270600Z VRB02KT CAVOK 21/16 Q1009 NOSIG=",
"68816099999","2022-02-27T06:30:00","4","-33.964806","18.601667","46.02","CAPE TOWN INTERNATIONAL, SF","FM-16","99999","V020","999,9,V,0015,1","99999,9,9,Y","009900,5,9,9","+0230,1","+0160,1","99999,9",,,,,,,,,,,,"10100,1,99999,9",,,,,,"MET051SPECI FACT 270630Z VRB03KT CAVOK 23/16 Q1010 NOSIG=",
"68816099999","2022-02-27T06:55:00","4","-33.964806","18.601667","46.02","CAPE TOWN INTERNATIONAL, SF","FM-16","99999","V020","310,1,V,0021,1","99999,9,9,Y","009900,5,9,9","+0250,1","+0160,1","99999,9",,,,,,,,,,,,"10100,1,99999,9",,,,,,"MET059SPECI FACT 270655Z 31004KT 270V360 CAVOK 25/16 Q1010 NOSIG=",
"68816099999","2022-02-27T07:00:00","4","-33.964806","18.601667","46.02","CAPE TOWN INTERNATIONAL, SF","FM-15","99999","V020","310,1,V,0021,1","99999,9,9,Y","009900,5,9,9","+0250,1","+0160,1","99999,9",,,,,,,,,,,,"10100,1,99999,9",,,,,,"MET059METAR FACT 270700Z 31004KT 270V360 CAVOK 25/16 Q1010 NOSIG=",
"68816099999","2022-02-27T08:00:00","4","-33.964806","18.601667","46.02","CAPE TOWN INTERNATIONAL, SF","FM-15","99999","V020","300,1,V,0031,1","99999,9,9,Y","009900,5,9,9","+0270,1","+0160,1","99999,9",,,,,,,,,,,,"10100,1,99999,9",,,,,,"MET059METAR FACT 270800Z 30006KT 270V330 CAVOK 27/16 Q1010 NOSIG=",
"68816099999","2022-02-27T09:00:00","4","-33.964806","18.601667","46.02","CAPE TOWN INTERNATIONAL, SF","FM-15","99999","V020","310,1,V,0041,1","99999,9,9,Y","009900,5,9,9","+0280,1","+0160,1","99999,9",,,,,,,,,,,,"10100,1,99999,9",,,,,,"MET059METAR FACT 270900Z 31008KT 270V340 CAVOK 28/16 Q1010 NOSIG=",
"68816099999","2022-02-27T09:21:00","4","-33.964806","18.601667","46.02","CAPE TOWN INTERNATIONAL, SF","FM-16","99999","V020","310,1,V,0041,1","99999,9,9,Y","009900,5,9,9","+0300,1","+0160,1","99999,9",,,,,,,,,,,,"10100,1,99999,9",,,,,,"MET059SPECI FACT 270921Z 31008KT 270V340 CAVOK 30/16 Q1010 NOSIG=",
"68816099999","2022-02-27T10:00:00","4","-33.964806","18.601667","46.02","CAPE TOWN INTERNATIONAL, SF","FM-15","99999","V020","310,1,V,0041,1","99999,9,9,Y","009900,5,9,9","+0310,1","+0160,1","99999,9",,,,,,,,,,,,"10100,1,99999,9",,,,,,"MET063METAR COR FACT 271000Z 31008KT 280V340 CAVOK 31/16 Q1010 NOSIG=",
"68816099999","2022-02-27T11:00:00","4","-33.964806","18.601667","46.02","CAPE TOWN INTERNATIONAL, SF","FM-15","99999","V020","280,1,V,0031,1","99999,9,9,Y","009900,5,9,9","+0330,1","+0150,1","99999,9",,,,,,,,,,,,"10090,1,99999,9",,,,,,"MET059METAR FACT 271100Z 28006KT 240V360 CAVOK 33/15 Q1009 NOSIG=",
"68816099999","2022-02-27T12:00:00","4","-33.964806","18.601667","46.02","CAPE TOWN INTERNATIONAL, SF","FM-12","99999","V020","190,1,N,0041,1","99999,9,9,N","030000,1,9,9","+0322,1","+0156,1","10091,1",,,,,,,,,,"240,M,+0338,1","240,N,+0215,1","99999,9,10039,1","7,1,007,1,+999,9",,,,"4,99,0051,1,999","SYN08068816 32980 01908 10322 20156 30039 40091 57007 333 10338 20215 91010 555 91009=",
"68816099999","2022-02-27T12:00:00","4","-33.964806","18.601667","46.02","CAPE TOWN INTERNATIONAL, SF","FM-15","99999","V020","180,1,V,0036,1","99999,9,9,Y","009900,5,9,9","+0320,1","+0160,1","99999,9",,,,,,,,,,,,"10090,1,99999,9",,,,,,"MET059METAR FACT 271200Z 18007KT 150V210 CAVOK 32/16 Q1009 NOSIG=",
"68816099999","2022-02-27T13:00:00","4","-33.964806","18.601667","46.02","CAPE TOWN INTERNATIONAL, SF","FM-15","99999","V020","310,1,V,0051,1","99999,9,9,N","009999,1,9,9","+0300,1","+0160,1","99999,9",,,,,"02,1,+00762,1,99,9",,,"9,AGL   ,+99999,+99999","99,99,9,02,1,99,9,00762,1,99,9,99,9",,,"10090,1,99999,9",,,,,,"MET065METAR FACT 271300Z 31010KT 260V340 9999 FEW025 30/16 Q1009 NOSIG=",
"68816099999","2022-02-27T14:00:00","4","-33.964806","18.601667","46.02","CAPE TOWN INTERNATIONAL, SF","FM-15","99999","V020","320,1,N,0046,1","99999,9,9,N","009999,1,9,9","+0280,1","+0160,1","99999,9",,,,,"02,1,+00610,1,99,9",,,"9,AGL   ,+99999,+99999","99,99,9,02,1,99,9,00610,1,99,9,99,9",,,"10090,1,99999,9",,,,,,"MET057METAR FACT 271400Z 32009KT 9999 FEW020 28/16 Q1009 NOSIG=",
"68816099999","2022-02-27T15:00:00","4","-33.964806","18.601667","46.02","CAPE TOWN INTERNATIONAL, SF","FM-15","99999","V020","320,1,N,0036,1","99999,9,9,N","009999,1,9,9","+0270,1","+0160,1","99999,9",,,,,"02,1,+00610,1,99,9",,,"9,AGL   ,+99999,+99999","99,99,9,02,1,99,9,00610,1,99,9,99,9",,,"10080,1,99999,9",,,,,,"MET057METAR FACT 271500Z 32007KT 9999 FEW020 27/16 Q1008 NOSIG=",
"68816099999","2022-02-27T16:00:00","4","-33.964806","18.601667","46.02","CAPE TOWN INTERNATIONAL, SF","FM-15","99999","V020","300,1,N,0041,1","99999,9,9,Y","009900,5,9,9","+0260,1","+0160,1","99999,9",,,,,,,,,,,,"10080,1,99999,9",,,,,,"MET051METAR FACT 271600Z 30008KT CAVOK 26/16 Q1008 NOSIG=",
"68816099999","2022-02-27T17:00:00","4","-33.964806","18.601667","46.02","CAPE TOWN INTERNATIONAL, SF","FM-15","99999","V020","310,1,V,0051,1","99999,9,9,Y","009900,5,9,9","+0230,1","+0160,1","99999,9",,,,,,,,,,,,"10090,1,99999,9",,,,,,"MET059METAR FACT 271700Z 31010KT 290V350 CAVOK 23/16 Q1009 NOSIG=",
"68816099999","2022-02-27T18:00:00","4","-33.964806","18.601667","46.02","CAPE TOWN INTERNATIONAL, SF","FM-12","99999","V020","310,1,N,0041,1","22000,1,9,N","030000,1,9,9","+0190,1","+0166,1","10095,1",,,,,"03,1,+99999,9,03,1",,,"9,AGL   ,+99999,+99999","03,99,1,03,1,99,9,99999,9,99,9,99,9","120,M,+0338,1","120,N,+0195,1","99999,9,10041,1","7,1,007,1,+999,9",,,,"4,99,0046,1,999","SYN08668816 32980 33108 10190 20166 30041 40095 57007 83080 333 10338 20195 91009 555 91009=",
"68816099999","2022-02-27T18:00:00","4","-33.964806","18.601667","46.02","CAPE TOWN INTERNATIONAL, SF","FM-15","99999","V020","310,1,N,0041,1","99999,9,9,Y","009900,5,9,9","+0190,1","+0160,1","99999,9",,,,,,,,,,,,"10090,1,99999,9",,,,,,"MET051METAR FACT 271800Z 31008KT CAVOK 19/16 Q1009 NOSIG=",
"68816099999","2022-02-27T19:00:00","4","-33.964806","18.601667","46.02","CAPE TOWN INTERNATIONAL, SF","FM-15","99999","V020","310,1,N,0051,1","99999,9,9,Y","009900,5,9,9","+0180,1","+0170,1","99999,9",,,,,,,,,,,,"10100,1,99999,9",,,,,,"MET062METAR COR FACT 271900Z 31010KT CAVOK 18/17 Q1010 TEMPO BKN010=",
"68816099999","2022-02-27T20:00:00","4","-33.964806","18.601667","46.02","CAPE TOWN INTERNATIONAL, SF","FM-15","99999","V020","320,1,N,0041,1","99999,9,9,N","009000,1,9,9","+0190,1","+0180,1","99999,9",,,,,"04,1,+00091,1,99,9",,,"9,AGL   ,+99999,+99999","99,99,9,04,1,99,9,00091,1,99,9,99,9",,,"10100,1,99999,9",,,,,,"MET072METAR FACT 272000Z 32008KT 9000 SCT003 19/18 Q1010 TEMPO 5000 BR BKN003=",
"68816099999","2022-02-27T20:59:00","4","-33.964806","18.601667","46.02","CAPE TOWN INTERNATIONAL, SF","FM-16","99999","V020","320,1,N,0051,1","00183,1,C,N","009999,1,9,9","+0190,1","+0180,1","99999,9",,,,,"07,1,+00183,1,99,9",,,"9,AGL   ,+99999,+99999","99,99,9,07,1,99,9,00183,1,99,9,99,9",,,"10100,1,99999,9",,,,,,"MET072SPECI FACT 272059Z 32010KT 9999 BKN006 19/18 Q1010 TEMPO 5000 BR BKN005=",
"68816099999","2022-02-27T21:00:00","4","-33.964806","18.601667","46.02","CAPE TOWN INTERNATIONAL, SF","FM-15","99999","V020","320,1,N,0051,1","00183,1,C,N","009999,1,9,9","+0190,1","+0180,1","99999,9",,,,,"07,1,+00183,1,99,9",,,"9,AGL   ,+99999,+99999","99,99,9,07,1,99,9,00183,1,99,9,99,9",,,"10100,1,99999,9",,,,,,"MET072METAR FACT 272100Z 32010KT 9999 BKN006 19/18 Q1010 TEMPO 5000 BR BKN005=",
"68816099999","2022-02-27T22:00:00","4","-33.964806","18.601667","46.02","CAPE TOWN INTERNATIONAL, SF","FM-15","99999","V020","330,1,N,0051,1","00122,1,C,N","004000,1,9,9","+0180,1","+0180,1","99999,9",,,,,"07,1,+00122,1,99,9",,,"9,AGL   ,+99999,+99999","99,99,9,07,1,99,9,00122,1,99,9,99,9",,,"10100,1,99999,9",,"10,1",,,,"MET072METAR FACT 272200Z 33010KT 4000 BR BKN004 18/18 Q1010 TEMPO 3000 BKN002=",
"68816099999","2022-02-27T22:00:00","4","-33.964806","18.601667","46.02","CAPE TOWN INTERNATIONAL, SF","FM-16","99999","V020","330,1,N,0051,1","00122,1,C,N","004000,1,9,9","+0180,1","+0180,1","99999,9",,,,,"07,1,+00122,1,99,9",,,"9,AGL   ,+99999,+99999","99,99,9,07,1,99,9,00122,1,99,9,99,9",,,"10100,1,99999,9",,"10,1",,,,"MET072SPECI FACT 272200Z 33010KT 4000 BR BKN004 18/18 Q1010 TEMPO 3000 BKN002=",
"68816099999","2022-02-27T23:00:00","4","-33.964806","18.601667","46.02","CAPE TOWN INTERNATIONAL, SF","FM-15","99999","V020","330,1,N,0062,1","00122,1,C,N","008000,1,9,9","+0180,1","+0180,1","99999,9",,,,,"07,1,+00122,1,99,9",,,"9,AGL   ,+99999,+99999","99,99,9,07,1,99,9,00122,1,99,9,99,9",,,"10100,1,99999,9",,,,,,"MET065METAR FACT 272300Z 33012KT 8000 BKN004 18/18 Q1010 TEMPO 4000 BR=",
"68816099999","2022-02-27T23:00:00","4","-33.964806","18.601667","46.02","CAPE TOWN INTERNATIONAL, SF","FM-16","99999","V020","330,1,N,0062,1","00122,1,C,N","008000,1,9,9","+0180,1","+0180,1","99999,9",,,,,"07,1,+00122,1,99,9",,,"9,AGL   ,+99999,+99999","99,99,9,07,1,99,9,00122,1,99,9,99,9",,,"10100,1,99999,9",,,,,,"MET065SPECI FACT 272300Z 33012KT 8000 BKN004 18/18 Q1010 TEMPO 4000 BR=",
"68816099999","2022-02-28T00:00:00","4","-33.964806","18.601667","46.02","CAPE TOWN INTERNATIONAL, SF","FM-12","99999","V020","340,1,N,0067,1","99999,9,9,N","010000,1,9,9","+0188,1","+0176,1","10110,1",,"2,1,02,1","2,1,02,1",,"07,1,+99999,9,07,1",,,"9,AGL   ,+99999,+99999","07,99,1,07,1,99,9,99999,9,99,9,99,9","120,M,+0338,1",,"99999,9,10056,1","7,1,007,1,+999,9","10,1",,,"4,99,0082,1,999","SYN08668816 32960 73413 10188 20176 30056 40110 57007 71022 876// 333 10338 91016 555 91011=",
"68816099999","2022-02-28T00:00:00","4","-33.964806","18.601667","46.02","CAPE TOWN INTERNATIONAL, SF","FM-15","99999","V020","350,1,N,0067,1","00122,1,C,N","009999,1,9,9","+0190,1","+0180,1","99999,9",,,,,"07,1,+00122,1,99,9",,,"9,AGL   ,+99999,+99999","99,99,9,07,1,99,9,00122,1,99,9,99,9",,,"10110,1,99999,9",,,,,,"MET065METAR FACT 280000Z 35013KT 9999 BKN004 19/18 Q1011 TEMPO 4000 BR=",
"68816099999","2022-02-28T00:57:00","4","-33.964806","18.601667","46.02","CAPE TOWN INTERNATIONAL, SF","FM-16","99999","V020","340,1,N,0062,1","00335,1,C,N","009999,1,9,9","+0190,1","+0170,1","99999,9",,,,,"07,1,+00335,1,99,9",,,"9,AGL   ,+99999,+99999","99,99,9,07,1,99,9,00335,1,99,9,99,9",,,"10100,1,99999,9",,,,,,"MET064SPECI FACT 280057Z 34012KT 9999 BKN011 19/17 Q1010 TEMPO BKN010=",
"68816099999","2022-02-28T01:00:00","4","-33.964806","18.601667","46.02","CAPE TOWN INTERNATIONAL, SF","FM-15","99999","V020","340,1,N,0062,1","00335,1,C,N","009999,1,9,9","+0190,1","+0170,1","99999,9",,,,,"07,1,+00335,1,99,9",,,"9,AGL   ,+99999,+99999","99,99,9,07,1,99,9,00335,1,99,9,99,9",,,"10100,1,99999,9",,,,,,"MET064METAR FACT 280100Z 34012KT 9999 BKN011 19/17 Q1010 TEMPO BKN010=",
"68816099999","2022-02-28T01:57:00","4","-33.964806","18.601667","46.02","CAPE TOWN INTERNATIONAL, SF","FM-16","99999","V020","340,1,N,0046,1","00488,1,C,N","009999,1,9,9","+0190,1","+0170,1","99999,9",,,,,"07,1,+00488,1,99,9",,,"9,AGL   ,+99999,+99999","99,99,9,07,1,99,9,00488,1,99,9,99,9",,,"10100,1,99999,9",,,,,,"MET064SPECI FACT 280157Z 34009KT 9999 BKN016 19/17 Q1010 TEMPO BKN015=",
"68816099999","2022-02-28T02:00:00","4","-33.964806","18.601667","46.02","CAPE TOWN INTERNATIONAL, SF","FM-15","99999","V020","340,1,N,0046,1","00488,1,C,N","009999,1,9,9","+0190,1","+0170,1","99999,9",,,,,"07,1,+00488,1,99,9",,,"9,AGL   ,+99999,+99999","99,99,9,07,1,99,9,00488,1,99,9,99,9",,,"10100,1,99999,9",,,,,,"MET064METAR FACT 280200Z 34009KT 9999 BKN016 19/17 Q1010 TEMPO BKN015=",
"68816099999","2022-02-28T02:30:00","4","-33.964806","18.601667","46.02","CAPE TOWN INTERNATIONAL, SF","FM-16","99999","V020","330,1,N,0041,1","00427,1,C,N","009999,1,9,9","+0190,1","+0170,1","99999,9",,,,,"07,1,+00427,1,99,9",,,"9,AGL   ,+99999,+99999","99,99,9,07,1,99,9,00427,1,99,9,99,9",,,"10100,1,99999,9",,,,,,"MET057SPECI FACT 280230Z 33008KT 9999 BKN014 19/17 Q1010 NOSIG=",
"68816099999","2022-02-28T03:00:00","4","-33.964806","18.601667","46.02","CAPE TOWN INTERNATIONAL, SF","FM-15","99999","V020","330,1,N,0041,1","99999,9,9,N","009999,1,9,9","+0190,1","+0170,1","99999,9",,,,,"04,1,+00427,1,99,9",,,"9,AGL   ,+99999,+99999","99,99,9,04,1,99,9,00427,1,99,9,99,9",,,"10100,1,99999,9",,,,,,"MET064METAR FACT 280300Z 33008KT 9999 SCT014 19/17 Q1010 TEMPO BKN014=",
"68816099999","2022-02-28T03:01:00","4","-33.964806","18.601667","46.02","CAPE TOWN INTERNATIONAL, SF","FM-16","99999","V020","330,1,N,0041,1","99999,9,9,N","009999,1,9,9","+0190,1","+0170,1","99999,9",,,,,"04,1,+00427,1,99,9",,,"9,AGL   ,+99999,+99999","99,99,9,04,1,99,9,00427,1,99,9,99,9",,,"10100,1,99999,9",,,,,,"MET064SPECI FACT 280301Z 33008KT 9999 SCT014 19/17 Q1010 TEMPO BKN014=",
"68816099999","2022-02-28T04:00:00","4","-33.964806","18.601667","46.02","CAPE TOWN INTERNATIONAL, SF","FM-15","99999","V020","340,1,N,0051,1","99999,9,9,N","009999,1,9,9","+0190,1","+0170,1","99999,9",,,,,"04,1,+00488,1,99,9",,,"9,AGL   ,+99999,+99999","99,99,9,04,1,99,9,00488,1,99,9,99,9",,,"10110,1,99999,9",,,,,,"MET057METAR FACT 280400Z 34010KT 9999 SCT016 19/17 Q1011 NOSIG=",
"68816099999","2022-02-28T04:30:00","4","-33.964806","18.601667","46.02","CAPE TOWN INTERNATIONAL, SF","FM-16","99999","V020","340,1,N,0062,1","00457,1,C,N","009999,1,9,9","+0190,1","+0170,1","99999,9",,,,,"07,1,+00457,1,99,9",,,"9,AGL   ,+99999,+99999","99,99,9,07,1,99,9,00457,1,99,9,99,9",,,"10110,1,99999,9",,,,,,"MET057SPECI FACT 280430Z 34012KT 9999 BKN015 19/17 Q1011 NOSIG=",
"68816099999","2022-02-28T05:00:00","4","-33.964806","18.601667","46.02","CAPE TOWN INTERNATIONAL, SF","FM-15","99999","V020","340,1,N,0062,1","00457,1,C,N","009999,1,9,9","+0190,1","+0170,1","99999,9",,,,,"07,1,+00457,1,99,9",,,"9,AGL   ,+99999,+99999","99,99,9,07,1,99,9,00457,1,99,9,99,9",,,"10110,1,99999,9",,,,,,"MET057METAR FACT 280500Z 34012KT 9999 BKN015 19/17 Q1011 NOSIG=",
"68816099999","2022-02-28T05:57:00","4","-33.964806","18.601667","46.02","CAPE TOWN INTERNATIONAL, SF","FM-16","99999","V020","330,1,N,0062,1","00366,1,9,N","009000,1,9,9","+0190,1","+0170,1","99999,9",,,,,"04,1,+00274,1,99,9","07,1,+00366,1,99,9",,"9,AGL   ,+99999,+99999","99,99,9,04,1,99,9,00274,1,99,9,99,9",,,"10120,1,99999,9",,"51,1",,,,"MET068SPECI FACT 280557Z 33012KT 9000 -DZ SCT009 BKN012 19/17 Q1012 NOSIG=",
"68816099999","2022-02-28T06:00:00","4","-33.964806","18.601667","46.02","CAPE TOWN INTERNATIONAL, SF","FM-12","99999","V020","330,1,N,0062,1","99999,9,9,N","009000,1,9,9","+0188,1","+0174,1","10125,1",,"2,1,02,1","2,1,02,1",,"07,1,+00450,1,06,1",,,"9,AGL   ,+99999,+99999","07,99,1,07,1,99,9,00450,1,99,9,99,9","240,N,+0181,1",,"99999,9,10071,1","2,1,017,1,+999,9","50,1",,,"4,99,0082,1,999","SYN09268816 31459 73312 10188 20174 30071 40125 52017 75022 875// 333 20181 91016 555 10338 91012=",
"68816099999","2022-02-28T06:00:00","4","-33.964806","18.601667","46.02","CAPE TOWN INTERNATIONAL, SF","FM-15","99999","V020","330,1,N,0062,1","00366,1,9,N","009000,1,9,9","+0190,1","+0170,1","99999,9",,,,,"04,1,+00274,1,99,9","07,1,+00366,1,99,9",,"9,AGL   ,+99999,+99999","99,99,9,04,1,99,9,00274,1,99,9,99,9",,,"10120,1,99999,9",,"51,1",,,,"MET068METAR FACT 280600Z 33012KT 9000 -DZ SCT009 BKN012 19/17 Q1012 NOSIG=",
"68816099999","2022-02-28T06:24:00","4","-33.964806","18.601667","46.02","CAPE TOWN INTERNATIONAL, SF","FM-16","99999","V020","350,1,N,0062,1","00549,1,9,N","009999,1,9,9","+0190,1","+0180,1","99999,9",,,,"01,U,9999,9","04,1,+00305,1,99,9","07,1,+00549,1,99,9",,"9,AGL   ,+99999,+99999","99,99,9,04,1,99,9,00305,1,99,9,99,9",,,"10120,1,99999,9",,,,,,"MET074SPECI FACT 280624Z 35012KT 9999 R01/P1500 SCT010 BKN018 19/18 Q1012 NOSIG=",
"68816099999","2022-02-28T07:00:00","4","-33.964806","18.601667","46.02","CAPE TOWN INTERNATIONAL, SF","FM-15","99999","V020","350,1,N,0067,1","00549,1,9,N","009999,1,9,9","+0200,1","+0170,1","99999,9",,,,,"02,1,+00305,1,99,9","07,1,+00549,1,99,9",,"9,AGL   ,+99999,+99999","99,99,9,02,1,99,9,00305,1,99,9,99,9",,,"10120,1,99999,9",,,,,,"MET064METAR FACT 280700Z 35013KT 9999 FEW010 BKN018 20/17 Q1012 NOSIG=",
"68816099999","2022-02-28T08:00:00","4","-33.964806","18.601667","46.02","CAPE TOWN INTERNATIONAL, SF","FM-15","99999","V020","350,1,N,0057,1","00549,1,C,N","009999,1,9,9","+0210,1","+0160,1","99999,9",,,,,"07,1,+00549,1,99,9",,,"9,AGL   ,+99999,+99999","99,99,9,07,1,99,9,00549,1,99,9,99,9",,,"10130,1,99999,9",,,,,,"MET057METAR FACT 280800Z 35011KT 9999 BKN018 21/16 Q1013 NOSIG=",
"68816099999","2022-02-28T09:00:00","4","-33.964806","18.601667","46.02","CAPE TOWN INTERNATIONAL, SF","FM-15","99999","V020","330,1,N,0062,1","00610,1,C,N","009999,1,9,9","+0220,1","+0160,1","99999,9",,,,,"07,1,+00610,1,99,9",,,"9,AGL   ,+99999,+99999","99,99,9,07,1,99,9,00610,1,99,9,99,9",,,"10130,1,99999,9",,,,,,"MET057METAR FACT 280900Z 33012KT 9999 BKN020 22/16 Q1013 NOSIG=",
"68816099999","2022-02-28T10:00:00","4","-33.964806","18.601667","46.02","CAPE TOWN INTERNATIONAL, SF","FM-15","99999","V020","360,1,N,0067,1","00762,1,C,N","009999,1,9,9","+0240,1","+0160,1","99999,9",,,,,"07,1,+00762,1,99,9",,,"9,AGL   ,+99999,+99999","99,99,9,07,1,99,9,00762,1,99,9,99,9",,,"10120,1,99999,9",,,,,,"MET057METAR FACT 281000Z 36013KT 9999 BKN025 24/16 Q1012 NOSIG=",
"68816099999","2022-02-28T11:00:00","4","-33.964806","18.601667","46.02","CAPE TOWN INTERNATIONAL, SF","FM-15","99999","V020","320,1,N,0057,1","00914,1,C,N","009999,1,9,9","+0250,1","+0160,1","99999,9",,,,,"07,1,+00914,1,99,9",,,"9,AGL   ,+99999,+99999","99,99,9,07,1,99,9,00914,1,99,9,99,9",,,"10120,1,99999,9",,,,,,"MET057METAR FACT 281100Z 32011KT 9999 BKN030 25/16 Q1012 NOSIG=",
"68816099999","2022-02-28T12:00:00","4","-33.964806","18.601667","46.02","CAPE TOWN INTERNATIONAL, SF","FM-12","99999","V020","310,1,N,0062,1","22000,1,9,N","025000,1,9,9","+0257,1","+0159,1","10114,1","06,0000,2,1",,,,"02,1,+01250,1,06,1",,,"9,AGL   ,+99999,+99999","02,99,1,02,1,99,9,01250,1,99,9,99,9","240,N,+0188,1",,"99999,9,10061,1","8,1,014,1,+999,9",,,,"4,99,0082,1,999","SYN09268816 12675 23112 10257 20159 30061 40114 58014 69901 82500 333 20188 91016 555 20000 91011=",
"68816099999","2022-02-28T12:00:00","4","-33.964806","18.601667","46.02","CAPE TOWN INTERNATIONAL, SF","FM-15","99999","V020","320,1,V,0046,1","99999,9,9,N","009999,1,9,9","+0250,1","+0160,1","99999,9",,,,,"02,1,+01067,1,99,9",,,"9,AGL   ,+99999,+99999","99,99,9,02,1,99,9,01067,1,99,9,99,9",,,"10110,1,99999,9",,,,,,"MET065METAR FACT 281200Z 32009KT 300V010 9999 FEW035 25/16 Q1011 NOSIG=",
"68816099999","2022-02-28T13:00:00","4","-33.964806","18.601667","46.02","CAPE TOWN INTERNATIONAL, SF","FM-15","99999","V020","330,1,V,0051,1","99999,9,9,Y","009900,5,9,9","+0260,1","+0160,1","99999,9",,,,,,,,,,,,"10100,1,99999,9",,,,,,"MET059METAR FACT 281300Z 33010KT 280V350 CAVOK 26/16 Q1010 NOSIG=",
"68816099999","2022-02-28T14:00:00","4","-33.964806","18.601667","46.02","CAPE TOWN INTERNATIONAL, SF","FM-15","99999","V020","310,1,N,0062,1","99999,9,9,Y","009900,5,9,9","+0260,1","+0160,1","99999,9",,,,,,,,,,,,"10100,1,99999,9",,,,,,"MET051METAR FACT 281400Z 31012KT CAVOK 26/16 Q1010 NOSIG=",
"68816099999","2022-02-28T15:00:00","4","-33.964806","18.601667","46.02","CAPE TOWN INTERNATIONAL, SF","FM-12","99999","V020","330,1,N,0067,1","99999,9,9,N","025000,1,9,9","+0243,1","+0160,1","10098,1",,,,,"01,1,+99999,9,03,1",,,"9,AGL   ,+99999,+99999","99,99,9,01,1,99,9,99999,9,99,9,99,9",,,"99999,9,10045,1","6,1,017,1,+999,9",,,,"4,99,0088,1,999","SYN06468816 42975 03313 10243 20160 30045 40098 56017 81080 333 91017=",
"68816099999","2022-02-28T15:00:00","4","-33.964806","18.601667","46.02","CAPE TOWN INTERNATIONAL, SF","FM-15","99999","V020","320,1,N,0067,1","99999,9,9,Y","009900,5,9,9","+0240,1","+0160,1","99999,9",,,,,,,,,,,,"10100,1,99999,9",,,,,,"MET051METAR FACT 281500Z 32013KT CAVOK 24/16 Q1010 NOSIG=",
"68816099999","2022-02-28T16:00:00","4","-33.964806","18.601667","46.02","CAPE TOWN INTERNATIONAL, SF","FM-15","99999","V020","320,1,N,0077,1","99999,9,9,Y","009900,5,9,9","+0230,1","+0170,1","99999,9",,,,,,,,,,,,"10100,1,99999,9",,,,,,"MET051METAR FACT 281600Z 32015KT CAVOK 23/17 Q1010 NOSIG=",
"68816099999","2022-02-28T17:00:00","4","-33.964806","18.601667","46.02","CAPE TOWN INTERNATIONAL, SF","FM-15","99999","V020","350,1,N,0026,1","99999,9,9,Y","009900,5,9,9","+0210,1","+0170,1","99999,9",,,,,,,,,,,,"10100,1,99999,9",,,,,,"MET051METAR FACT 281700Z 35005KT CAVOK 21/17 Q1010 NOSIG=",
"68816099999","2022-02-28T18:00:00","4","-33.964806","18.601667","46.02","CAPE TOWN INTERNATIONAL, SF","FM-12","99999","V020","340,1,N,0036,1","99999,9,9,N","025000,1,9,9","+0206,1","+0171,1","10110,1","12,0000,2,1",,,,,,,,,"120,M,+0265,1",,"99999,9,10056,1","3,1,012,1,+999,9",,,,"4,99,0051,1,999","SYN08668816 12975 03407 10206 20171 30056 40110 53012 69902 333 10265 91010 555 20000 91011=",
"68816099999","2022-02-28T18:00:00","4","-33.964806","18.601667","46.02","CAPE TOWN INTERNATIONAL, SF","FM-15","99999","V020","330,1,N,0036,1","99999,9,9,Y","009900,5,9,9","+0210,1","+0170,1","99999,9",,,,,,,,,,,,"10110,1,99999,9",,,,,,"MET051METAR FACT 281800Z 33007KT CAVOK 21/17 Q1011 NOSIG=",
"68816099999","2022-02-28T19:00:00","4","-33.964806","18.601667","46.02","CAPE TOWN INTERNATIONAL, SF","FM-15","99999","V020","300,1,V,0036,1","99999,9,9,Y","009900,5,9,9","+0200,1","+0170,1","99999,9",,,,,,,,,,,,"10120,1,99999,9",,,,,,"MET059METAR FACT 281900Z 30007KT 290V010 CAVOK 20/17 Q1012 NOSIG=",
"68816099999","2022-02-28T20:00:00","4","-33.964806","18.601667","46.02","CAPE TOWN INTERNATIONAL, SF","FM-15","99999","V020","999,9,V,0015,1","99999,9,9,Y","009900,5,9,9","+0190,1","+0170,1","99999,9",,,,,,,,,,,,"10120,1,99999,9",,,,,,"MET051METAR FACT 282000Z VRB03KT CAVOK 19/17 Q1012 NOSIG=",
"68816099999","2022-02-28T21:00:00","4","-33.964806","18.601667","46.02","CAPE TOWN INTERNATIONAL, SF","FM-15","99999","V020","320,1,N,0015,1","99999,9,9,Y","009900,5,9,9","+0190,1","+0170,1","99999,9",,,,,,,,,,,,"10120,1,99999,9",,,,,,"MET051METAR FACT 282100Z 32003KT CAVOK 19/17 Q1012 NOSIG=",
"68816099999","2022-02-28T22:00:00","4","-33.964806","18.601667","46.02","CAPE TOWN INTERNATIONAL, SF","FM-15","99999","V020","320,1,N,0026,1","99999,9,9,N","009999,1,9,9","+0190,1","+0170,1","99999,9",,,,,"02,1,+00213,1,99,9",,,"9,AGL   ,+99999,+99999","99,99,9,02,1,99,9,00213,1,99,9,99,9",,,"10120,1,99999,9",,,,,,"MET072METAR FACT 282200Z 32005KT 9999 FEW007 19/17 Q1012 TEMPO 5000 BR BKN010=",
"68816099999","2022-02-28T23:00:00","4","-33.964806","18.601667","46.02","CAPE TOWN INTERNATIONAL, SF","FM-15","99999","V020","340,1,N,0031,1","99999,9,9,N","009999,1,9,9","+0190,1","+0180,1","99999,9",,,,,"04,1,+00183,1,99,9",,,"9,AGL   ,+99999,+99999","99,99,9,04,1,99,9,00183,1,99,9,99,9",,,"10120,1,99999,9",,,,,,"MET072METAR FACT 282300Z 34006KT 9999 SCT006 19/18 Q1012 TEMPO 5000 BR BKN010=",
"68816099999","2022-03-01T00:00:00","4","-33.964806","18.601667","46.02","CAPE TOWN INTERNATIONAL, SF","FM-12","99999","V020","350,1,N,0031,1","22000,1,9,N","010000,1,9,9","+0185,1","+0175,1","10117,1",,,,,"03,1,+00150,1,07,1",,,"9,AGL   ,+99999,+99999","03,99,1,03,1,99,9,00150,1,99,9,99,9",,,"99999,9,10062,1","7,1,006,1,+999,9",,,,"4,99,0036,1,999","SYN07468816 32260 33506 10185 20175 30062 40117 57006 83600 333 91007 555 91011=",
"68816099999","2022-03-01T00:00:00","4","-33.964806","18.601667","46.02","CAPE TOWN INTERNATIONAL, SF","FM-15","99999","V020","350,1,N,0031,1","99999,9,9,N","009999,1,9,9","+0180,1","+0170,1","99999,9",,,,,"04,1,+00183,1,99,9",,,"9,AGL   ,+99999,+99999","99,99,9,04,1,99,9,00183,1,99,9,99,9",,,"10110,1,99999,9",,,,,,"MET072METAR FACT 010000Z 35006KT 9999 SCT006 18/17 Q1011 TEMPO 5000 BR BKN006=",
"68816099999","2022-03-01T01:00:00","4","-33.964806","18.601667","46.02","CAPE TOWN INTERNATIONAL, SF","FM-15","99999","V020","340,1,N,0021,1","99999,9,9,N","009999,1,9,9","+0180,1","+0170,1","99999,9",,,,,"02,1,+00366,1,99,9",,,"9,AGL   ,+99999,+99999","99,99,9,02,1,99,9,00366,1,99,9,99,9",,,"10110,1,99999,9",,,,,,"MET072METAR FACT 010100Z 34004KT 9999 FEW012 18/17 Q1011 TEMPO 5000 BR BKN010=",
"68816099999","2022-03-01T02:00:00","4","-33.964806","18.601667","46.02","CAPE TOWN INTERNATIONAL, SF","FM-15","99999","V020","010,1,N,0021,1","00914,1,C,N","009999,1,9,9","+0180,1","+0160,1","99999,9",,,,,"02,1,+00305,1,99,9","04,1,+00914,1,99,9",,"9,AGL   ,+99999,+99999","99,99,9,02,1,99,9,00305,1,99,9,99,9",,,"10110,1,99999,9",,,,,,"MET064METAR FACT 010200Z 01004KT 9999 FEW010 SCT030 18/16 Q1011 NOSIG=",
"68816099999","2022-03-01T03:00:00","4","-33.964806","18.601667","46.02","CAPE TOWN INTERNATIONAL, SF","FM-12","99999","V020","030,1,N,0041,1","99999,9,9,N","010000,1,9,9","+0185,1","+0175,1","10117,1",,,,,"07,1,+00800,1,06,1",,,"9,AGL   ,+99999,+99999","07,99,1,07,1,99,9,00800,1,99,9,99,9",,,"99999,9,10062,1","7,1,005,1,+999,9",,,,"4,99,0057,1,999","SYN06468816 42560 70308 10185 20175 30062 40117 57005 875// 333 91011=",
"68816099999","2022-03-01T03:00:00","4","-33.964806","18.601667","46.02","CAPE TOWN INTERNATIONAL, SF","FM-15","99999","V020","030,1,N,0041,1","00914,1,C,N","009999,1,9,9","+0180,1","+0170,1","99999,9",,,,,"07,1,+00914,1,99,9",,,"9,AGL   ,+99999,+99999","99,99,9,07,1,99,9,00914,1,99,9,99,9",,,"10110,1,99999,9",,,,,,"MET057METAR FACT 010300Z 03008KT 9999 BKN030 18/17 Q1011 NOSIG=",
"68816099999","2022-03-01T04:00:00","4","-33.964806","18.601667","46.02","CAPE TOWN INTERNATIONAL, SF","FM-15","99999","V020","020,1,N,0036,1","00914,1,C,N","009999,1,9,9","+0190,1","+0170,1","99999,9",,,,,"07,1,+00914,1,99,9",,,"9,AGL   ,+99999,+99999","99,99,9,07,1,99,9,00914,1,99,9,99,9",,,"10110,1,99999,9",,,,,,"MET057METAR FACT 010400Z 02007KT 9999 BKN030 19/17 Q1011 NOSIG=",
"68816099999","2022-03-01T05:00:00","4","-33.964806","18.601667","46.02","CAPE TOWN INTERNATIONAL, SF","FM-15","99999","V020","010,1,N,0041,1","01067,1,C,N","009999,1,9,9","+0200,1","+0170,1","99999,9",,,,,"07,1,+01067,1,99,9",,,"9,AGL   ,+99999,+99999","99,99,9,07,1,99,9,01067,1,99,9,99,9",,,"10120,1,99999,9",,,,,,"MET057METAR FACT 010500Z 01008KT 9999 BKN035 20/17 Q1012 NOSIG=",
"68816099999","2022-03-01T06:00:00","4","-33.964806","18.601667","46.02","CAPE TOWN INTERNATIONAL, SF","FM-12","99999","V020","360,1,N,0057,1","99999,9,9,N","020000,1,9,9","+0205,1","+0164,1","10125,1","24,0000,2,1",,,,"07,1,+00800,1,06,1",,,"9,AGL   ,+99999,+99999","07,99,1,07,1,99,9,00800,1,99,9,99,9","240,N,+0176,1",,"99999,9,10071,1","3,1,012,1,+999,9",,,,"4,99,0072,1,999","SYN09868816 12570 70011 10205 20164 30071 40125 53012 69904 87500 333 20176 91014 555 10265 20000 91012=",
"68816099999","2022-03-01T06:00:00","4","-33.964806","18.601667","46.02","CAPE TOWN INTERNATIONAL, SF","FM-15","99999","V020","010,1,N,0057,1","00914,1,C,N","009999,1,9,9","+0200,1","+0160,1","99999,9",,,,,"07,1,+00914,1,99,9",,,"9,AGL   ,+99999,+99999","99,99,9,07,1,99,9,00914,1,99,9,99,9",,,"10120,1,99999,9",,,,,,"MET057METAR FACT 010600Z 01011KT 9999 BKN030 20/16 Q1012 NOSIG=",
"68816099999","2022-03-01T07:00:00","4","-33.964806","18.601667","46.02","CAPE TOWN INTERNATIONAL, SF","FM-15","99999","V020","020,1,N,0051,1","01006,1,9,N","009999,1,9,9","+0220,1","+0160,1","99999,9",,,,,"02,1,+00914,1,99,9","07,1,+01006,1,99,9",,"9,AGL   ,+99999,+99999","99,99,9,02,1,99,9,00914,1,99,9,99,9",,,"10120,1,99999,9",,,,,,"MET064METAR FACT 010700Z 02010KT 9999 FEW030 BKN033 22/16 Q1012 NOSIG=",
"68816099999","2022-03-01T08:00:00","4","-33.964806","18.601667","46.02","CAPE TOWN INTERNATIONAL, SF","FM-15","99999","V020","360,1,V,0051,1","01067,1,9,N","009999,1,9,9","+0230,1","+0150,1","99999,9",,,,,"02,1,+00762,1,99,9","07,1,+01067,1,99,9",,"9,AGL   ,+99999,+99999","99,99,9,02,1,99,9,00762,1,99,9,99,9",,,"10120,1,99999,9",,,,,,"MET072METAR FACT 010800Z 36010KT 330V030 9999 FEW025 BKN035 23/15 Q1012 NOSIG=",
"68816099999","2022-03-01T09:00:00","4","-33.964806","18.601667","46.02","CAPE TOWN INTERNATIONAL, SF","FM-15","99999","V020","320,1,V,0046,1","01067,1,C,N","009999,1,9,9","+0240,1","+0150,1","99999,9",,,,,"07,1,+01067,1,99,9",,,"9,AGL   ,+99999,+99999","99,99,9,07,1,99,9,01067,1,99,9,99,9",,,"10120,1,99999,9",,,,,,"MET065METAR FACT 010900Z 32009KT 280V360 9999 BKN035 24/15 Q1012 NOSIG=",
"68816099999","2022-03-01T10:00:00","4","-33.964806","18.601667","46.02","CAPE TOWN INTERNATIONAL, SF","FM-15","99999","V020","320,1,N,0062,1","01219,1,C,N","009999,1,9,9","+0250,1","+0160,1","99999,9",,,,,"02,1,+01067,1,99,9","04,1,+01219,1,99,9",,"9,AGL   ,+99999,+99999","99,99,9,02,1,99,9,01067,1,99,9,99,9",,,"10120,1,99999,9",,,,,,"MET064METAR FACT 011000Z 32012KT 9999 FEW035 SCT040 25/16 Q1012 NOSIG=",
"68816099999","2022-03-01T11:00:00","4","-33.964806","18.601667","46.02","CAPE TOWN INTERNATIONAL, SF","FM-15","99999","V020","300,1,N,0077,1","99999,9,9,N","009999,1,9,9","+0250,1","+0160,1","99999,9",,,,,"02,1,+01067,1,99,9",,,"9,AGL   ,+99999,+99999","99,99,9,02,1,99,9,01067,1,99,9,99,9",,,"10110,1,99999,9",,,,,,"MET057METAR FACT 011100Z 30015KT 9999 FEW035 25/16 Q1011 NOSIG=",
"68816099999","2022-03-01T11:56:00","4","-33.964806","18.601667","46.02","CAPE TOWN INTERNATIONAL, SF","FM-16","99999","V020","300,1,N,0082,1","99999,9,9,N","009999,1,9,9","+0270,1","+0150,1","99999,9",,,,,"02,1,+01219,1,99,9",,,"9,AGL   ,+99999,+99999","99,99,9,02,1,99,9,01219,1,99,9,99,9",,,"10100,1,99999,9",,,,,,"MET057SPECI FACT 011156Z 30016KT 9999 FEW040 27/15 Q1010 NOSIG=",
"68816099999","2022-03-01T12:00:00","4","-33.964806","18.601667","46.02","CAPE TOWN INTERNATIONAL, SF","FM-12","99999","V020","300,1,N,0082,1","22000,1,9,N","020000,1,9,9","+0265,1","+0146,1","10106,1",,,,,"01,1,+01250,1,06,1",,,"9,AGL   ,+99999,+99999","01,99,1,01,1,99,9,01250,1,99,9,99,9","240,N,+0204,1",,"99999,9,10051,1","7,1,014,1,+999,9",,,,"4,99,0077,1,999","SYN08068816 32670 13016 10265 20146 30051 40106 57014 81500 333 20204 91015 555 91010=",
"68816099999","2022-03-01T12:00:00","4","-33.964806","18.601667","46.02","CAPE TOWN INTERNATIONAL, SF","FM-15","99999","V020","300,1,N,0082,1","99999,9,9,N","009999,1,9,9","+0270,1","+0150,1","99999,9",,,,,"02,1,+01219,1,99,9",,,"9,AGL   ,+99999,+99999","99,99,9,02,1,99,9,01219,1,99,9,99,9",,,"10100,1,99999,9",,,,,,"MET057METAR FACT 011200Z 30016KT 9999 FEW040 27/15 Q1010 NOSIG=",
"68816099999","2022-03-01T13:00:00","4","-33.964806","18.601667","46.02","CAPE TOWN INTERNATIONAL, SF","FM-15","99999","V020","310,1,N,0082,1","99999,9,9,N","009999,1,9,9","+0260,1","+0160,1","99999,9",,,,,"02,1,+01219,1,99,9",,,"9,AGL   ,+99999,+99999","99,99,9,02,1,99,9,01219,1,99,9,99,9",,,"10100,1,99999,9",,,,,,"MET057METAR FACT 011300Z 31016KT 9999 FEW040 26/16 Q1010 NOSIG=",
"68816099999","2022-03-01T14:00:00","4","-33.964806","18.601667","46.02","CAPE TOWN INTERNATIONAL, SF","FM-15","99999","V020","310,1,N,0082,1","99999,9,9,N","009999,1,9,9","+0240,1","+0160,1","99999,9",,,,,"02,1,+01158,1,99,9",,,"9,AGL   ,+99999,+99999","99,99,9,02,1,99,9,01158,1,99,9,99,9",,,"10090,1,99999,9",,,,,,"MET057METAR FACT 011400Z 31016KT 9999 FEW038 24/16 Q1009 NOSIG=",
"68816099999","2022-03-01T15:00:00","4","-33.964806","18.601667","46.02","CAPE TOWN INTERNATIONAL, SF","FM-12","99999","V020","300,1,N,0088,1","22000,1,9,N","025000,1,9,9","+0232,1","+0168,1","10092,1",,,,,"01,1,+01250,1,06,1",,,"9,AGL   ,+99999,+99999","01,99,1,01,1,99,9,01250,1,99,9,99,9",,,"99999,9,10039,1","6,1,011,1,+999,9",,,,"4,99,0118,1,999","SYN06468816 42675 13017 10232 20168 30039 40092 56011 81500 333 91023=",
"68816099999","2022-03-01T15:00:00","4","-33.964806","18.601667","46.02","CAPE TOWN INTERNATIONAL, SF","FM-15","99999","V020","310,1,N,0088,1","99999,9,9,N","009999,1,9,9","+0240,1","+0170,1","99999,9",,,,,"02,1,+01219,1,99,9",,,"9,AGL   ,+99999,+99999","99,99,9,02,1,99,9,01219,1,99,9,99,9",,,"10090,1,99999,9",,,,,,"MET057METAR FACT 011500Z 31017KT 9999 FEW040 24/17 Q1009 NOSIG=",
"68816099999","2022-03-01T16:00:00","4","-33.964806","18.601667","46.02","CAPE TOWN INTERNATIONAL, SF","FM-15","99999","V020","320,1,N,0072,1","99999,9,9,N","009999,1,9,9","+0220,1","+0170,1","99999,9",,,,,"02,1,+00610,1,99,9",,,"9,AGL   ,+99999,+99999","99,99,9,02,1,99,9,00610,1,99,9,99,9",,,"10090,1,99999,9",,,,,,"MET057METAR FACT 011600Z 32014KT 9999 FEW020 22/17 Q1009 NOSIG=",
"68816099999","2022-03-01T17:00:00","4","-33.964806","18.601667","46.02","CAPE TOWN INTERNATIONAL, SF","FM-15","99999","V020","330,1,N,0067,1","99999,9,9,N","009999,1,9,9","+0190,1","+0170,1","99999,9",,,,,"02,1,+00305,1,99,9",,,"9,AGL   ,+99999,+99999","99,99,9,02,1,99,9,00305,1,99,9,99,9",,,"10100,1,99999,9",,,,,,"MET057METAR FACT 011700Z 33013KT 9999 FEW010 19/17 Q1010 NOSIG=",
"68816099999","2022-03-01T18:00:00","4","-33.964806","18.601667","46.02","CAPE TOWN INTERNATIONAL, SF","FM-12","99999","V020","010,1,N,0041,1","22000,1,9,N","020000,1,9,9","+0183,1","+0168,1","10110,1",,,,,"04,1,+01250,1,06,1",,,"9,AGL   ,+99999,+99999","04,99,1,04,1,99,9,01250,1,99,9,99,9","120,M,+0271,1",,"99999,9,10055,1","3,1,016,1,+999,9",,,,"4,99,0062,1,999","SYN08068816 32670 40108 10183 20168 30055 40110 53016 84500 333 10271 91012 555 91011=",
"68816099999","2022-03-01T18:00:00","4","-33.964806","18.601667","46.02","CAPE TOWN INTERNATIONAL, SF","FM-15","99999","V020","010,1,N,0051,1","01402,1,C,N","009999,1,9,9","+0180,1","+0170,1","99999,9",,,,,"02,1,+00183,1,99,9","04,1,+01402,1,99,9",,"9,AGL   ,+99999,+99999","99,99,9,02,1,99,9,00183,1,99,9,99,9",,,"10110,1,99999,9",,,,,,"MET064METAR FACT 011800Z 01010KT 9999 FEW006 SCT046 18/17 Q1011 NOSIG=",
"68816099999","2022-03-01T19:00:00","4","-33.964806","18.601667","46.02","CAPE TOWN INTERNATIONAL, SF","FM-15","99999","V020","340,1,N,0057,1","01524,1,C,N","009999,1,9,9","+0190,1","+0170,1","99999,9",,,,,"07,1,+01524,1,99,9",,,"9,AGL   ,+99999,+99999","99,99,9,07,1,99,9,01524,1,99,9,99,9",,,"10110,1,99999,9",,,,,,"MET057METAR FACT 011900Z 34011KT 9999 BKN050 19/17 Q1011 NOSIG=",
"68816099999","2022-03-01T20:00:00","4","-33.964806","18.601667","46.02","CAPE TOWN INTERNATIONAL, SF","FM-15","99999","V020","340,1,N,0046,1","01524,1,C,N","009999,1,9,9","+0190,1","+0170,1","99999,9",,,,,"07,1,+01524,1,99,9",,,"9,AGL   ,+99999,+99999","99,99,9,07,1,99,9,01524,1,99,9,99,9",,,"10110,1,99999,9",,,,,,"MET057METAR FACT 012000Z 34009KT 9999 BKN050 19/17 Q1011 NOSIG=",
"68816099999","2022-03-01T21:00:00","4","-33.964806","18.601667","46.02","CAPE TOWN INTERNATIONAL, SF","FM-15","99999","V020","330,1,N,0036,1","99999,9,9,N","009999,1,9,9","+0190,1","+0170,1","99999,9",,,,,"04,1,+01524,1,99,9",,,"9,AGL   ,+99999,+99999","99,99,9,04,1,99,9,01524,1,99,9,99,9",,,"10110,1,99999,9",,,,,,"MET057METAR FACT 012100Z 33007KT 9999 SCT050 19/17 Q1011 NOSIG=",
"68816099999","2022-03-01T22:00:00","4","-33.964806","18.601667","46.02","CAPE TOWN INTERNATIONAL, SF","FM-15","99999","V020","330,1,N,0026,1","99999,9,9,N","009999,1,9,9","+0180,1","+0170,1","99999,9",,,,,"02,1,+01676,1,99,9",,,"9,AGL   ,+99999,+99999","99,99,9,02,1,99,9,01676,1,99,9,99,9",,,"10110,1,99999,9",,,,,,"MET057METAR FACT 012200Z 33005KT 9999 FEW055 18/17 Q1011 NOSIG=",
"68816099999","2022-03-01T23:00:00","4","-33.964806","18.601667","46.02","CAPE TOWN INTERNATIONAL, SF","FM-15","99999","V020","340,1,N,0051,1","01524,1,C,N","009999,1,9,9","+0190,1","+0170,1","99999,9",,,,,"02,1,+00335,1,99,9","04,1,+01524,1,99,9",,"9,AGL   ,+99999,+99999","99,99,9,02,1,99,9,00335,1,99,9,99,9",,,"10100,1,99999,9",,,,,,"MET064METAR FACT 012300Z 34010KT 9999 FEW011 SCT050 19/17 Q1010 NOSIG=",
"68816099999","2022-03-02T00:00:00","4","-33.964806","18.601667","46.02","CAPE TOWN INTERNATIONAL, SF","FM-12","99999","V020","360,1,N,0026,1","22000,1,9,N","020000,1,9,9","+0187,1","+0172,1","10107,1",,,,,"02,1,+01750,1,06,1",,,"9,AGL   ,+99999,+99999","02,99,1,02,1,99,9,01750,1,99,9,99,9","120,M,+0191,1","120,N,+0182,1","99999,9,10052,1","3,1,016,1,+999,9",,,,"4,99,0031,1,999","SYN08668816 32770 23605 10187 20172 30052 40107 53016 82500 333 10191 20182 91006 555 91010=",
"68816099999","2022-03-02T00:00:00","4","-33.964806","18.601667","46.02","CAPE TOWN INTERNATIONAL, SF","FM-15","99999","V020","360,1,V,0026,1","99999,9,9,N","009999,1,9,9","+0180,1","+0170,1","99999,9",,,,,"02,1,+01524,1,99,9",,,"9,AGL   ,+99999,+99999","99,99,9,02,1,99,9,01524,1,99,9,99,9",,,"10100,1,99999,9",,,,,,"MET065METAR FACT 020000Z 36005KT 330V030 9999 FEW050 18/17 Q1010 NOSIG=",
"68816099999","2022-03-02T01:00:00","4","-33.964806","18.601667","46.02","CAPE TOWN INTERNATIONAL, SF","FM-15","99999","V020","020,1,N,0036,1","00457,1,C,N","009999,1,9,9","+0190,1","+0170,1","99999,9",,,,,"07,1,+00457,1,99,9",,,"9,AGL   ,+99999,+99999","99,99,9,07,1,99,9,00457,1,99,9,99,9",,,"10100,1,99999,9",,,,,,"MET057METAR FACT 020100Z 02007KT 9999 BKN015 19/17 Q1010 NOSIG=",
"68816099999","2022-03-02T01:02:00","4","-33.964806","18.601667","46.02","CAPE TOWN INTERNATIONAL, SF","FM-16","99999","V020","020,1,N,0036,1","00457,1,C,N","009999,1,9,9","+0190,1","+0170,1","99999,9",,,,,"07,1,+00457,1,99,9",,,"9,AGL   ,+99999,+99999","99,99,9,07,1,99,9,00457,1,99,9,99,9",,,"10100,1,99999,9",,,,,,"MET057SPECI FACT 020102Z 02007KT 9999 BKN015 19/17 Q1010 NOSIG=",
"68816099999","2022-03-02T01:58:00","4","-33.964806","18.601667","46.02","CAPE TOWN INTERNATIONAL, SF","FM-16","99999","V020","020,1,N,0041,1","01219,1,9,N","009999,1,9,9","+0200,1","+0170,1","99999,9",,,,,"02,1,+00610,1,99,9","07,1,+01219,1,99,9",,"9,AGL   ,+99999,+99999","99,99,9,02,1,99,9,00610,1,99,9,99,9",,,"10090,1,99999,9",,,,,,"MET064SPECI FACT 020158Z 02008KT 9999 FEW020 BKN040 20/17 Q1009 NOSIG=",
"68816099999","2022-03-02T02:00:00","4","-33.964806","18.601667","46.02","CAPE TOWN INTERNATIONAL, SF","FM-15","99999","V020","020,1,N,0041,1","01219,1,9,N","009999,1,9,9","+0200,1","+0170,1","99999,9",,,,,"02,1,+00610,1,99,9","07,1,+01219,1,99,9",,"9,AGL   ,+99999,+99999","99,99,9,02,1,99,9,00610,1,99,9,99,9",,,"10090,1,99999,9",,,,,,"MET064METAR FACT 020200Z 02008KT 9999 FEW020 BKN040 20/17 Q1009 NOSIG=",
"68816099999","2022-03-02T03:00:00","4","-33.964806","18.601667","46.02","CAPE TOWN INTERNATIONAL, SF","FM-15","99999","V020","010,1,N,0046,1","00762,1,9,N","009999,1,9,9","+0200,1","+0180,1","99999,9",,,,,"02,1,+00457,1,99,9","07,1,+00762,1,99,9",,"9,AGL   ,+99999,+99999","99,99,9,02,1,99,9,00457,1,99,9,99,9",,,"10090,1,99999,9",,,,,,"MET064METAR FACT 020300Z 01009KT 9999 FEW015 BKN025 20/18 Q1009 NOSIG=",
"68816099999","2022-03-02T04:00:00","4","-33.964806","18.601667","46.02","CAPE TOWN INTERNATIONAL, SF","FM-15","99999","V020","010,1,N,0051,1","01524,1,9,N","009999,1,9,9","+0210,1","+0170,1","99999,9",,,,,"02,1,+01067,1,99,9","07,1,+01524,1,99,9",,"9,AGL   ,+99999,+99999","99,99,9,02,1,99,9,01067,1,99,9,99,9",,,"10090,1,99999,9",,,,,,"MET064METAR FACT 020400Z 01010KT 9999 FEW035 BKN050 21/17 Q1009 NOSIG=",
"68816099999","2022-03-02T05:00:00","4","-33.964806","18.601667","46.02","CAPE TOWN INTERNATIONAL, SF","FM-15","99999","V020","010,1,N,0046,1","01219,1,9,N","009999,1,9,9","+0200,1","+0180,1","99999,9",,,,,"02,1,+00610,1,99,9","07,1,+01219,1,99,9",,"9,AGL   ,+99999,+99999","99,99,9,02,1,99,9,00610,1,99,9,99,9",,,"10090,1,99999,9",,,,,,"MET064METAR FACT 020500Z 01009KT 9999 FEW020 BKN040 20/18 Q1009 NOSIG=",
"68816099999","2022-03-02T06:00:00","4","-33.964806","18.601667","46.02","CAPE TOWN INTERNATIONAL, SF","FM-12","99999","V020","360,1,N,0057,1","99999,9,9,N","030000,1,9,9","+0207,1","+0171,1","10100,1","24,0000,9,1",,,,"07,1,+00800,1,06,1",,,"9,AGL   ,+99999,+99999","07,99,1,07,1,99,9,00800,1,99,9,99,9","240,N,+0180,1",,"99999,9,10046,1","2,1,006,1,+999,9",,,,"4,99,0077,1,999","SYN09868816 12580 73611 10207 20171 30046 40100 52006 69904 875// 333 20180 91015 555 10271 20000 91010=","Q01  00002PRCP24"
"68816099999","2022-03-02T06:00:00","4","-33.964806","18.601667","46.02","CAPE TOWN INTERNATIONAL, SF","FM-15","99999","V020","360,1,N,0062,1","01097,1,9,N","009999,1,9,9","+0210,1","+0170,1","99999,9",,,,,"02,1,+00762,1,99,9","07,1,+01097,1,99,9",,"9,AGL   ,+99999,+99999","99,99,9,02,1,99,9,00762,1,99,9,99,9",,,"10100,1,99999,9",,,,,,"MET064METAR FACT 020600Z 36012KT 9999 FEW025 BKN036 21/17 Q1010 NOSIG=",
"68816099999","2022-03-02T07:00:00","4","-33.964806","18.601667","46.02","CAPE TOWN INTERNATIONAL, SF","FM-15","99999","V020","350,1,N,0041,1","01189,1,9,N","009999,1,9,9","+0200,1","+0180,1","99999,9",,,,,"04,1,+00792,1,99,9","07,1,+01189,1,99,9",,"9,AGL   ,+99999,+99999","99,99,9,04,1,99,9,00792,1,99,9,99,9",,,"10100,1,99999,9",,,,,,"MET064METAR FACT 020700Z 35008KT 9999 SCT026 BKN039 20/18 Q1010 NOSIG=",
"68816099999","2022-03-02T08:00:00","4","-33.964806","18.601667","46.02","CAPE TOWN INTERNATIONAL, SF","FM-15","99999","V020","340,1,N,0077,1","01372,1,9,N","009999,1,9,9","+0220,1","+0180,1","99999,9",,,,,"04,1,+00610,1,99,9","07,1,+01372,1,99,9",,"9,AGL   ,+99999,+99999","99,99,9,04,1,99,9,00610,1,99,9,99,9",,,"10100,1,99999,9",,,,,,"MET064METAR FACT 020800Z 34015KT 9999 SCT020 BKN045 22/18 Q1010 NOSIG=",
"68816099999","2022-03-02T09:00:00","4","-33.964806","18.601667","46.02","CAPE TOWN INTERNATIONAL, SF","FM-15","99999","V020","350,1,V,0051,1","01250,1,9,N","009999,1,9,9","+0220,1","+0170,1","99999,9",,,,,"04,1,+00579,1,99,9","07,1,+01250,1,99,9",,"9,AGL   ,+99999,+99999","99,99,9,04,1,99,9,00579,1,99,9,99,9",,,"10100,1,99999,9",,,,,,"MET072METAR FACT 020900Z 35010KT 320V020 9999 SCT019 BKN041 22/17 Q1010 NOSIG=",
"68816099999","2022-03-02T10:00:00","4","-33.964806","18.601667","46.02","CAPE TOWN INTERNATIONAL, SF","FM-15","99999","V020","330,1,N,0082,1","99999,9,9,N","009999,1,9,9","+0240,1","+0170,1","99999,9",,,,,"04,1,+00732,1,99,9",,,"9,AGL   ,+99999,+99999","99,99,9,04,1,99,9,00732,1,99,9,99,9",,,"10110,1,99999,9",,,,,,"MET057METAR FACT 021000Z 33016KT 9999 SCT024 24/17 Q1011 NOSIG=",
"68816099999","2022-03-02T11:00:00","4","-33.964806","18.601667","46.02","CAPE TOWN INTERNATIONAL, SF","FM-15","99999","V020","310,1,N,0062,1","99999,9,9,N","009999,1,9,9","+0240,1","+0160,1","99999,9",,,,,"04,1,+00762,1,99,9",,,"9,AGL   ,+99999,+99999","99,99,9,04,1,99,9,00762,1,99,9,99,9",,,"10100,1,99999,9",,,,,,"MET057METAR FACT 021100Z 31012KT 9999 SCT025 24/16 Q1010 NOSIG=",
"68816099999","2022-03-02T12:00:00","4","-33.964806","18.601667","46.02","CAPE TOWN INTERNATIONAL, SF","FM-12","99999","V020","310,1,N,0088,1","22000,1,9,N","020000,1,9,9","+0239,1","+0177,1","10105,1",,,,,"03,1,+00800,1,06,1","99,9,+99999,9,03,1",,"9,AGL   ,+99999,+99999","04,99,1,03,1,99,9,00800,1,99,9,99,9",,,"99999,9,10052,1","2,1,001,1,+999,9",,,,"4,99,0113,1,999","SYN07468816 32570 43117 10239 20177 30052 40105 52001 83550 333 91022 555 91010=",
"68816099999","2022-03-02T12:00:00","4","-33.964806","18.601667","46.02","CAPE TOWN INTERNATIONAL, SF","FM-15","99999","V020","310,1,V,0088,1","99999,9,9,N","009999,1,9,9","+0240,1","+0180,1","99999,9",,,,,"04,1,+00762,1,99,9",,,"9,AGL   ,+99999,+99999","99,99,9,04,1,99,9,00762,1,99,9,99,9",,,"10100,1,99999,9",,,,,,"MET065METAR FACT 021200Z 31017KT 270V330 9999 SCT025 24/18 Q1010 NOSIG=",
"68816099999","2022-03-02T13:00:00","4","-33.964806","18.601667","46.02","CAPE TOWN INTERNATIONAL, SF","FM-15","99999","V020","320,1,N,0082,1","99999,9,9,N","009999,1,9,9","+0240,1","+0180,1","99999,9",,,,,"04,1,+00610,1,99,9","02,1,+01219,1,08,1",,"9,AGL   ,+99999,+99999","99,99,9,04,1,99,9,00610,1,99,9,99,9",,,"10100,1,99999,9",,,,,,"MET067METAR FACT 021300Z 32016KT 9999 SCT020 FEW040TCU 24/18 Q1010 NOSIG=",
"68816099999","2022-03-02T14:00:00","4","-33.964806","18.601667","46.02","CAPE TOWN INTERNATIONAL, SF","FM-15","99999","V020","310,1,V,0082,1","99999,9,9,N","009999,1,9,9","+0240,1","+0170,1","99999,9",,,,,"04,1,+00914,1,99,9",,,"9,AGL   ,+99999,+99999","99,99,9,04,1,99,9,00914,1,99,9,99,9",,,"10100,1,99999,9",,,,,,"MET065METAR FACT 021400Z 31016KT 280V340 9999 SCT030 24/17 Q1010 NOSIG=",
"68816099999","2022-03-02T15:00:00","4","-33.964806","18.601667","46.02","CAPE TOWN INTERNATIONAL, SF","FM-15","99999","V020","300,1,N,0072,1","99999,9,9,N","009999,1,9,9","+0230,1","+0180,1","99999,9",,,,,"02,1,+00914,1,99,9",,,"9,AGL   ,+99999,+99999","99,99,9,02,1,99,9,00914,1,99,9,99,9",,,"10100,1,99999,9",,,,,,"MET057METAR FACT 021500Z 30014KT 9999 FEW030 23/18 Q1010 NOSIG=",
"68816099999","2022-03-02T16:00:00","4","-33.964806","18.601667","46.02","CAPE TOWN INTERNATIONAL, SF","FM-15","99999","V020","310,1,N,0072,1","99999,9,9,N","009999,1,9,9","+0230,1","+0190,1","99999,9",,,,,"02,1,+00762,1,99,9",,,"9,AGL   ,+99999,+99999","99,99,9,02,1,99,9,00762,1,99,9,99,9",,,"10100,1,99999,9",,,,,,"MET057METAR FACT 021600Z 31014KT 9999 FEW025 23/19 Q1010 NOSIG=",
"68816099999","2022-03-02T17:00:00","4","-33.964806","18.601667","46.02","CAPE TOWN INTERNATIONAL, SF","FM-15","99999","V020","320,1,N,0046,1","99999,9,9,N","009999,1,9,9","+0210,1","+0180,1","99999,9",,,,,"02,1,+00914,1,99,9",,,"9,AGL   ,+99999,+99999","99,99,9,02,1,99,9,00914,1,99,9,99,9",,,"10100,1,99999,9",,,,,,"MET057METAR FACT 021700Z 32009KT 9999 FEW030 21/18 Q1010 NOSIG=",
"68816099999","2022-03-02T18:00:00","4","-33.964806","18.601667","46.02","CAPE TOWN INTERNATIONAL, SF","FM-12","99999","V020","340,1,N,0046,1","22000,1,9,N","020000,1,9,9","+0236,1","+0182,1","10101,1",,,,,"03,1,+00800,1,06,1",,,"9,AGL   ,+99999,+99999","03,99,1,03,1,99,9,00800,1,99,9,99,9","120,M,+0254,1",,"99999,9,10047,1","2,1,008,1,+999,9",,,,"4,99,0051,1,999","SYN08068816 32570 33409 10236 20182 30047 40101 52008 83500 333 10254 91010 555 91010=",
"68816099999","2022-03-02T18:00:00","4","-33.964806","18.601667","46.02","CAPE TOWN INTERNATIONAL, SF","FM-15","99999","V020","340,1,N,0046,1","99999,9,9,N","009999,1,9,9","+0200,1","+0180,1","99999,9",,,,,"04,1,+00914,1,99,9",,,"9,AGL   ,+99999,+99999","99,99,9,04,1,99,9,00914,1,99,9,99,9",,,"10110,1,99999,9",,,,,,"MET057METAR FACT 021800Z 34009KT 9999 SCT030 20/18 Q1011 NOSIG=",
"68816099999","2022-03-02T19:00:00","4","-33.964806","18.601667","46.02","CAPE TOWN INTERNATIONAL, SF","FM-15","99999","V020","320,1,N,0036,1","99999,9,9,N","009999,1,9,9","+0200,1","+0180,1","99999,9",,,,,"02,1,+00914,1,99,9",,,"9,AGL   ,+99999,+99999","99,99,9,02,1,99,9,00914,1,99,9,99,9",,,"10110,1,99999,9",,,,,,"MET057METAR FACT 021900Z 32007KT 9999 FEW030 20/18 Q1011 NOSIG=",
"68816099999","2022-03-02T20:00:00","4","-33.964806","18.601667","46.02","CAPE TOWN INTERNATIONAL, SF","FM-15","99999","V020","340,1,N,0031,1","99999,9,9,N","009999,1,9,9","+0190,1","+0180,1","99999,9",,,,,"02,1,+00914,1,99,9",,,"9,AGL   ,+99999,+99999","99,99,9,02,1,99,9,00914,1,99,9,99,9",,,"10120,1,99999,9",,,,,,"MET057METAR FACT 022000Z 34006KT 9999 FEW030 19/18 Q1012 NOSIG=",
"68816099999","2022-03-02T21:00:00","4","-33.964806","18.601667","46.02","CAPE TOWN INTERNATIONAL, SF","FM-15","99999","V020","330,1,N,0036,1","99999,9,9,N","009999,1,9,9","+0190,1","+0180,1","99999,9",,,,,"02,1,+00762,1,99,9",,,"9,AGL   ,+99999,+99999","99,99,9,02,1,99,9,00762,1,99,9,99,9",,,"10120,1,99999,9",,,,,,"MET057METAR FACT 022100Z 33007KT 9999 FEW025 19/18 Q1012 NOSIG=",
"68816099999","2022-03-02T22:00:00","4","-33.964806","18.601667","46.02","CAPE TOWN INTERNATIONAL, SF","FM-15","99999","V020","320,1,V,0021,1","99999,9,9,N","009999,1,9,9","+0200,1","+0180,1","99999,9",,,,,"02,1,+00914,1,99,9",,,"9,AGL   ,+99999,+99999","99,99,9,02,1,99,9,00914,1,99,9,99,9",,,"10120,1,99999,9",,,,,,"MET065METAR FACT 022200Z 32004KT 290V350 9999 FEW030 20/18 Q1012 NOSIG=",
"68816099999","2022-03-02T23:00:00","4","-33.964806","18.601667","46.02","CAPE TOWN INTERNATIONAL, SF","FM-15","99999","V020","320,1,N,0026,1","00914,1,9,N","009999,1,9,9","+0190,1","+0180,1","99999,9",,,,,"04,1,+00305,1,99,9","07,1,+00914,1,99,9",,"9,AGL   ,+99999,+99999","99,99,9,04,1,99,9,00305,1,99,9,99,9",,,"10120,1,99999,9",,,,,,"MET071METAR FACT 022300Z 32005KT 9999 SCT010 BKN030 19/18 Q1012 TEMPO BKN010=",
"68816099999","2022-03-03T00:00:00","4","-33.964806","18.601667","46.02","CAPE TOWN INTERNATIONAL, SF","FM-12","99999","V020","340,1,N,0036,1","99999,9,9,N","020000,1,9,9","+0191,1","+0180,1","10125,1","18,0000,9,1",,,,"07,1,+00250,1,06,1",,,"9,AGL   ,+99999,+99999","07,99,1,07,1,99,9,00250,1,99,9,99,9","120,M,+0254,1","120,N,+0189,1","99999,9,10070,1","2,1,003,1,+999,9",,,,"4,99,0051,1,999","SYN09268816 12370 73407 10191 20180 30070 40125 52003 69903 875// 333 10254 20189 91010 555 91012=","Q01  00002PRCP18"
"68816099999","2022-03-03T00:00:00","4","-33.964806","18.601667","46.02","CAPE TOWN INTERNATIONAL, SF","FM-15","99999","V020","300,1,N,0036,1","00762,1,9,N","009999,1,9,9","+0190,1","+0180,1","99999,9",,,,,"02,1,+00244,1,99,9","07,1,+00762,1,99,9",,"9,AGL   ,+99999,+99999","99,99,9,02,1,99,9,00244,1,99,9,99,9",,,"10120,1,99999,9",,,,,,"MET071METAR FACT 030000Z 30007KT 9999 FEW008 BKN025 19/18 Q1012 TEMPO BKN008=",
"68816099999","2022-03-03T01:00:00","4","-33.964806","18.601667","46.02","CAPE TOWN INTERNATIONAL, SF","FM-15","99999","V020","310,1,N,0021,1","01067,1,9,N","009999,1,9,9","+0190,1","+0180,1","99999,9",,,,,"02,1,+00244,1,99,9","07,1,+01067,1,99,9",,"9,AGL   ,+99999,+99999","99,99,9,02,1,99,9,00244,1,99,9,99,9",,,"10120,1,99999,9",,,,,,"MET071METAR FACT 030100Z 31004KT 9999 FEW008 BKN035 19/18 Q1012 TEMPO BKN008=",
"68816099999","2022-03-03T02:00:00","4","-33.964806","18.601667","46.02","CAPE TOWN INTERNATIONAL, SF","FM-15","99999","V020","330,1,N,0031,1","01067,1,C,N","009999,1,9,9","+0190,1","+0170,1","99999,9",,,,,"02,1,+00244,1,99,9","04,1,+01067,1,99,9",,"9,AGL   ,+99999,+99999","99,99,9,02,1,99,9,00244,1,99,9,99,9",,,"10120,1,99999,9",,,,,,"MET071METAR FACT 030200Z 33006KT 9999 FEW008 SCT035 19/17 Q1012 TEMPO BKN008=",
"68816099999","2022-03-03T03:00:00","4","-33.964806","18.601667","46.02","CAPE TOWN INTERNATIONAL, SF","FM-15","99999","V020","300,1,V,0031,1","00914,1,9,N","009999,1,9,9","+0180,1","+0170,1","99999,9",,,,,"04,1,+00305,1,99,9","07,1,+00914,1,99,9",,"9,AGL   ,+99999,+99999","99,99,9,04,1,99,9,00305,1,99,9,99,9",,,"10120,1,99999,9",,"51,1",,,,"MET083METAR FACT 030300Z 30006KT 260V320 9999 -DZ SCT010 BKN030 18/17 Q1012 TEMPO BKN010=",
"68816099999","2022-03-03T04:00:00","4","-33.964806","18.601667","46.02","CAPE TOWN INTERNATIONAL, SF","FM-15","99999","V020","320,1,V,0026,1","01067,1,9,N","009999,1,9,9","+0180,1","+0170,1","99999,9",,,,,"02,1,+00305,1,99,9","07,1,+01067,1,99,9",,"9,AGL   ,+99999,+99999","99,99,9,02,1,99,9,00305,1,99,9,99,9",,,"10120,1,99999,9",,,,,,"MET072METAR FACT 030400Z 32005KT 290V010 9999 FEW010 BKN035 18/17 Q1012 NOSIG=",
"68816099999","2022-03-03T05:00:00","4","-33.964806","18.601667","46.02","CAPE TOWN INTERNATIONAL, SF","FM-15","99999","V020","350,1,N,0021,1","01524,1,C,N","009999,1,9,9","+0180,1","+0170,1","99999,9",,,,,"02,1,+00396,1,99,9","04,1,+01524,1,99,9",,"9,AGL   ,+99999,+99999","99,99,9,02,1,99,9,00396,1,99,9,99,9",,,"10130,1,99999,9",,,,,,"MET064METAR FACT 030500Z 35004KT 9999 FEW013 SCT050 18/17 Q1013 NOSIG=",
"68816099999","2022-03-03T06:00:00","4","-33.964806","18.601667","46.02","CAPE TOWN INTERNATIONAL, SF","FM-12","99999","V020","320,1,N,0021,1","22000,1,9,N","020000,1,9,9","+0191,1","+0175,1","10135,1","24,0002,3,1","5,1,02,1","1,1,02,1",,"03,1,+00450,1,07,1",,,"9,AGL   ,+99999,+99999","03,99,1,03,1,99,9,00450,1,99,9,99,9","240,N,+0171,1",,"99999,9,10080,1","3,1,013,1,+999,9","01,1",,,"4,99,0031,1,999","SYN10468816 11470 33204 10191 20175 30080 40135 53013 69924 70151 83600 333 20171 91006 555 10254 20002 91013=",
"68816099999","2022-03-03T06:00:00","4","-33.964806","18.601667","46.02","CAPE TOWN INTERNATIONAL, SF","FM-15","99999","V020","310,1,N,0031,1","01524,1,C,N","009999,1,9,9","+0190,1","+0170,1","99999,9",,,,,"02,1,+00274,1,99,9","04,1,+01524,1,99,9",,"9,AGL   ,+99999,+99999","99,99,9,02,1,99,9,00274,1,99,9,99,9",,,"10130,1,99999,9",,,,,,"MET064METAR FACT 030600Z 31006KT 9999 FEW009 SCT050 19/17 Q1013 NOSIG=",
"68816099999","2022-03-03T07:00:00","4","-33.964806","18.601667","46.02","CAPE TOWN INTERNATIONAL, SF","FM-15","99999","V020","220,1,V,0026,1","01311,1,C,N","009999,1,9,9","+0200,1","+0170,1","99999,9",,,,,"04,1,+00366,1,99,9","04,1,+01311,1,99,9",,"9,AGL   ,+99999,+99999","99,99,9,04,1,99,9,00366,1,99,9,99,9",,,"10140,1,99999,9",,,,,,"MET072METAR FACT 030700Z 22005KT 210V270 9999 SCT012 SCT043 20/17 Q1014 NOSIG=",
"68816099999","2022-03-03T08:00:00","4","-33.964806","18.601667","46.02","CAPE TOWN INTERNATIONAL, SF","FM-15","99999","V020","200,1,V,0036,1","01219,1,C,N","009999,1,9,9","+0220,1","+0160,1","99999,9",,,,,"02,1,+00610,1,99,9","04,1,+01219,1,99,9",,"9,AGL   ,+99999,+99999","99,99,9,02,1,99,9,00610,1,99,9,99,9",,,"10140,1,99999,9",,,,,,"MET072METAR FACT 030800Z 20007KT 170V240 9999 FEW020 SCT040 22/16 Q1014 NOSIG=",
"68816099999","2022-03-03T09:00:00","4","-33.964806","18.601667","46.02","CAPE TOWN INTERNATIONAL, SF","FM-15","99999","V020","180,1,N,0057,1","99999,9,9,N","009999,1,9,9","+0230,1","+0160,1","99999,9",,,,,"04,1,+01280,1,99,9",,,"9,AGL   ,+99999,+99999","99,99,9,04,1,99,9,01280,1,99,9,99,9",,,"10140,1,99999,9",,,,,,"MET057METAR FACT 030900Z 18011KT 9999 SCT042 23/16 Q1014 NOSIG=",
"68816099999","2022-03-03T10:00:00","4","-33.964806","18.601667","46.02","CAPE TOWN INTERNATIONAL, SF","FM-15","99999","V020","190,1,V,0057,1","99999,9,9,N","009999,1,9,9","+0230,1","+0150,1","99999,9",,,,,"04,1,+01067,1,99,9",,,"9,AGL   ,+99999,+99999","99,99,9,04,1,99,9,01067,1,99,9,99,9",,,"10140,1,99999,9",,,,,,"MET065METAR FACT 031000Z 19011KT 160V220 9999 SCT035 23/15 Q1014 NOSIG=",
"68816099999","2022-03-03T11:00:00","4","-33.964806","18.601667","46.02","CAPE TOWN INTERNATIONAL, SF","FM-15","99999","V020","190,1,V,0051,1","99999,9,9,N","009999,1,9,9","+0240,1","+0150,1","99999,9",,,,,"04,1,+00914,1,99,9",,,"9,AGL   ,+99999,+99999","99,99,9,04,1,99,9,00914,1,99,9,99,9",,,"10140,1,99999,9",,,,,,"MET065METAR FACT 031100Z 19010KT 140V240 9999 SCT030 24/15 Q1014 NOSIG=",
"68816099999","2022-03-03T12:00:00","4","-33.964806","18.601667","46.02","CAPE TOWN INTERNATIONAL, SF","FM-12","99999","V020","190,1,N,0062,1","99999,9,9,N","030000,1,9,9","+0226,1","+0147,1","10138,1",,,,,"05,1,+01250,1,06,1",,,"9,AGL   ,+99999,+99999","05,99,1,05,1,99,9,01250,1,99,9,99,9","240,N,+0171,1",,"99999,9,10084,1","3,1,013,1,+999,9",,,,"4,99,0103,1,999","SYN08068816 32680 51912 10226 20147 30084 40138 53013 85500 333 20171 91020 555 91013=",
"68816099999","2022-03-03T12:00:00","4","-33.964806","18.601667","46.02","CAPE TOWN INTERNATIONAL, SF","FM-15","99999","V020","180,1,V,0062,1","01219,1,9,N","009999,1,9,9","+0230,1","+0150,1","99999,9",,,,,"02,1,+00610,1,99,9","07,1,+01219,1,99,9",,"9,AGL   ,+99999,+99999","99,99,9,02,1,99,9,00610,1,99,9,99,9",,,"10130,1,99999,9",,,,,,"MET072METAR FACT 031200Z 18012KT 150V210 9999 FEW020 BKN040 23/15 Q1013 NOSIG=",
"68816099999","2022-03-03T12:25:00","4","-33.964806","18.601667","46.02","CAPE TOWN INTERNATIONAL, SF","FM-16","99999","V020","180,1,N,0067,1","99999,9,9,N","009999,1,9,9","+0240,1","+0150,1","99999,9",,,,,"04,1,+01219,1,99,9",,,"9,AGL   ,+99999,+99999","99,99,9,04,1,99,9,01219,1,99,9,99,9",,,"10130,1,99999,9",,,,,,"MET057SPECI FACT 031225Z 18013KT 9999 SCT040 24/15 Q1013 NOSIG=",
"68816099999","2022-03-03T13:00:00","4","-33.964806","18.601667","46.02","CAPE TOWN INTERNATIONAL, SF","FM-15","99999","V020","160,1,V,0067,1","99999,9,9,N","009999,1,9,9","+0230,1","+0150,1","99999,9",,,,,"04,1,+01067,1,99,9",,,"9,AGL   ,+99999,+99999","99,99,9,04,1,99,9,01067,1,99,9,99,9",,,"10130,1,99999,9",,,,,,"MET065METAR FACT 031300Z 16013KT 140V200 9999 SCT035 23/15 Q1013 NOSIG=",
"68816099999","2022-03-03T14:00:00","4","-33.964806","18.601667","46.02","CAPE TOWN INTERNATIONAL, SF","FM-15","99999","V020","180,1,N,0072,1","99999,9,9,N","009999,1,9,9","+0230,1","+0140,1","99999,9",,,,,"04,1,+01067,1,99,9",,,"9,AGL   ,+99999,+99999","99,99,9,04,1,99,9,01067,1,99,9,99,9",,,"10130,1,99999,9",,,,,,"MET057METAR FACT 031400Z 18014KT 9999 SCT035 23/14 Q1013 NOSIG=",
"68816099999","2022-03-03T15:00:00","4","-33.964806","18.601667","46.02","CAPE TOWN INTERNATIONAL, SF","FM-15","99999","V020","170,1,N,0067,1","99999,9,9,N","009999,1,9,9","+0210,1","+0130,1","99999,9",,,,,"02,1,+01219,1,99,9",,,"9,AGL   ,+99999,+99999","99,99,9,02,1,99,9,01219,1,99,9,99,9",,,"10120,1,99999,9",,,,,,"MET057METAR FACT 031500Z 17013KT 9999 FEW040 21/13 Q1012 NOSIG=",
"68816099999","2022-03-03T16:00:00","4","-33.964806","18.601667","46.02","CAPE TOWN INTERNATIONAL, SF","FM-15","99999","V020","180,1,N,0072,1","99999,9,9,N","009999,1,9,9","+0210,1","+0140,1","99999,9",,,,,"02,1,+01219,1,99,9",,,"9,AGL   ,+99999,+99999","99,99,9,02,1,99,9,01219,1,99,9,99,9",,,"10130,1,99999,9",,,,,,"MET057METAR FACT 031600Z 18014KT 9999 FEW040 21/14 Q1013 NOSIG=",
"68816099999","2022-03-03T17:00:00","4","-33.964806","18.601667","46.02","CAPE TOWN INTERNATIONAL, SF","FM-15","99999","V020","180,1,N,0072,1","99999,9,9,N","009999,1,9,9","+0200,1","+0140,1","99999,9",,,,,"02,1,+01219,1,99,9",,,"9,AGL   ,+99999,+99999","99,99,9,02,1,99,9,01219,1,99,9,99,9",,,"10130,1,99999,9",,,,,,"MET057METAR FACT 031700Z 18014KT 9999 FEW040 20/14 Q1013 NOSIG=",
"68816099999","2022-03-03T18:00:00","4","-33.964806","18.601667","46.02","CAPE TOWN INTERNATIONAL, SF","FM-15","99999","V020","180,1,N,0062,1","99999,9,9,N","009999,1,9,9","+0190,1","+0140,1","99999,9",,,,,"02,1,+00914,1,99,9",,,"9,AGL   ,+99999,+99999","99,99,9,02,1,99,9,00914,1,99,9,99,9",,,"10130,1,99999,9",,,,,,"MET057METAR FACT 031800Z 18012KT 9999 FEW030 19/14 Q1013 NOSIG=",
"68816099999","2022-03-03T19:00:00","4","-33.964806","18.601667","46.02","CAPE TOWN INTERNATIONAL, SF","FM-15","99999","V020","180,1,N,0051,1","99999,9,9,N","009999,1,9,9","+0190,1","+0150,1","99999,9",,,,,"02,1,+01067,1,99,9",,,"9,AGL   ,+99999,+99999","99,99,9,02,1,99,9,01067,1,99,9,99,9",,,"10140,1,99999,9",,,,,,"MET057METAR FACT 031900Z 18010KT 9999 FEW035 19/15 Q1014 NOSIG=",
"68816099999","2022-03-03T20:00:00","4","-33.964806","18.601667","46.02","CAPE TOWN INTERNATIONAL, SF","FM-15","99999","V020","150,1,N,0036,1","99999,9,9,N","009999,1,9,9","+0180,1","+0150,1","99999,9",,,,,"02,1,+01067,1,99,9",,,"9,AGL   ,+99999,+99999","99,99,9,02,1,99,9,01067,1,99,9,99,9",,,"10150,1,99999,9",,,,,,"MET057METAR FACT 032000Z 15007KT 9999 FEW035 18/15 Q1015 NOSIG=",
"68816099999","2022-03-03T21:00:00","4","-33.964806","18.601667","46.02","CAPE TOWN INTERNATIONAL, SF","FM-12","99999","V020","160,1,N,0031,1","22000,1,9,N","040000,1,9,9","+0168,1","+0148,1","10152,1",,,,,"02,1,+00800,1,06,1",,,"9,AGL   ,+99999,+99999","02,99,1,02,1,99,9,00800,1,99,9,99,9",,,"99999,9,10097,1","1,1,019,1,+999,9",,,,"4,99,0041,1,999","SYN06468816 42582 21606 10168 20148 30097 40152 51019 82500 333 91008=",
"68816099999","2022-03-03T21:00:00","4","-33.964806","18.601667","46.02","CAPE TOWN INTERNATIONAL, SF","FM-15","99999","V020","160,1,N,0031,1","99999,9,9,N","009999,1,9,9","+0170,1","+0150,1","99999,9",,,,,"02,1,+00792,1,99,9",,,"9,AGL   ,+99999,+99999","99,99,9,02,1,99,9,00792,1,99,9,99,9",,,"10150,1,99999,9",,,,,,"MET057METAR FACT 032100Z 16006KT 9999 FEW026 17/15 Q1015 NOSIG=",
"68816099999","2022-03-03T22:00:00","4","-33.964806","18.601667","46.02","CAPE TOWN INTERNATIONAL, SF","FM-15","99999","V020","180,1,N,0031,1","99999,9,9,N","009999,1,9,9","+0170,1","+0150,1","99999,9",,,,,"04,1,+01036,1,99,9",,,"9,AGL   ,+99999,+99999","99,99,9,04,1,99,9,01036,1,99,9,99,9",,,"10150,1,99999,9",,,,,,"MET057METAR FACT 032200Z 18006KT 9999 SCT034 17/15 Q1015 NOSIG=",
"68816099999","2022-03-03T23:00:00","4","-33.964806","18.601667","46.02","CAPE TOWN INTERNATIONAL, SF","FM-15","99999","V020","190,1,N,0031,1","99999,9,9,N","009999,1,9,9","+0180,1","+0160,1","99999,9",,,,,"04,1,+01006,1,99,9",,,"9,AGL   ,+99999,+99999","99,99,9,04,1,99,9,01006,1,99,9,99,9",,,"10150,1,99999,9",,,,,,"MET057METAR FACT 032300Z 19006KT 9999 SCT033 18/16 Q1015 NOSIG=",
"68816099999","2022-03-04T00:00:00","4","-33.964806","18.601667","46.02","CAPE TOWN INTERNATIONAL, SF","FM-12","99999","V020","200,1,N,0031,1","22000,1,9,N","040000,1,9,9","+0176,1","+0153,1","10149,1",,,,,"02,1,+01250,1,06,1","99,9,+99999,9,03,1",,"9,AGL   ,+99999,+99999","03,99,1,02,1,99,9,01250,1,99,9,99,9","120,M,+0250,1",,"99999,9,10095,1","8,1,003,1,+999,9",,,,"4,99,0041,1,999","SYN08068816 32682 32006 10176 20153 30095 40149 58003 82550 333 10250 91008 555 91014=",
"68816099999","2022-03-04T00:00:00","4","-33.964806","18.601667","46.02","CAPE TOWN INTERNATIONAL, SF","FM-15","99999","V020","210,1,N,0031,1","99999,9,9,N","009999,1,9,9","+0180,1","+0150,1","99999,9",,,,,"02,1,+01097,1,99,9",,,"9,AGL   ,+99999,+99999","99,99,9,02,1,99,9,01097,1,99,9,99,9",,,"10150,1,99999,9",,,,,,"MET057METAR FACT 040000Z 21006KT 9999 FEW036 18/15 Q1015 NOSIG=",
"68816099999","2022-03-04T01:00:00","4","-33.964806","18.601667","46.02","CAPE TOWN INTERNATIONAL, SF","FM-15","99999","V020","210,1,N,0026,1","99999,9,9,Y","009900,5,9,9","+0170,1","+0150,1","99999,9",,,,,,,,,,,,"10140,1,99999,9",,,,,,"MET051METAR FACT 040100Z 21005KT CAVOK 17/15 Q1014 NOSIG=",
"68816099999","2022-03-04T02:00:00","4","-33.964806","18.601667","46.02","CAPE TOWN INTERNATIONAL, SF","FM-15","99999","V020","170,1,N,0021,1","99999,9,9,Y","009900,5,9,9","+0160,1","+0140,1","99999,9",,,,,,,,,,,,"10140,1,99999,9",,,,,,"MET051METAR FACT 040200Z 17004KT CAVOK 16/14 Q1014 NOSIG=",
"68816099999","2022-03-04T03:00:00","4","-33.964806","18.601667","46.02","CAPE TOWN INTERNATIONAL, SF","FM-15","99999","V020","200,1,N,0036,1","99999,9,9,Y","009900,5,9,9","+0170,1","+0150,1","99999,9",,,,,,,,,,,,"10140,1,99999,9",,,,,,"MET051METAR FACT 040300Z 20007KT CAVOK 17/15 Q1014 NOSIG=",
"68816099999","2022-03-04T04:00:00","4","-33.964806","18.601667","46.02","CAPE TOWN INTERNATIONAL, SF","FM-15","99999","V020","200,1,N,0036,1","99999,9,9,Y","009900,5,9,9","+0170,1","+0150,1","99999,9",,,,,,,,,,,,"10140,1,99999,9",,,,,,"MET051METAR FACT 040400Z 20007KT CAVOK 17/15 Q1014 NOSIG=",
"68816099999","2022-03-04T05:00:00","4","-33.964806","18.601667","46.02","CAPE TOWN INTERNATIONAL, SF","FM-15","99999","V020","200,1,N,0026,1","99999,9,9,N","009999,1,9,9","+0170,1","+0160,1","99999,9",,,,,"02,1,+00914,1,99,9",,,"9,AGL   ,+99999,+99999","99,99,9,02,1,99,9,00914,1,99,9,99,9",,,"10140,1,99999,9",,,,,,"MET057METAR FACT 040500Z 20005KT 9999 FEW030 17/16 Q1014 NOSIG=",
"68816099999","2022-03-04T05:54:00","4","-33.964806","18.601667","46.02","CAPE TOWN INTERNATIONAL, SF","FM-16","99999","V020","200,1,N,0026,1","99999,9,9,N","009999,1,9,9","+0180,1","+0160,1","99999,9",,,,,"02,1,+00914,1,99,9",,,"9,AGL   ,+99999,+99999","99,99,9,02,1,99,9,00914,1,99,9,99,9",,,"10150,1,99999,9",,,,,,"MET057SPECI FACT 040554Z 20005KT 9999 FEW030 18/16 Q1015 NOSIG=",
"68816099999","2022-03-04T06:00:00","4","-33.964806","18.601667","46.02","CAPE TOWN INTERNATIONAL, SF","FM-12","99999","V020","200,1,N,0031,1","22000,1,9,N","030000,1,9,9","+0183,1","+0163,1","10153,1",,,,,"01,1,+01750,1,06,1",,,"9,AGL   ,+99999,+99999","01,99,1,01,1,99,9,01750,1,99,9,99,9","240,N,+0153,1",,"99999,9,10099,1","6,1,009,1,+999,9",,,,"4,99,0031,1,999","SYN08668816 32780 12006 10183 20163 30099 40153 56009 81500 333 20153 91006 555 10250 91015=",
"68816099999","2022-03-04T06:00:00","4","-33.964806","18.601667","46.02","CAPE TOWN INTERNATIONAL, SF","FM-15","99999","V020","200,1,N,0026,1","99999,9,9,N","009999,1,9,9","+0180,1","+0160,1","99999,9",,,,,"02,1,+00914,1,99,9",,,"9,AGL   ,+99999,+99999","99,99,9,02,1,99,9,00914,1,99,9,99,9",,,"10150,1,99999,9",,,,,,"MET057METAR FACT 040600Z 20005KT 9999 FEW030 18/16 Q1015 NOSIG=",
"68816099999","2022-03-04T07:00:00","4","-33.964806","18.601667","46.02","CAPE TOWN INTERNATIONAL, SF","FM-15","99999","V020","190,1,V,0041,1","99999,9,9,N","009999,1,9,9","+0200,1","+0150,1","99999,9",,,,,"02,1,+00914,1,99,9",,,"9,AGL   ,+99999,+99999","99,99,9,02,1,99,9,00914,1,99,9,99,9",,,"10150,1,99999,9",,,,,,"MET065METAR FACT 040700Z 19008KT 160V220 9999 FEW030 20/15 Q1015 NOSIG=",
"68816099999","2022-03-04T08:00:00","4","-33.964806","18.601667","46.02","CAPE TOWN INTERNATIONAL, SF","FM-15","99999","V020","180,1,V,0057,1","99999,9,9,N","009999,1,9,9","+0220,1","+0150,1","99999,9",,,,,"02,1,+00914,1,99,9",,,"9,AGL   ,+99999,+99999","99,99,9,02,1,99,9,00914,1,99,9,99,9",,,"10150,1,99999,9",,,,,,"MET065METAR FACT 040800Z 18011KT 150V210 9999 FEW030 22/15 Q1015 NOSIG=",
"68816099999","2022-03-04T08:39:00","4","-33.964806","18.601667","46.02","CAPE TOWN INTERNATIONAL, SF","FM-16","99999","V020","200,1,N,0026,1","99999,9,9,N","009999,1,9,9","+9999,9","+9999,9","99999,9",,,,,,,,,,,,,,,,,,"MET050SPECI FACT 040839Z 20005KT 9999 CAVOK 25/10 NOSIG=",
"68816099999","2022-03-04T09:00:00","4","-33.964806","18.601667","46.02","CAPE TOWN INTERNATIONAL, SF","FM-12","99999","V020","200,1,N,0077,1","22000,1,9,N","030000,1,9,9","+0234,1","+0135,1","10156,1",,,,,"02,1,+00800,1,06,1",,,"9,AGL   ,+99999,+99999","02,99,1,02,1,99,9,00800,1,99,9,99,9",,,"99999,9,10102,1","6,1,009,1,+999,9",,,,"4,99,0103,1,999","SYN06468816 42580 22015 10234 20135 30102 40156 56009 82500 333 91020=",
"68816099999","2022-03-04T09:00:00","4","-33.964806","18.601667","46.02","CAPE TOWN INTERNATIONAL, SF","FM-15","99999","V020","200,1,N,0067,1","99999,9,9,N","009999,1,9,9","+0230,1","+0140,1","99999,9",,,,,"02,1,+00914,1,99,9",,,"9,AGL   ,+99999,+99999","99,99,9,02,1,99,9,00914,1,99,9,99,9",,,"10150,1,99999,9",,,,,,"MET057METAR FACT 040900Z 20013KT 9999 FEW030 23/14 Q1015 NOSIG=",
"68816099999","2022-03-04T10:00:00","4","-33.964806","18.601667","46.02","CAPE TOWN INTERNATIONAL, SF","FM-15","99999","V020","180,1,N,0077,1","99999,9,9,N","009999,1,9,9","+0240,1","+0140,1","99999,9",,,,,"02,1,+00914,1,99,9",,,"9,AGL   ,+99999,+99999","99,99,9,02,1,99,9,00914,1,99,9,99,9",,,"10150,1,99999,9",,,,,,"MET057METAR FACT 041000Z 18015KT 9999 FEW030 24/14 Q1015 NOSIG=",
"68816099999","2022-03-04T11:00:00","4","-33.964806","18.601667","46.02","CAPE TOWN INTERNATIONAL, SF","FM-15","99999","V020","180,1,N,0093,1","99999,9,9,N","009999,1,9,9","+0250,1","+0140,1","99999,9",,,,,"02,1,+00914,1,99,9",,,"9,AGL   ,+99999,+99999","99,99,9,02,1,99,9,00914,1,99,9,99,9",,,"10150,1,99999,9",,,,,,"MET057METAR FACT 041100Z 18018KT 9999 FEW030 25/14 Q1015 NOSIG=",
"68816099999","2022-03-04T12:00:00","4","-33.964806","18.601667","46.02","CAPE TOWN INTERNATIONAL, SF","FM-12","99999","V020","180,1,N,0108,1","22000,1,9,N","030000,1,9,9","+0236,1","+0162,1","10150,1",,,,,"01,1,+01250,1,06,1",,,"9,AGL   ,+99999,+99999","01,99,1,01,1,99,9,01250,1,99,9,99,9","240,M,+0251,1","240,N,+0183,1","99999,9,10096,1","6,1,009,1,+999,9",,,,"4,99,0129,1,999","SYN08668816 32680 11821 10236 20162 30096 40150 56009 81500 333 10251 20183 91025 555 91015=",
"68816099999","2022-03-04T12:00:00","4","-33.964806","18.601667","46.02","CAPE TOWN INTERNATIONAL, SF","FM-15","99999","V020","180,1,N,0108,1","99999,9,9,N","009999,1,9,9","+0240,1","+0160,1","99999,9",,,,,"02,1,+01067,1,99,9",,,"9,AGL   ,+99999,+99999","99,99,9,02,1,99,9,01067,1,99,9,99,9",,,"10150,1,99999,9",,,,,,"MET057METAR FACT 041200Z 18021KT 9999 FEW035 24/16 Q1015 NOSIG=",
"68816099999","2022-03-04T13:00:00","4","-33.964806","18.601667","46.02","CAPE TOWN INTERNATIONAL, SF","FM-15","99999","V020","180,1,N,0113,1","99999,9,9,N","009999,1,9,9","+0230,1","+0160,1","99999,9",,,,,"02,1,+01067,1,99,9",,,"9,AGL   ,+99999,+99999","99,99,9,02,1,99,9,01067,1,99,9,99,9",,,"10140,1,99999,9",,,,,,"MET057METAR FACT 041300Z 18022KT 9999 FEW035 23/16 Q1014 NOSIG=",
"68816099999","2022-03-04T14:00:00","4","-33.964806","18.601667","46.02","CAPE TOWN INTERNATIONAL, SF","FM-15","99999","V020","180,1,N,0113,1","99999,9,9,N","009999,1,9,9","+0230,1","+0170,1","99999,9",,,,,"02,1,+01067,1,99,9",,,"9,AGL   ,+99999,+99999","99,99,9,02,1,99,9,01067,1,99,9,99,9",,,"10140,1,99999,9",,,,,,"MET057METAR FACT 041400Z 18022KT 9999 FEW035 23/17 Q1014 NOSIG=",
"68816099999","2022-03-04T15:00:00","4","-33.964806","18.601667","46.02","CAPE TOWN INTERNATIONAL, SF","FM-15","99999","V020","180,1,N,0124,1","99999,9,9,N","009999,1,9,9","+0230,1","+0170,1","99999,9",,,,,"02,1,+00762,1,99,9",,,"9,AGL   ,+99999,+99999","99,99,9,02,1,99,9,00762,1,99,9,99,9",,,"10140,1,99999,9",,,,,,"MET057METAR FACT 041500Z 18024KT 9999 FEW025 23/17 Q1014 NOSIG=",
"68816099999","2022-03-04T16:00:00","4","-33.964806","18.601667","46.02","CAPE TOWN INTERNATIONAL, SF","FM-15","99999","V020","180,1,N,0118,1","99999,9,9,N","009999,1,9,9","+0220,1","+0170,1","99999,9",,,,,"02,1,+00762,1,99,9",,,"9,AGL   ,+99999,+99999","99,99,9,02,1,99,9,00762,1,99,9,99,9",,,"10140,1,99999,9",,,,,,"MET057METAR FACT 041600Z 18023KT 9999 FEW025 22/17 Q1014 NOSIG=",
"68816099999","2022-03-04T17:00:00","4","-33.964806","18.601667","46.02","CAPE TOWN INTERNATIONAL, SF","FM-15","99999","V020","180,1,N,0098,1","99999,9,9,N","009999,1,9,9","+0210,1","+0170,1","99999,9",,,,,"02,1,+00762,1,99,9",,,"9,AGL   ,+99999,+99999","99,99,9,02,1,99,9,00762,1,99,9,99,9",,,"10150,1,99999,9",,,,,,"MET057METAR FACT 041700Z 18019KT 9999 FEW025 21/17 Q1015 NOSIG=",
"68816099999","2022-03-04T18:00:00","4","-33.964806","18.601667","46.02","CAPE TOWN INTERNATIONAL, SF","FM-12","99999","V020","180,1,N,0098,1","22000,1,9,N","020000,1,9,9","+0200,1","+0168,1","10160,1",,,,,"01,1,+00800,1,06,1",,,"9,AGL   ,+99999,+99999","01,99,1,01,1,99,9,00800,1,99,9,99,9","120,M,+0251,1","120,N,+0200,1","99999,9,10105,1","6,1,009,1,+999,9",,,,"4,99,0113,1,999","SYN08668816 32570 11819 10200 20168 30105 40160 56009 81500 333 10251 20200 91022 555 91016=",
"68816099999","2022-03-04T18:00:00","4","-33.964806","18.601667","46.02","CAPE TOWN INTERNATIONAL, SF","FM-15","99999","V020","180,1,N,0098,1","99999,9,9,N","009999,1,9,9","+0200,1","+0170,1","99999,9",,,,,"02,1,+00762,1,99,9",,,"9,AGL   ,+99999,+99999","99,99,9,02,1,99,9,00762,1,99,9,99,9",,,"10160,1,99999,9",,,,,,"MET057METAR FACT 041800Z 18019KT 9999 FEW025 20/17 Q1016 NOSIG=",
"68816099999","2022-03-04T19:00:00","4","-33.964806","18.601667","46.02","CAPE TOWN INTERNATIONAL, SF","FM-15","99999","V020","180,1,N,0088,1","99999,9,9,N","009999,1,9,9","+0200,1","+0170,1","99999,9",,,,,"02,1,+00914,1,99,9",,,"9,AGL   ,+99999,+99999","99,99,9,02,1,99,9,00914,1,99,9,99,9",,,"10160,1,99999,9",,,,,,"MET057METAR FACT 041900Z 18017KT 9999 FEW030 20/17 Q1016 NOSIG=",
"68816099999","2022-03-04T20:00:00","4","-33.964806","18.601667","46.02","CAPE TOWN INTERNATIONAL, SF","FM-15","99999","V020","180,1,N,0088,1","99999,9,9,N","009999,1,9,9","+0200,1","+0160,1","99999,9",,,,,"02,1,+00914,1,99,9",,,"9,AGL   ,+99999,+99999","99,99,9,02,1,99,9,00914,1,99,9,99,9",,,"10170,1,99999,9",,,,,,"MET057METAR FACT 042000Z 18017KT 9999 FEW030 20/16 Q1017 NOSIG=",
"68816099999","2022-03-04T21:00:00","4","-33.964806","18.601667","46.02","CAPE TOWN INTERNATIONAL, SF","FM-15","99999","V020","160,1,N,0093,1","99999,9,9,N","009999,1,9,9","+0210,1","+0150,1","99999,9",,,,,"02,1,+00914,1,99,9",,,"9,AGL   ,+99999,+99999","99,99,9,02,1,99,9,00914,1,99,9,99,9",,,"10160,1,99999,9",,,,,,"MET057METAR FACT 042100Z 16018KT 9999 FEW030 21/15 Q1016 NOSIG=",
"68816099999","2022-03-04T22:00:00","4","-33.964806","18.601667","46.02","CAPE TOWN INTERNATIONAL, SF","FM-15","99999","V020","180,1,N,0088,1","99999,9,9,Y","009900,5,9,9","+0210,1","+0150,1","99999,9",,,,,,,,,,,,"10170,1,99999,9",,,,,,"MET051METAR FACT 042200Z 18017KT CAVOK 21/15 Q1017 NOSIG=",
"68816099999","2022-03-04T23:00:00","4","-33.964806","18.601667","46.02","CAPE TOWN INTERNATIONAL, SF","FM-15","99999","V020","170,1,N,0077,1","99999,9,9,Y","009900,5,9,9","+0200,1","+0150,1","99999,9",,,,,,,,,,,,"10160,1,99999,9",,,,,,"MET051METAR FACT 042300Z 17015KT CAVOK 20/15 Q1016 NOSIG=",
"68816099999","2022-03-05T00:00:00","4","-33.964806","18.601667","46.02","CAPE TOWN INTERNATIONAL, SF","FM-12","99999","V020","160,1,N,0057,1","99999,9,9,N","030000,1,9,9","+0198,1","+0148,1","10162,1",,,,,,,,,,"120,M,+0251,1",,"99999,9,10108,1","6,1,009,1,+999,9",,,,"4,99,0113,1,999","SYN07468816 32980 01611 10198 20148 30108 40162 56009 333 10251 91022 555 91016=",
"68816099999","2022-03-05T00:00:00","4","-33.964806","18.601667","46.02","CAPE TOWN INTERNATIONAL, SF","FM-15","99999","V020","160,1,N,0067,1","99999,9,9,Y","009900,5,9,9","+0200,1","+0150,1","99999,9",,,,,,,,,,,,"10160,1,99999,9",,,,,,"MET051METAR FACT 050000Z 16013KT CAVOK 20/15 Q1016 NOSIG=",
"68816099999","2022-03-05T01:00:00","4","-33.964806","18.601667","46.02","CAPE TOWN INTERNATIONAL, SF","FM-15","99999","V020","999,9,V,0015,1","99999,9,9,Y","009900,5,9,9","+0180,1","+0130,1","99999,9",,,,,,,,,,,,"10150,1,99999,9",,,,,,"MET051METAR FACT 050100Z VRB03KT CAVOK 18/13 Q1015 NOSIG=",
"68816099999","2022-03-05T02:00:00","4","-33.964806","18.601667","46.02","CAPE TOWN INTERNATIONAL, SF","FM-15","99999","V020","210,1,N,0026,1","99999,9,9,Y","009900,5,9,9","+0180,1","+0140,1","99999,9",,,,,,,,,,,,"10150,1,99999,9",,,,,,"MET051METAR FACT 050200Z 21005KT CAVOK 18/14 Q1015 NOSIG=",
"68816099999","2022-03-05T03:00:00","4","-33.964806","18.601667","46.02","CAPE TOWN INTERNATIONAL, SF","FM-12","99999","V020","240,1,N,0036,1","99999,9,9,N","030000,1,9,9","+0187,1","+0138,1","10150,1",,,,,,,,,,"240,M,+0251,1",,"99999,9,10096,1","6,1,009,1,+999,9",,,,"4,99,0046,1,999","SYN06468816 42980 02407 10187 20138 30096 40150 56009 333 10251 91009=",
"68816099999","2022-03-05T03:00:00","4","-33.964806","18.601667","46.02","CAPE TOWN INTERNATIONAL, SF","FM-15","99999","V020","230,1,N,0036,1","99999,9,9,Y","009900,5,9,9","+0190,1","+0140,1","99999,9",,,,,,,,,,,,"10150,1,99999,9",,,,,,"MET051METAR FACT 050300Z 23007KT CAVOK 19/14 Q1015 NOSIG=",
"68816099999","2022-03-05T04:00:00","4","-33.964806","18.601667","46.02","CAPE TOWN INTERNATIONAL, SF","FM-15","99999","V020","230,1,N,0036,1","99999,9,9,Y","009900,5,9,9","+0180,1","+0140,1","99999,9",,,,,,,,,,,,"10150,1,99999,9",,,,,,"MET051METAR FACT 050400Z 23007KT CAVOK 18/14 Q1015 NOSIG=",
"68816099999","2022-03-05T05:00:00","4","-33.964806","18.601667","46.02","CAPE TOWN INTERNATIONAL, SF","FM-15","99999","V020","230,1,N,0021,1","99999,9,9,Y","009900,5,9,9","+0180,1","+0150,1","99999,9",,,,,,,,,,,,"10150,1,99999,9",,,,,,"MET051METAR FACT 050500Z 23004KT CAVOK 18/15 Q1015 NOSIG=",
"68816099999","2022-03-05T06:00:00","4","-33.964806","18.601667","46.02","CAPE TOWN INTERNATIONAL, SF","FM-12","99999","V020","220,1,N,0041,1","99999,9,9,N","030000,1,9,9","+0201,1","+0142,1","10156,1",,,,,,,,,,"240,N,+0176,1",,"99999,9,10102,1","6,1,009,1,+999,9",,,,"4,99,0103,1,999","SYN08068816 32980 02208 10201 20142 30102 40156 56009 333 20176 91020 555 10251 91015=",
"68816099999","2022-03-05T06:00:00","4","-33.964806","18.601667","46.02","CAPE TOWN INTERNATIONAL, SF","FM-15","99999","V020","230,1,V,0036,1","99999,9,9,Y","009900,5,9,9","+0200,1","+0140,1","99999,9",,,,,,,,,,,,"10150,1,99999,9",,,,,,"MET059METAR FACT 050600Z 23007KT 200V260 CAVOK 20/14 Q1015 NOSIG=",
"68816099999","2022-03-05T06:00:00","4","-33.964806","18.601667","46.02","CAPE TOWN INTERNATIONAL, SF","FM-16","99999","V020","230,1,V,0036,1","99999,9,9,Y","009900,5,9,9","+0200,1","+0140,1","99999,9",,,,,,,,,,,,"10150,1,99999,9",,,,,,"MET059SPECI FACT 050600Z 23007KT 200V260 CAVOK 20/14 Q1015 NOSIG=",
"68816099999","2022-03-05T07:00:00","4","-33.964806","18.601667","46.02","CAPE TOWN INTERNATIONAL, SF","FM-15","99999","V020","220,1,N,0041,1","99999,9,9,Y","009900,5,9,9","+0220,1","+0140,1","99999,9",,,,,,,,,,,,"10150,1,99999,9",,,,,,"MET051METAR FACT 050700Z 22008KT CAVOK 22/14 Q1015 NOSIG=",
"68816099999","2022-03-05T08:00:00","4","-33.964806","18.601667","46.02","CAPE TOWN INTERNATIONAL, SF","FM-15","99999","V020","220,1,N,0051,1","99999,9,9,Y","009900,5,9,9","+0240,1","+0140,1","99999,9",,,,,,,,,,,,"10150,1,99999,9",,,,,,"MET051METAR FACT 050800Z 22010KT CAVOK 24/14 Q1015 NOSIG=",
"68816099999","2022-03-05T08:53:00","4","-33.964806","18.601667","46.02","CAPE TOWN INTERNATIONAL, SF","FM-16","99999","V020","190,1,N,0051,1","99999,9,9,Y","009900,5,9,9","+0270,1","+0130,1","99999,9",,,,,,,,,,,,"10150,1,99999,9",,,,,,"MET051SPECI FACT 050853Z 19010KT CAVOK 27/13 Q1015 NOSIG=",
"68816099999","2022-03-05T09:00:00","4","-33.964806","18.601667","46.02","CAPE TOWN INTERNATIONAL, SF","FM-15","99999","V020","190,1,N,0051,1","99999,9,9,Y","009900,5,9,9","+0270,1","+0130,1","99999,9",,,,,,,,,,,,"10150,1,99999,9",,,,,,"MET051METAR FACT 050900Z 19010KT CAVOK 27/13 Q1015 NOSIG=",
"68816099999","2022-03-05T10:00:00","4","-33.964806","18.601667","46.02","CAPE TOWN INTERNATIONAL, SF","FM-15","99999","V020","200,1,V,0057,1","99999,9,9,Y","009900,5,9,9","+0280,1","+0130,1","99999,9",,,,,,,,,,,,"10150,1,99999,9",,,,,,"MET059METAR FACT 051000Z 20011KT 160V230 CAVOK 28/13 Q1015 NOSIG=",
"68816099999","2022-03-05T11:00:00","4","-33.964806","18.601667","46.02","CAPE TOWN INTERNATIONAL, SF","FM-15","99999","V020","210,1,N,0067,1","99999,9,9,Y","009900,5,9,9","+0280,1","+0150,1","99999,9",,,,,,,,,,,,"10140,1,99999,9",,,,,,"MET051METAR FACT 051100Z 21013KT CAVOK 28/15 Q1014 NOSIG=",
"68816099999","2022-03-05T12:00:00","4","-33.964806","18.601667","46.02","CAPE TOWN INTERNATIONAL, SF","FM-12","99999","V020","190,1,N,0077,1","99999,9,9,N","030000,1,9,9","+0290,1","+0153,1","10142,1",,,,,,,,,,"240,N,+0198,1",,"99999,9,10086,1","7,1,012,1,+999,9",,,,"4,99,0103,1,999","SYN07468816 32980 01915 10290 20153 30086 40142 57012 333 20198 91020 555 91014=",
"68816099999","2022-03-05T12:00:00","4","-33.964806","18.601667","46.02","CAPE TOWN INTERNATIONAL, SF","FM-15","99999","V020","190,1,N,0077,1","99999,9,9,Y","009900,5,9,9","+0290,1","+0150,1","99999,9",,,,,,,,,,,,"10140,1,99999,9",,,,,,"MET051METAR FACT 051200Z 19015KT CAVOK 29/15 Q1014 NOSIG=",
"68816099999","2022-03-05T13:00:00","4","-33.964806","18.601667","46.02","CAPE TOWN INTERNATIONAL, SF","FM-15","99999","V020","210,1,N,0067,1","99999,9,9,Y","009900,5,9,9","+0290,1","+0150,1","99999,9",,,,,,,,,,,,"10130,1,99999,9",,,,,,"MET051METAR FACT 051300Z 21013KT CAVOK 29/15 Q1013 NOSIG=",
"68816099999","2022-03-05T14:00:00","4","-33.964806","18.601667","46.02","CAPE TOWN INTERNATIONAL, SF","FM-15","99999","V020","220,1,N,0062,1","99999,9,9,Y","009900,5,9,9","+0270,1","+0170,1","99999,9",,,,,,,,,,,,"10120,1,99999,9",,,,,,"MET051METAR FACT 051400Z 22012KT CAVOK 27/17 Q1012 NOSIG=",
"68816099999","2022-03-05T15:00:00","4","-33.964806","18.601667","46.02","CAPE TOWN INTERNATIONAL, SF","FM-15","99999","V020","220,1,N,0077,1","99999,9,9,Y","009900,5,9,9","+0250,1","+0170,1","99999,9",,,,,,,,,,,,"10120,1,99999,9",,,,,,"MET051METAR FACT 051500Z 22015KT CAVOK 25/17 Q1012 NOSIG=",
"68816099999","2022-03-05T16:00:00","4","-33.964806","18.601667","46.02","CAPE TOWN INTERNATIONAL, SF","FM-15","99999","V020","220,1,V,0067,1","99999,9,9,Y","009900,5,9,9","+0250,1","+0170,1","99999,9",,,,,,,,,,,,"10110,1,99999,9",,,,,,"MET059METAR FACT 051600Z 22013KT 180V240 CAVOK 25/17 Q1011 NOSIG=",
"68816099999","2022-03-05T17:00:00","4","-33.964806","18.601667","46.02","CAPE TOWN INTERNATIONAL, SF","FM-15","99999","V020","220,1,N,0062,1","99999,9,9,Y","009900,5,9,9","+0230,1","+0170,1","99999,9",,,,,,,,,,,,"10110,1,99999,9",,,,"0118,1",,"MET054METAR FACT 051700Z 22012G23KT CAVOK 23/17 Q1011 NOSIG=",
"68816099999","2022-03-05T18:00:00","4","-33.964806","18.601667","46.02","CAPE TOWN INTERNATIONAL, SF","FM-12","99999","V020","220,1,N,0067,1","99999,9,9,N","030000,1,9,9","+0218,1","+0162,1","10122,1",,,,,,,,,,"120,M,+0301,1",,"99999,9,10066,1","2,1,003,1,+999,9",,,,"4,99,0088,1,999","SYN07468816 32980 02213 10218 20162 30066 40122 52003 333 10301 91017 555 91012=",
"68816099999","2022-03-05T18:00:00","4","-33.964806","18.601667","46.02","CAPE TOWN INTERNATIONAL, SF","FM-15","99999","V020","220,1,N,0067,1","99999,9,9,Y","009900,5,9,9","+0220,1","+0160,1","99999,9",,,,,,,,,,,,"10120,1,99999,9",,,,,,"MET051METAR FACT 051800Z 22013KT CAVOK 22/16 Q1012 NOSIG=",
"68816099999","2022-03-05T19:00:00","4","-33.964806","18.601667","46.02","CAPE TOWN INTERNATIONAL, SF","FM-15","99999","V020","220,1,N,0057,1","99999,9,9,Y","009900,5,9,9","+0210,1","+0160,1","99999,9",,,,,,,,,,,,"10120,1,99999,9",,,,,,"MET051METAR FACT 051900Z 22011KT CAVOK 21/16 Q1012 NOSIG=",
"68816099999","2022-03-05T20:00:00","4","-33.964806","18.601667","46.02","CAPE TOWN INTERNATIONAL, SF","FM-15","99999","V020","220,1,N,0057,1","99999,9,9,Y","009900,5,9,9","+0210,1","+0160,1","99999,9",,,,,,,,,,,,"10120,1,99999,9",,,,,,"MET051METAR FACT 052000Z 22011KT CAVOK 21/16 Q1012 NOSIG=",
"68816099999","2022-03-05T21:00:00","4","-33.964806","18.601667","46.02","CAPE TOWN INTERNATIONAL, SF","FM-15","99999","V020","200,1,N,0051,1","99999,9,9,Y","009900,5,9,9","+0220,1","+0150,1","99999,9",,,,,,,,,,,,"10120,1,99999,9",,,,,,"MET051METAR FACT 052100Z 20010KT CAVOK 22/15 Q1012 NOSIG=",
"68816099999","2022-03-05T22:00:00","4","-33.964806","18.601667","46.02","CAPE TOWN INTERNATIONAL, SF","FM-15","99999","V020","210,1,N,0031,1","99999,9,9,Y","009900,5,9,9","+0200,1","+0150,1","99999,9",,,,,,,,,,,,"10120,1,99999,9",,,,,,"MET051METAR FACT 052200Z 21006KT CAVOK 20/15 Q1012 NOSIG=",
"68816099999","2022-03-05T23:00:00","4","-33.964806","18.601667","46.02","CAPE TOWN INTERNATIONAL, SF","FM-15","99999","V020","220,1,V,0021,1","99999,9,9,Y","009900,5,9,9","+0190,1","+0160,1","99999,9",,,,,,,,,,,,"10110,1,99999,9",,,,,,"MET059METAR FACT 052300Z 22004KT 190V250 CAVOK 19/16 Q1011 NOSIG=",
"68816099999","2022-03-06T00:00:00","4","-33.964806","18.601667","46.02","CAPE TOWN INTERNATIONAL, SF","FM-12","99999","V020","210,1,N,0015,1","99999,9,9,N","020000,1,9,9","+0189,1","+0154,1","10110,1",,,,,,,,,,"120,M,+0301,1",,"99999,9,10055,1","2,1,003,1,+999,9",,,,"4,99,0051,1,999","SYN07468816 32970 02103 10189 20154 30055 40110 52003 333 10301 91010 555 91011=",
"68816099999","2022-03-06T00:00:00","4","-33.964806","18.601667","46.02","CAPE TOWN INTERNATIONAL, SF","FM-15","99999","V020","999,9,V,0010,1","99999,9,9,Y","009900,5,9,9","+0190,1","+0160,1","99999,9",,,,,,,,,,,,"10110,1,99999,9",,,,,,"MET051METAR FACT 060000Z VRB02KT CAVOK 19/16 Q1011 NOSIG=",
"68816099999","2022-03-06T01:00:00","4","-33.964806","18.601667","46.02","CAPE TOWN INTERNATIONAL, SF","FM-15","99999","V020","210,1,N,0021,1","99999,9,9,Y","009900,5,9,9","+0190,1","+0150,1","99999,9",,,,,,,,,,,,"10100,1,99999,9",,,,,,"MET051METAR FACT 060100Z 21004KT CAVOK 19/15 Q1010 NOSIG=",
"68816099999","2022-03-06T02:00:00","4","-33.964806","18.601667","46.02","CAPE TOWN INTERNATIONAL, SF","FM-15","99999","V020","999,9,V,0010,1","99999,9,9,Y","009900,5,9,9","+0180,1","+0150,1","99999,9",,,,,,,,,,,,"10100,1,99999,9",,,,,,"MET051METAR FACT 060200Z VRB02KT CAVOK 18/15 Q1010 NOSIG=",
"68816099999","2022-03-06T03:00:00","4","-33.964806","18.601667","46.02","CAPE TOWN INTERNATIONAL, SF","FM-12","99999","V020","230,1,N,0026,1","99999,9,9,N","020000,1,9,9","+0179,1","+0159,1","10106,1",,,,,,,,,,"240,M,+0302,1",,"99999,9,10052,1","2,1,003,1,+999,9",,,,"4,99,0051,1,999","SYN06468816 42970 02305 10179 20159 30052 40106 52003 333 10302 91010=",
"68816099999","2022-03-06T03:00:00","4","-33.964806","18.601667","46.02","CAPE TOWN INTERNATIONAL, SF","FM-15","99999","V020","240,1,N,0026,1","99999,9,9,Y","009900,5,9,9","+0180,1","+0160,1","99999,9",,,,,,,,,,,,"10100,1,99999,9",,,,,,"MET051METAR FACT 060300Z 24005KT CAVOK 18/16 Q1010 NOSIG=",
"68816099999","2022-03-06T04:00:00","4","-33.964806","18.601667","46.02","CAPE TOWN INTERNATIONAL, SF","FM-15","99999","V020","220,1,N,0026,1","99999,9,9,Y","009900,5,9,9","+0180,1","+0170,1","99999,9",,,,,,,,,,,,"10110,1,99999,9",,,,,,"MET051METAR FACT 060400Z 22005KT CAVOK 18/17 Q1011 NOSIG=",
"68816099999","2022-03-06T05:00:00","4","-33.964806","18.601667","46.02","CAPE TOWN INTERNATIONAL, SF","FM-15","99999","V020","060,1,N,0015,1","99999,9,9,Y","009900,5,9,9","+0170,1","+0160,1","99999,9",,,,,,,,,,,,"10110,1,99999,9",,,,,,"MET051METAR FACT 060500Z 06003KT CAVOK 17/16 Q1011 NOSIG=",
"68816099999","2022-03-06T05:55:00","4","-33.964806","18.601667","46.02","CAPE TOWN INTERNATIONAL, SF","FM-16","99999","V020","999,9,V,0005,1","99999,9,9,Y","009900,5,9,9","+0200,1","+0170,1","99999,9",,,,,,,,,,,,"10110,1,99999,9",,,,,,"MET051SPECI FACT 060555Z VRB01KT CAVOK 20/17 Q1011 NOSIG=",
"68816099999","2022-03-06T06:00:00","4","-33.964806","18.601667","46.02","CAPE TOWN INTERNATIONAL, SF","FM-12","99999","V020","100,1,N,0005,1","99999,9,9,N","020000,1,9,9","+0197,1","+0173,1","10113,1",,,,,,,,,,"240,N,+0163,1",,"99999,9,10059,1","2,1,003,1,+999,9",,,,"4,99,0010,1,999","SYN08068816 32970 01001 10197 20173 30059 40113 52003 333 20163 91002 555 10301 91011=",
"68816099999","2022-03-06T06:00:00","4","-33.964806","18.601667","46.02","CAPE TOWN INTERNATIONAL, SF","FM-15","99999","V020","999,9,V,0005,1","99999,9,9,Y","009900,5,9,9","+0200,1","+0170,1","99999,9",,,,,,,,,,,,"10110,1,99999,9",,,,,,"MET051METAR FACT 060600Z VRB01KT CAVOK 20/17 Q1011 NOSIG=",
"68816099999","2022-03-06T06:27:00","4","-33.964806","18.601667","46.02","CAPE TOWN INTERNATIONAL, SF","FM-16","99999","V020","999,9,V,0005,1","99999,9,9,Y","009900,5,9,9","+0220,1","+0170,1","99999,9",,,,,,,,,,,,"10110,1,99999,9",,,,,,"MET051SPECI FACT 060627Z VRB01KT CAVOK 22/17 Q1011 NOSIG=",
"68816099999","2022-03-06T06:56:00","4","-33.964806","18.601667","46.02","CAPE TOWN INTERNATIONAL, SF","FM-16","99999","V020","999,9,V,0015,1","99999,9,9,Y","009900,5,9,9","+0240,1","+0170,1","99999,9",,,,,,,,,,,,"10110,1,99999,9",,,,,,"MET051SPECI FACT 060656Z VRB03KT CAVOK 24/17 Q1011 NOSIG=",
"68816099999","2022-03-06T07:00:00","4","-33.964806","18.601667","46.02","CAPE TOWN INTERNATIONAL, SF","FM-15","99999","V020","999,9,V,0015,1","99999,9,9,Y","009900,5,9,9","+0240,1","+0170,1","99999,9",,,,,,,,,,,,"10110,1,99999,9",,,,,,"MET051METAR FACT 060700Z VRB03KT CAVOK 24/17 Q1011 NOSIG=",
"68816099999","2022-03-06T07:32:00","4","-33.964806","18.601667","46.02","CAPE TOWN INTERNATIONAL, SF","FM-16","99999","V020","320,1,V,0021,1","99999,9,9,Y","009900,5,9,9","+0260,1","+0170,1","99999,9",,,,,,,,,,,,"10110,1,99999,9",,,,,,"MET059SPECI FACT 060732Z 32004KT 250V360 CAVOK 26/17 Q1011 NOSIG=",
"68816099999","2022-03-06T07:37:00","4","-33.964806","18.601667","46.02","CAPE TOWN INTERNATIONAL, SF","FM-16","99999","V020","310,1,V,0021,1","99999,9,9,Y","009900,5,9,9","+0280,1","+0170,1","99999,9",,,,,,,,,,,,"10110,1,99999,9",,,,,,"MET059SPECI FACT 060737Z 31004KT 250V360 CAVOK 28/17 Q1011 NOSIG=",
"68816099999","2022-03-06T08:00:00","4","-33.964806","18.601667","46.02","CAPE TOWN INTERNATIONAL, SF","FM-15","99999","V020","330,1,V,0026,1","99999,9,9,Y","009900,5,9,9","+0290,1","+0140,1","99999,9",,,,,,,,,,,,"10110,1,99999,9",,,,,,"MET059METAR FACT 060800Z 33005KT 290V350 CAVOK 29/14 Q1011 NOSIG=",
"68816099999","2022-03-06T08:24:00","4","-33.964806","18.601667","46.02","CAPE TOWN INTERNATIONAL, SF","FM-16","99999","V020","320,1,V,0031,1","99999,9,9,Y","009900,5,9,9","+0310,1","+0140,1","99999,9",,,,,,,,,,,,"10110,1,99999,9",,,,,,"MET059SPECI FACT 060824Z 32006KT 280V360 CAVOK 31/14 Q1011 NOSIG=",
"68816099999","2022-03-06T09:00:00","4","-33.964806","18.601667","46.02","CAPE TOWN INTERNATIONAL, SF","FM-15","99999","V020","300,1,V,0041,1","99999,9,9,Y","009900,5,9,9","+0320,2","+0140,1","99999,9",,,,,,,,,,,,"10110,1,99999,9",,,,,,"MET059METAR FACT 060900Z 30008KT 250V340 CAVOK 32/14 Q1011 NOSIG=",
"68816099999","2022-03-06T10:00:00","4","-33.964806","18.601667","46.02","CAPE TOWN INTERNATIONAL, SF","FM-15","99999","V020","170,1,N,0062,1","99999,9,9,Y","009900,5,9,9","+0270,1","+0160,1","99999,9",,,,,,,,,,,,"10120,1,99999,9",,,,,,"MET051METAR FACT 061000Z 17012KT CAVOK 27/16 Q1012 NOSIG=",
"68816099999","2022-03-06T11:00:00","4","-33.964806","18.601667","46.02","CAPE TOWN INTERNATIONAL, SF","FM-15","99999","V020","170,1,N,0051,1","99999,9,9,Y","009900,5,9,9","+0260,1","+0180,1","99999,9",,,,,,,,,,,,"10110,1,99999,9",,,,,,"MET051METAR FACT 061100Z 17010KT CAVOK 26/18 Q1011 NOSIG=",
"68816099999","2022-03-06T12:00:00","4","-33.964806","18.601667","46.02","CAPE TOWN INTERNATIONAL, SF","FM-15","99999","V020","180,1,N,0067,1","99999,9,9,Y","009900,5,9,9","+0260,1","+0180,1","99999,9",,,,,,,,,,,,"10110,1,99999,9",,,,,,"MET051METAR FACT 061200Z 18013KT CAVOK 26/18 Q1011 NOSIG=",
"68816099999","2022-03-06T13:00:00","4","-33.964806","18.601667","46.02","CAPE TOWN INTERNATIONAL, SF","FM-15","99999","V020","170,1,N,0088,1","99999,9,9,Y","009900,5,9,9","+0250,1","+0190,1","99999,9",,,,,,,,,,,,"10110,1,99999,9",,,,,,"MET051METAR FACT 061300Z 17017KT CAVOK 25/19 Q1011 NOSIG=",
"68816099999","2022-03-06T14:00:00","4","-33.964806","18.601667","46.02","CAPE TOWN INTERNATIONAL, SF","FM-15","99999","V020","180,1,N,0088,1","99999,9,9,N","009999,1,9,9","+0250,1","+0190,1","99999,9",,,,,"02,1,+00366,1,99,9",,,"9,AGL   ,+99999,+99999","99,99,9,02,1,99,9,00366,1,99,9,99,9",,,"10110,1,99999,9",,,,,,"MET057METAR FACT 061400Z 18017KT 9999 FEW012 25/19 Q1011 NOSIG=",
"68816099999","2022-03-06T15:00:00","4","-33.964806","18.601667","46.02","CAPE TOWN INTERNATIONAL, SF","FM-15","99999","V020","180,1,N,0077,1","99999,9,9,Y","009900,5,9,9","+0250,1","+0190,1","99999,9",,,,,,,,,,,,"10100,1,99999,9",,,,,,"MET051METAR FACT 061500Z 18015KT CAVOK 25/19 Q1010 NOSIG=",
"68816099999","2022-03-06T16:00:00","4","-33.964806","18.601667","46.02","CAPE TOWN INTERNATIONAL, SF","FM-15","99999","V020","180,1,N,0077,1","99999,9,9,Y","009900,5,9,9","+0230,1","+0190,1","99999,9",,,,,,,,,,,,"10100,1,99999,9",,,,,,"MET051METAR FACT 061600Z 18015KT CAVOK 23/19 Q1010 NOSIG=",
"68816099999","2022-03-06T17:00:00","4","-33.964806","18.601667","46.02","CAPE TOWN INTERNATIONAL, SF","FM-15","99999","V020","180,1,N,0072,1","99999,9,9,Y","009900,5,9,9","+0220,1","+0190,1","99999,9",,,,,,,,,,,,"10100,1,99999,9",,,,,,"MET051METAR FACT 061700Z 18014KT CAVOK 22/19 Q1010 NOSIG=",
"68816099999","2022-03-06T17:58:00","4","-33.964806","18.601667","46.02","CAPE TOWN INTERNATIONAL, SF","FM-16","99999","V020","190,1,N,0077,1","00305,1,C,N","009999,1,9,9","+0210,1","+0190,1","99999,9",,,,,"07,1,+00305,1,99,9",,,"9,AGL   ,+99999,+99999","99,99,9,07,1,99,9,00305,1,99,9,99,9",,,"10110,1,99999,9",,,,,,"MET057SPECI FACT 061758Z 19015KT 9999 BKN010 21/19 Q1011 NOSIG=",
"68816099999","2022-03-06T18:00:00","4","-33.964806","18.601667","46.02","CAPE TOWN INTERNATIONAL, SF","FM-12","99999","V020","190,1,N,0077,1","99999,9,9,N","020000,1,9,9","+0212,1","+0189,1","10117,1",,,,,"06,1,+00450,1,07,1",,,"9,AGL   ,+99999,+99999","06,99,1,06,1,99,9,00450,1,99,9,99,9","120,M,+0321,1",,"99999,9,10061,1","2,1,008,1,+999,9",,,,"4,99,0088,1,999","SYN08068816 32470 61915 10212 20189 30061 40117 52008 86600 333 10321 91017 555 91011=",
"68816099999","2022-03-06T18:00:00","4","-33.964806","18.601667","46.02","CAPE TOWN INTERNATIONAL, SF","FM-15","99999","V020","190,1,N,0077,1","00305,1,C,N","009999,1,9,9","+0210,1","+0190,1","99999,9",,,,,"07,1,+00305,1,99,9",,,"9,AGL   ,+99999,+99999","99,99,9,07,1,99,9,00305,1,99,9,99,9",,,"10110,1,99999,9",,,,,,"MET057METAR FACT 061800Z 19015KT 9999 BKN010 21/19 Q1011 NOSIG=",
"68816099999","2022-03-06T19:00:00","4","-33.964806","18.601667","46.02","CAPE TOWN INTERNATIONAL, SF","FM-15","99999","V020","190,1,N,0077,1","00305,1,C,N","009999,1,9,9","+0220,1","+0190,1","99999,9",,,,,"07,1,+00305,1,99,9",,,"9,AGL   ,+99999,+99999","99,99,9,07,1,99,9,00305,1,99,9,99,9",,,"10120,1,99999,9",,,,,,"MET065METAR FACT 061900Z 19015KT 9999 BKN010 22/19 Q1012 TEMPO 5000 BR=",
"68816099999","2022-03-06T20:00:00","4","-33.964806","18.601667","46.02","CAPE TOWN INTERNATIONAL, SF","FM-15","99999","V020","190,1,N,0067,1","99999,9,9,N","009999,1,9,9","+0210,1","+0180,1","99999,9",,,,,"02,1,+00610,1,99,9",,,"9,AGL   ,+99999,+99999","99,99,9,02,1,99,9,00610,1,99,9,99,9",,,"10120,1,99999,9",,,,,,"MET057METAR FACT 062000Z 19013KT 9999 FEW020 21/18 Q1012 NOSIG=",
"68816099999","2022-03-06T20:00:00","4","-33.964806","18.601667","46.02","CAPE TOWN INTERNATIONAL, SF","FM-16","99999","V020","190,1,N,0067,1","99999,9,9,N","009999,1,9,9","+0210,1","+0180,1","99999,9",,,,,"02,1,+00610,1,99,9",,,"9,AGL   ,+99999,+99999","99,99,9,02,1,99,9,00610,1,99,9,99,9",,,"10120,1,99999,9",,,,,,"MET057SPECI FACT 062000Z 19013KT 9999 FEW020 21/18 Q1012 NOSIG=",
"68816099999","2022-03-06T21:00:00","4","-33.964806","18.601667","46.02","CAPE TOWN INTERNATIONAL, SF","FM-15","99999","V020","190,1,N,0057,1","99999,9,9,N","009999,1,9,9","+0210,1","+0190,1","99999,9",,,,,"02,1,+00183,1,99,9",,,"9,AGL   ,+99999,+99999","99,99,9,02,1,99,9,00183,1,99,9,99,9",,,"10120,1,99999,9",,,,,,"MET064METAR FACT 062100Z 19011KT 9999 FEW006 21/19 Q1012 BECMG BKN006=",
"68816099999","2022-03-06T22:00:00","4","-33.964806","18.601667","46.02","CAPE TOWN INTERNATIONAL, SF","FM-15","99999","V020","190,1,N,0072,1","00122,1,C,N","009999,1,9,9","+0200,1","+0190,1","99999,9",,,,,"07,1,+00122,1,99,9",,,"9,AGL   ,+99999,+99999","99,99,9,07,1,99,9,00122,1,99,9,99,9",,,"10120,1,99999,9",,,,,,"MET065METAR FACT 062200Z 19014KT 9999 BKN004 20/19 Q1012 TEMPO 5000 BR=",
"68816099999","2022-03-06T22:01:00","4","-33.964806","18.601667","46.02","CAPE TOWN INTERNATIONAL, SF","FM-16","99999","V020","190,1,N,0072,1","00122,1,C,N","009999,1,9,9","+0200,1","+0190,1","99999,9",,,,,"07,1,+00122,1,99,9",,,"9,AGL   ,+99999,+99999","99,99,9,07,1,99,9,00122,1,99,9,99,9",,,"10120,1,99999,9",,,,,,"MET065SPECI FACT 062201Z 19014KT 9999 BKN004 20/19 Q1012 TEMPO 5000 BR=",
"68816099999","2022-03-06T23:00:00","4","-33.964806","18.601667","46.02","CAPE TOWN INTERNATIONAL, SF","FM-15","99999","V020","190,1,N,0072,1","00091,1,C,N","004000,1,9,9","+0200,1","+0200,1","99999,9",,,,,"07,1,+00091,1,99,9","07,1,+00305,1,99,9",,"9,AGL   ,+99999,+99999","99,99,9,07,1,99,9,00091,1,99,9,99,9",,,"10120,1,99999,9",,"10,1",,,,"MET067METAR FACT 062300Z 19014KT 4000 BR BKN003 BKN010 20/20 Q1012 NOSIG=",
"68816099999","2022-03-06T23:02:00","4","-33.964806","18.601667","46.02","CAPE TOWN INTERNATIONAL, SF","FM-16","99999","V020","190,1,N,0072,1","00091,1,C,N","004000,1,9,9","+0200,1","+0200,1","99999,9",,,,,"07,1,+00091,1,99,9","07,1,+00305,1,99,9",,"9,AGL   ,+99999,+99999","99,99,9,07,1,99,9,00091,1,99,9,99,9",,,"10120,1,99999,9",,"10,1",,,,"MET067SPECI FACT 062302Z 19014KT 4000 BR BKN003 BKN010 20/20 Q1012 NOSIG=",
"68816099999","2022-03-06T23:47:00","4","-33.964806","18.601667","46.02","CAPE TOWN INTERNATIONAL, SF","FM-16","99999","V020","190,1,N,0067,1","00061,1,C,N","000300,1,9,9","+0200,1","+0200,1","99999,9",,,,,"08,1,+00061,1,99,9",,,"9,AGL   ,+99999,+99999","99,99,9,08,1,99,9,00061,1,99,9,99,9",,,"10120,1,99999,9",,"44,1",,,,"MET060SPECI FACT 062347Z 19013KT 0300 FG OVC002 20/20 Q1012 NOSIG=",
"68816099999","2022-03-07T00:00:00","4","-33.964806","18.601667","46.02","CAPE TOWN INTERNATIONAL, SF","FM-12","99999","V020","190,1,N,0067,1","99999,9,9,N","000300,1,9,9","+0202,1","+0195,1","10118,1",,"4,1,02,1","2,1,02,1",,"08,1,+00075,1,07,1",,,"9,AGL   ,+99999,+99999","08,99,1,08,1,99,9,00075,1,99,9,99,9","120,M,+0218,1","120,N,+0200,1","99999,9,10063,1","2,1,008,1,+999,9","46,1",,,"4,99,0082,1,999","SYN09268816 31103 81913 10202 20195 30063 40118 52008 74642 886// 333 10218 20200 91016 555 91011=",
"68816099999","2022-03-07T00:00:00","4","-33.964806","18.601667","46.02","CAPE TOWN INTERNATIONAL, SF","FM-15","99999","V020","190,1,N,0067,1","00061,1,C,N","000300,1,9,9","+0200,1","+0200,1","99999,9",,,,,"08,1,+00061,1,99,9",,,"9,AGL   ,+99999,+99999","99,99,9,08,1,99,9,00061,1,99,9,99,9",,,"10120,1,99999,9",,"44,1",,,,"MET060METAR FACT 070000Z 19013KT 0300 FG OVC002 20/20 Q1012 NOSIG=",
"68816099999","2022-03-07T00:58:00","4","-33.964806","18.601667","46.02","CAPE TOWN INTERNATIONAL, SF","FM-16","99999","V020","190,1,N,0077,1","00305,1,9,N","005000,1,9,9","+0200,1","+0200,1","99999,9",,,,,"02,1,+00091,1,99,9","07,1,+00305,1,99,9",,"9,AGL   ,+99999,+99999","99,99,9,02,1,99,9,00091,1,99,9,99,9",,,"10110,1,99999,9",,"10,1",,,,"MET067SPECI FACT 070058Z 19015KT 5000 BR FEW003 BKN010 20/20 Q1011 NOSIG=",
"68816099999","2022-03-07T01:00:00","4","-33.964806","18.601667","46.02","CAPE TOWN INTERNATIONAL, SF","FM-15","99999","V020","190,1,N,0077,1","00305,1,9,N","005000,1,9,9","+0200,1","+0200,1","99999,9",,,,,"02,1,+00091,1,99,9","07,1,+00305,1,99,9",,"9,AGL   ,+99999,+99999","99,99,9,02,1,99,9,00091,1,99,9,99,9",,,"10110,1,99999,9",,"10,1",,,,"MET067METAR FACT 070100Z 19015KT 5000 BR FEW003 BKN010 20/20 Q1011 NOSIG=",
"68816099999","2022-03-07T02:00:00","4","-33.964806","18.601667","46.02","CAPE TOWN INTERNATIONAL, SF","FM-15","99999","V020","200,1,N,0067,1","00305,1,9,N","009999,1,9,9","+0200,1","+0190,1","99999,9",,,,,"04,1,+00152,1,99,9","07,1,+00305,1,99,9",,"9,AGL   ,+99999,+99999","99,99,9,04,1,99,9,00152,1,99,9,99,9",,,"10120,1,99999,9",,,,,,"MET064METAR FACT 070200Z 20013KT 9999 SCT005 BKN010 20/19 Q1012 NOSIG=",
"68816099999","2022-03-07T02:04:00","4","-33.964806","18.601667","46.02","CAPE TOWN INTERNATIONAL, SF","FM-16","99999","V020","200,1,N,0067,1","00305,1,9,N","009999,1,9,9","+0200,1","+0190,1","99999,9",,,,,"04,1,+00152,1,99,9","07,1,+00305,1,99,9",,"9,AGL   ,+99999,+99999","99,99,9,04,1,99,9,00152,1,99,9,99,9",,,"10120,1,99999,9",,,,,,"MET064SPECI FACT 070204Z 20013KT 9999 SCT005 BKN010 20/19 Q1012 NOSIG=",
"68816099999","2022-03-07T02:33:00","4","-33.964806","18.601667","46.02","CAPE TOWN INTERNATIONAL, SF","FM-16","99999","V020","200,1,N,0062,1","00183,1,C,N","009999,1,9,9","+0200,1","+0190,1","99999,9",,,,,"07,1,+00183,1,99,9",,,"9,AGL   ,+99999,+99999","99,99,9,07,1,99,9,00183,1,99,9,99,9",,,"10120,1,99999,9",,,,,,"MET057SPECI FACT 070233Z 20012KT 9999 BKN006 20/19 Q1012 NOSIG=",
"68816099999","2022-03-07T03:00:00","4","-33.964806","18.601667","46.02","CAPE TOWN INTERNATIONAL, SF","FM-15","99999","V020","200,1,N,0072,1","00183,1,C,N","009999,1,9,9","+0200,1","+0190,1","99999,9",,,,,"07,1,+00183,1,99,9",,,"9,AGL   ,+99999,+99999","99,99,9,07,1,99,9,00183,1,99,9,99,9",,,"10120,1,99999,9",,,,,,"MET057METAR FACT 070300Z 20014KT 9999 BKN006 20/19 Q1012 NOSIG=",
"68816099999","2022-03-07T03:33:00","4","-33.964806","18.601667","46.02","CAPE TOWN INTERNATIONAL, SF","FM-16","99999","V020","200,1,N,0072,1","00122,1,C,N","009999,1,9,9","+0200,1","+0190,1","99999,9",,,,,"07,1,+00122,1,99,9",,,"9,AGL   ,+99999,+99999","99,99,9,07,1,99,9,00122,1,99,9,99,9",,,"10120,1,99999,9",,,,,,"MET057SPECI FACT 070333Z 20014KT 9999 BKN004 20/19 Q1012 NOSIG=",
"68816099999","2022-03-07T04:00:00","4","-33.964806","18.601667","46.02","CAPE TOWN INTERNATIONAL, SF","FM-15","99999","V020","200,1,N,0077,1","00274,1,9,N","009999,1,9,9","+0200,1","+0190,1","99999,9",,,,,"02,1,+00122,1,99,9","07,1,+00274,1,99,9",,"9,AGL   ,+99999,+99999","99,99,9,02,1,99,9,00122,1,99,9,99,9",,,"10120,1,99999,9",,,,,,"MET071METAR FACT 070400Z 20015KT 9999 FEW004 BKN009 20/19 Q1012 BECMG BKN015=",
"68816099999","2022-03-07T04:01:00","4","-33.964806","18.601667","46.02","CAPE TOWN INTERNATIONAL, SF","FM-16","99999","V020","200,1,N,0077,1","00274,1,9,N","009999,1,9,9","+0200,1","+0190,1","99999,9",,,,,"02,1,+00122,1,99,9","07,1,+00274,1,99,9",,"9,AGL   ,+99999,+99999","99,99,9,02,1,99,9,00122,1,99,9,99,9",,,"10120,1,99999,9",,,,,,"MET071SPECI FACT 070401Z 20015KT 9999 FEW004 BKN009 20/19 Q1012 BECMG BKN015=",
"68816099999","2022-03-07T04:30:00","4","-33.964806","18.601667","46.02","CAPE TOWN INTERNATIONAL, SF","FM-16","99999","V020","200,1,N,0072,1","00366,1,9,N","009999,1,9,9","+0200,1","+0190,1","99999,9",,,,,"02,1,+00152,1,99,9","07,1,+00366,1,99,9",,"9,AGL   ,+99999,+99999","99,99,9,02,1,99,9,00152,1,99,9,99,9",,,"10120,1,99999,9",,,,,,"MET071SPECI FACT 070430Z 20014KT 9999 FEW005 BKN012 20/19 Q1012 BECMG BKN015=",
"68816099999","2022-03-07T04:54:00","4","-33.964806","18.601667","46.02","CAPE TOWN INTERNATIONAL, SF","FM-16","99999","V020","200,1,N,0072,1","00457,1,9,N","009999,1,9,9","+0200,1","+0190,1","99999,9",,,,,"02,1,+00213,1,99,9","07,1,+00457,1,99,9",,"9,AGL   ,+99999,+99999","99,99,9,02,1,99,9,00213,1,99,9,99,9",,,"10130,1,99999,9",,,,,,"MET064SPECI FACT 070454Z 20014KT 9999 FEW007 BKN015 20/19 Q1013 NOSIG=",
"68816099999","2022-03-07T05:00:00","4","-33.964806","18.601667","46.02","CAPE TOWN INTERNATIONAL, SF","FM-15","99999","V020","200,1,N,0072,1","00457,1,9,N","009999,1,9,9","+0200,1","+0190,1","99999,9",,,,,"02,1,+00213,1,99,9","07,1,+00457,1,99,9",,"9,AGL   ,+99999,+99999","99,99,9,02,1,99,9,00213,1,99,9,99,9",,,"10130,1,99999,9",,,,,,"MET064METAR FACT 070500Z 20014KT 9999 FEW007 BKN015 20/19 Q1013 NOSIG=",
"68816099999","2022-03-07T06:00:00","4","-33.964806","18.601667","46.02","CAPE TOWN INTERNATIONAL, SF","FM-12","99999","V020","200,1,N,0093,1","99999,9,9,N","027000,1,9,9","+0205,1","+0182,1","10140,1",,,,,"07,1,+00450,1,06,1",,,"9,AGL   ,+99999,+99999","07,99,1,07,1,99,9,00450,1,99,9,99,9","240,N,+0198,1",,"99999,9,10086,1","2,1,008,1,+999,9",,,,"4,99,0103,1,999","SYN08668816 32477 72018 10205 20182 30086 40140 52008 875// 333 20198 91020 555 10301 91014=",
"68816099999","2022-03-07T06:00:00","4","-33.964806","18.601667","46.02","CAPE TOWN INTERNATIONAL, SF","FM-15","99999","V020","190,1,N,0088,1","00457,1,9,N","009999,1,9,9","+0210,1","+0180,1","99999,9",,,,,"02,1,+00213,1,99,9","07,1,+00457,1,99,9",,"9,AGL   ,+99999,+99999","99,99,9,02,1,99,9,00213,1,99,9,99,9",,,"10140,1,99999,9",,,,,,"MET064METAR FACT 070600Z 19017KT 9999 FEW007 BKN015 21/18 Q1014 NOSIG=",
"68816099999","2022-03-07T06:28:00","4","-33.964806","18.601667","46.02","CAPE TOWN INTERNATIONAL, SF","FM-16","99999","V020","190,1,N,0082,1","00610,1,9,N","009999,1,9,9","+0210,1","+0180,1","99999,9",,,,,"02,1,+00366,1,99,9","07,1,+00610,1,99,9",,"9,AGL   ,+99999,+99999","99,99,9,02,1,99,9,00366,1,99,9,99,9",,,"10140,1,99999,9",,,,,,"MET064SPECI FACT 070628Z 19016KT 9999 FEW012 BKN020 21/18 Q1014 NOSIG=",
"68816099999","2022-03-07T07:00:00","4","-33.964806","18.601667","46.02","CAPE TOWN INTERNATIONAL, SF","FM-15","99999","V020","190,1,N,0088,1","00914,1,9,N","009999,1,9,9","+0210,1","+0180,1","99999,9",,,,,"02,1,+00305,1,99,9","07,1,+00914,1,99,9",,"9,AGL   ,+99999,+99999","99,99,9,02,1,99,9,00305,1,99,9,99,9",,,"10140,1,99999,9",,,,,,"MET064METAR FACT 070700Z 19017KT 9999 FEW010 BKN030 21/18 Q1014 NOSIG=",
"68816099999","2022-03-07T07:32:00","4","-33.964806","18.601667","46.02","CAPE TOWN INTERNATIONAL, SF","FM-16","99999","V020","190,1,N,0103,1","00914,1,9,N","009999,1,9,9","+0230,1","+0180,1","99999,9",,,,,"04,1,+00457,1,99,9","07,1,+00914,1,99,9",,"9,AGL   ,+99999,+99999","99,99,9,04,1,99,9,00457,1,99,9,99,9",,,"10150,1,99999,9",,,,,,"MET064SPECI FACT 070732Z 19020KT 9999 SCT015 BKN030 23/18 Q1015 NOSIG=",
"68816099999","2022-03-07T08:00:00","4","-33.964806","18.601667","46.02","CAPE TOWN INTERNATIONAL, SF","FM-15","99999","V020","180,1,N,0108,1","01067,1,C,N","009999,1,9,9","+0230,1","+0180,1","99999,9",,,,,"02,1,+00457,1,99,9","04,1,+01067,1,99,9",,"9,AGL   ,+99999,+99999","99,99,9,02,1,99,9,00457,1,99,9,99,9",,,"10150,1,99999,9",,,,,,"MET064METAR FACT 070800Z 18021KT 9999 FEW015 SCT035 23/18 Q1015 NOSIG=",
"68816099999","2022-03-07T09:00:00","4","-33.964806","18.601667","46.02","CAPE TOWN INTERNATIONAL, SF","FM-15","99999","V020","180,1,N,0113,1","01067,1,C,N","009999,1,9,9","+0240,1","+0170,1","99999,9",,,,,"02,1,+00457,1,99,9","04,1,+01067,1,99,9",,"9,AGL   ,+99999,+99999","99,99,9,02,1,99,9,00457,1,99,9,99,9",,,"10150,1,99999,9",,,,,,"MET064METAR FACT 070900Z 18022KT 9999 FEW015 SCT035 24/17 Q1015 NOSIG=",
"68816099999","2022-03-07T10:00:00","4","-33.964806","18.601667","46.02","CAPE TOWN INTERNATIONAL, SF","FM-15","99999","V020","180,1,N,0113,1","99999,9,9,N","009999,1,9,9","+0250,1","+0160,1","99999,9",,,,,"02,1,+00762,1,99,9",,,"9,AGL   ,+99999,+99999","99,99,9,02,1,99,9,00762,1,99,9,99,9",,,"10150,1,99999,9",,,,,,"MET057METAR FACT 071000Z 18022KT 9999 FEW025 25/16 Q1015 NOSIG=",
"68816099999","2022-03-07T11:00:00","4","-33.964806","18.601667","46.02","CAPE TOWN INTERNATIONAL, SF","FM-15","99999","V020","180,1,N,0124,1","99999,9,9,N","009999,1,9,9","+0250,1","+0160,1","99999,9",,,,,"02,1,+00762,1,99,9",,,"9,AGL   ,+99999,+99999","99,99,9,02,1,99,9,00762,1,99,9,99,9",,,"10140,1,99999,9",,,,,,"MET057METAR FACT 071100Z 18024KT 9999 FEW025 25/16 Q1014 NOSIG=",
"68816099999","2022-03-07T12:00:00","4","-33.964806","18.601667","46.02","CAPE TOWN INTERNATIONAL, SF","FM-12","99999","V020","190,1,N,0124,1","22000,1,9,N","020000,1,9,9","+0236,1","+0179,1","10145,1",,,,,"02,1,+00450,1,06,1",,,"9,AGL   ,+99999,+99999","02,99,1,02,1,99,9,00450,1,99,9,99,9","240,M,+0253,1","240,N,+0205,1","99999,9,10092,1","7,1,006,1,+999,9",,,,"4,99,0154,1,999","SYN08668816 32470 21924 10236 20179 30092 40145 57006 82500 333 10253 20205 91030 555 91014=",
"68816099999","2022-03-07T12:00:00","4","-33.964806","18.601667","46.02","CAPE TOWN INTERNATIONAL, SF","FM-15","99999","V020","180,1,N,0129,1","99999,9,9,N","009999,1,9,9","+0240,1","+0180,1","99999,9",,,,,"02,1,+00457,1,99,9",,,"9,AGL   ,+99999,+99999","99,99,9,02,1,99,9,00457,1,99,9,99,9",,,"10140,1,99999,9",,,,,,"MET057METAR FACT 071200Z 18025KT 9999 FEW015 24/18 Q1014 NOSIG=",
"68816099999","2022-03-07T13:00:00","4","-33.964806","18.601667","46.02","CAPE TOWN INTERNATIONAL, SF","FM-15","99999","V020","180,1,N,0134,1","99999,9,9,N","009999,1,9,9","+0230,1","+0180,1","99999,9",,,,,"02,1,+00457,1,99,9",,,"9,AGL   ,+99999,+99999","99,99,9,02,1,99,9,00457,1,99,9,99,9",,,"10140,1,99999,9",,,,,,"MET057METAR FACT 071300Z 18026KT 9999 FEW015 23/18 Q1014 NOSIG=",
"68816099999","2022-03-07T14:00:00","4","-33.964806","18.601667","46.02","CAPE TOWN INTERNATIONAL, SF","FM-15","99999","V020","190,1,N,0129,1","99999,9,9,N","009999,1,9,9","+0230,1","+0180,1","99999,9",,,,,"04,1,+00457,1,99,9",,,"9,AGL   ,+99999,+99999","99,99,9,04,1,99,9,00457,1,99,9,99,9",,,"10140,1,99999,9",,,,,,"MET057METAR FACT 071400Z 19025KT 9999 SCT015 23/18 Q1014 NOSIG=",
"68816099999","2022-03-07T15:00:00","4","-33.964806","18.601667","46.02","CAPE TOWN INTERNATIONAL, SF","FM-15","99999","V020","180,1,N,0129,1","99999,9,9,N","009999,1,9,9","+0220,1","+0170,1","99999,9",,,,,"02,1,+00457,1,99,9",,,"9,AGL   ,+99999,+99999","99,99,9,02,1,99,9,00457,1,99,9,99,9",,,"10140,1,99999,9",,,,,,"MET057METAR FACT 071500Z 18025KT 9999 FEW015 22/17 Q1014 NOSIG=",
"68816099999","2022-03-07T16:00:00","4","-33.964806","18.601667","46.02","CAPE TOWN INTERNATIONAL, SF","FM-15","99999","V020","180,1,N,0124,1","99999,9,9,N","009999,1,9,9","+0210,1","+0170,1","99999,9",,,,,"02,1,+00457,1,99,9",,,"9,AGL   ,+99999,+99999","99,99,9,02,1,99,9,00457,1,99,9,99,9",,,"10140,1,99999,9",,,,,,"MET057METAR FACT 071600Z 18024KT 9999 FEW015 21/17 Q1014 NOSIG=",
"68816099999","2022-03-07T17:00:00","4","-33.964806","18.601667","46.02","CAPE TOWN INTERNATIONAL, SF","FM-15","99999","V020","180,1,N,0113,1","99999,9,9,N","009999,1,9,9","+0200,1","+0160,1","99999,9",,,,,"02,1,+00610,1,99,9",,,"9,AGL   ,+99999,+99999","99,99,9,02,1,99,9,00610,1,99,9,99,9",,,"10140,1,99999,9",,,,,,"MET057METAR FACT 071700Z 18022KT 9999 FEW020 20/16 Q1014 NOSIG=",
"68816099999","2022-03-07T18:00:00","4","-33.964806","18.601667","46.02","CAPE TOWN INTERNATIONAL, SF","FM-12","99999","V020","180,1,N,0108,1","22000,1,9,N","020000,1,9,9","+0197,1","+0156,1","10147,1",,,,,"01,1,+00800,1,06,1",,,"9,AGL   ,+99999,+99999","01,99,1,01,1,99,9,00800,1,99,9,99,9","120,M,+0253,1","120,N,+0197,1","99999,9,10092,1","2,1,005,1,+999,9",,,,"4,99,0139,1,999","SYN08668816 32570 11821 10197 20156 30092 40147 52005 81500 333 10253 20197 91027 555 91014=",
"68816099999","2022-03-07T18:00:00","4","-33.964806","18.601667","46.02","CAPE TOWN INTERNATIONAL, SF","FM-15","99999","V020","180,1,N,0103,1","99999,9,9,N","009999,1,9,9","+0200,1","+0160,1","99999,9",,,,,"02,1,+00610,1,99,9",,,"9,AGL   ,+99999,+99999","99,99,9,02,1,99,9,00610,1,99,9,99,9",,,"10140,1,99999,9",,,,,,"MET057METAR FACT 071800Z 18020KT 9999 FEW020 20/16 Q1014 NOSIG=",
"68816099999","2022-03-07T19:00:00","4","-33.964806","18.601667","46.02","CAPE TOWN INTERNATIONAL, SF","FM-15","99999","V020","180,1,N,0113,1","99999,9,9,N","009999,1,9,9","+0200,1","+0160,1","99999,9",,,,,"02,1,+00914,1,99,9",,,"9,AGL   ,+99999,+99999","99,99,9,02,1,99,9,00914,1,99,9,99,9",,,"10150,1,99999,9",,,,,,"MET057METAR FACT 071900Z 18022KT 9999 FEW030 20/16 Q1015 NOSIG=",
"68816099999","2022-03-07T20:00:00","4","-33.964806","18.601667","46.02","CAPE TOWN INTERNATIONAL, SF","FM-15","99999","V020","180,1,N,0103,1","99999,9,9,Y","009900,5,9,9","+0190,1","+0160,1","99999,9",,,,,,,,,,,,"10150,1,99999,9",,,,,,"MET051METAR FACT 072000Z 18020KT CAVOK 19/16 Q1015 NOSIG=",
"68816099999","2022-03-07T21:00:00","4","-33.964806","18.601667","46.02","CAPE TOWN INTERNATIONAL, SF","FM-15","99999","V020","190,1,N,0108,1","99999,9,9,Y","009900,5,9,9","+0190,1","+0160,1","99999,9",,,,,,,,,,,,"10150,1,99999,9",,,,,,"MET051METAR FACT 072100Z 19021KT CAVOK 19/16 Q1015 NOSIG=",
"68816099999","2022-03-07T22:00:00","4","-33.964806","18.601667","46.02","CAPE TOWN INTERNATIONAL, SF","FM-15","99999","V020","190,1,N,0093,1","99999,9,9,Y","009900,5,9,9","+0190,1","+0150,1","99999,9",,,,,,,,,,,,"10140,1,99999,9",,,,,,"MET051METAR FACT 072200Z 19018KT CAVOK 19/15 Q1014 NOSIG=",
"68816099999","2022-03-07T23:00:00","4","-33.964806","18.601667","46.02","CAPE TOWN INTERNATIONAL, SF","FM-15","99999","V020","190,1,N,0093,1","99999,9,9,Y","009900,5,9,9","+0200,1","+0150,1","99999,9",,,,,,,,,,,,"10140,1,99999,9",,,,,,"MET051METAR FACT 072300Z 19018KT CAVOK 20/15 Q1014 NOSIG=",
"68816099999","2022-03-08T00:00:00","4","-33.964806","18.601667","46.02","CAPE TOWN INTERNATIONAL, SF","FM-12","99999","V020","190,1,N,0093,1","22000,1,9,N","021000,1,9,9","+0192,1","+0148,1","10147,1",,,,,"01,1,+00800,1,06,1",,,"9,AGL   ,+99999,+99999","01,99,1,01,1,99,9,00800,1,99,9,99,9",,,"99999,9,10092,1","2,1,005,1,+999,9",,,,"4,99,0093,1,999","SYN07468816 32571 11918 10192 20148 30092 40147 52005 81500 333 91018 555 91014=",
"68816099999","2022-03-08T00:00:00","4","-33.964806","18.601667","46.02","CAPE TOWN INTERNATIONAL, SF","FM-15","99999","V020","190,1,N,0093,1","99999,9,9,N","009999,1,9,9","+0190,1","+0150,1","99999,9",,,,,"02,1,+00610,1,99,9",,,"9,AGL   ,+99999,+99999","99,99,9,02,1,99,9,00610,1,99,9,99,9",,,"10140,1,99999,9",,,,,,"MET057METAR FACT 080000Z 19018KT 9999 FEW020 19/15 Q1014 NOSIG=",
"68816099999","2022-03-08T01:00:00","4","-33.964806","18.601667","46.02","CAPE TOWN INTERNATIONAL, SF","FM-15","99999","V020","180,1,N,0082,1","99999,9,9,N","009999,1,9,9","+0190,1","+0150,1","99999,9",,,,,"02,1,+00610,1,99,9",,,"9,AGL   ,+99999,+99999","99,99,9,02,1,99,9,00610,1,99,9,99,9",,,"10140,1,99999,9",,,,,,"MET057METAR FACT 080100Z 18016KT 9999 FEW020 19/15 Q1014 NOSIG=",
"68816099999","2022-03-08T02:00:00","4","-33.964806","18.601667","46.02","CAPE TOWN INTERNATIONAL, SF","FM-15","99999","V020","190,1,N,0077,1","99999,9,9,N","009999,1,9,9","+0190,1","+0160,1","99999,9",,,,,"02,1,+00610,1,99,9",,,"9,AGL   ,+99999,+99999","99,99,9,02,1,99,9,00610,1,99,9,99,9",,,"10140,1,99999,9",,,,,,"MET057METAR FACT 080200Z 19015KT 9999 FEW020 19/16 Q1014 NOSIG=",
"68816099999","2022-03-08T03:00:00","4","-33.964806","18.601667","46.02","CAPE TOWN INTERNATIONAL, SF","FM-15","99999","V020","200,1,N,0067,1","99999,9,9,N","009999,1,9,9","+0190,1","+0150,1","99999,9",,,,,"02,1,+00610,1,99,9",,,"9,AGL   ,+99999,+99999","99,99,9,02,1,99,9,00610,1,99,9,99,9",,,"10130,1,99999,9",,,,,,"MET057METAR FACT 080300Z 20013KT 9999 FEW020 19/15 Q1013 NOSIG=",
"68816099999","2022-03-08T04:00:00","4","-33.964806","18.601667","46.02","CAPE TOWN INTERNATIONAL, SF","FM-15","99999","V020","220,1,N,0057,1","99999,9,9,Y","009900,5,9,9","+0190,1","+0150,1","99999,9",,,,,,,,,,,,"10130,1,99999,9",,,,,,"MET051METAR FACT 080400Z 22011KT CAVOK 19/15 Q1013 NOSIG=",
"68816099999","2022-03-08T05:00:00","4","-33.964806","18.601667","46.02","CAPE TOWN INTERNATIONAL, SF","FM-15","99999","V020","220,1,N,0062,1","99999,9,9,Y","009900,5,9,9","+0180,1","+0150,1","99999,9",,,,,,,,,,,,"10140,1,99999,9",,,,,,"MET051METAR FACT 080500Z 22012KT CAVOK 18/15 Q1014 NOSIG=",
"68816099999","2022-03-08T06:00:00","4","-33.964806","18.601667","46.02","CAPE TOWN INTERNATIONAL, SF","FM-12","99999","V020","200,1,N,0057,1","99999,9,9,N","030000,1,9,9","+0202,1","+0159,1","10144,1",,,,,,,,,,"240,N,+0181,1",,"99999,9,10090,1","6,1,002,1,+999,9",,,,"4,99,0072,1,999","SYN08068816 32980 02011 10202 20159 30090 40144 56002 333 20181 91014 555 10253 91014=",
"68816099999","2022-03-08T06:00:00","4","-33.964806","18.601667","46.02","CAPE TOWN INTERNATIONAL, SF","FM-15","99999","V020","210,1,N,0057,1","99999,9,9,Y","009900,5,9,9","+0200,1","+0160,1","99999,9",,,,,,,,,,,,"10140,1,99999,9",,,,,,"MET051METAR FACT 080600Z 21011KT CAVOK 20/16 Q1014 NOSIG=",
"68816099999","2022-03-08T06:54:00","4","-33.964806","18.601667","46.02","CAPE TOWN INTERNATIONAL, SF","FM-16","99999","V020","190,1,N,0072,1","99999,9,9,Y","009900,5,9,9","+0230,1","+0160,1","99999,9",,,,,,,,,,,,"10140,1,99999,9",,,,,,"MET051SPECI FACT 080654Z 19014KT CAVOK 23/16 Q1014 NOSIG=",
"68816099999","2022-03-08T07:00:00","4","-33.964806","18.601667","46.02","CAPE TOWN INTERNATIONAL, SF","FM-15","99999","V020","190,1,N,0072,1","99999,9,9,Y","009900,5,9,9","+0230,1","+0160,1","99999,9",,,,,,,,,,,,"10140,1,99999,9",,,,,,"MET051METAR FACT 080700Z 19014KT CAVOK 23/16 Q1014 NOSIG=",
"68816099999","2022-03-08T08:00:00","4","-33.964806","18.601667","46.02","CAPE TOWN INTERNATIONAL, SF","FM-15","99999","V020","190,1,N,0057,1","99999,9,9,Y","009900,5,9,9","+0240,1","+0150,1","99999,9",,,,,,,,,,,,"10150,1,99999,9",,,,,,"MET051METAR FACT 080800Z 19011KT CAVOK 24/15 Q1015 NOSIG=",
"68816099999","2022-03-08T09:00:00","4","-33.964806","18.601667","46.02","CAPE TOWN INTERNATIONAL, SF","FM-12","99999","V020","180,1,N,0103,1","99999,9,9,N","030000,1,9,9","+0254,1","+0163,1","10146,1",,,,,,,,,,"240,M,+0261,1","240,N,+0217,1","99999,9,10093,1","9,9,002,1,+999,9",,,,"4,99,0134,1,999","SYN07068816 42980 01820 10254 20163 30093 40146 50002 333 10261 20217 91026=",
"68816099999","2022-03-08T09:00:00","4","-33.964806","18.601667","46.02","CAPE TOWN INTERNATIONAL, SF","FM-15","99999","V020","180,1,N,0082,1","99999,9,9,Y","009900,5,9,9","+0260,1","+0160,1","99999,9",,,,,,,,,,,,"10140,1,99999,9",,,,,,"MET051METAR FACT 080900Z 18016KT CAVOK 26/16 Q1014 NOSIG=",
"68816099999","2022-03-08T10:00:00","4","-33.964806","18.601667","46.02","CAPE TOWN INTERNATIONAL, SF","FM-15","99999","V020","170,1,N,0093,1","99999,9,9,Y","009900,5,9,9","+0270,1","+0170,1","99999,9",,,,,,,,,,,,"10140,1,99999,9",,,,,,"MET051METAR FACT 081000Z 17018KT CAVOK 27/17 Q1014 NOSIG=",
"68816099999","2022-03-08T11:00:00","4","-33.964806","18.601667","46.02","CAPE TOWN INTERNATIONAL, SF","FM-15","99999","V020","170,1,N,0082,1","99999,9,9,Y","009900,5,9,9","+0290,1","+0170,1","99999,9",,,,,,,,,,,,"10130,1,99999,9",,,,,,"MET051METAR FACT 081100Z 17016KT CAVOK 29/17 Q1013 NOSIG=",
"68816099999","2022-03-08T12:00:00","4","-33.964806","18.601667","46.02","CAPE TOWN INTERNATIONAL, SF","FM-12","99999","V020","190,1,N,0088,1","99999,9,9,N","040000,1,9,9","+0280,1","+0162,1","10128,1",,,,,,,,,,"240,N,+0217,1",,"99999,9,10075,1","7,1,017,1,+999,9",,,,"4,99,0118,1,999","SYN07468816 32982 01917 10280 20162 30075 40128 57017 333 20217 91023 555 91012=",
"68816099999","2022-03-08T12:00:00","4","-33.964806","18.601667","46.02","CAPE TOWN INTERNATIONAL, SF","FM-15","99999","V020","180,1,N,0093,1","99999,9,9,Y","009900,5,9,9","+0280,1","+0160,1","99999,9",,,,,,,,,,,,"10130,1,99999,9",,,,,,"MET051METAR FACT 081200Z 18018KT CAVOK 28/16 Q1013 NOSIG=",
"68816099999","2022-03-08T13:00:00","4","-33.964806","18.601667","46.02","CAPE TOWN INTERNATIONAL, SF","FM-15","99999","V020","210,1,V,0062,1","99999,9,9,Y","009900,5,9,9","+0280,1","+0160,1","99999,9",,,,,,,,,,,,"10120,1,99999,9",,,,,,"MET059METAR FACT 081300Z 21012KT 170V230 CAVOK 28/16 Q1012 NOSIG=",
"68816099999","2022-03-08T14:00:00","4","-33.964806","18.601667","46.02","CAPE TOWN INTERNATIONAL, SF","FM-15","99999","V020","170,1,N,0057,1","99999,9,9,Y","009900,5,9,9","+0280,1","+0160,1","99999,9",,,,,,,,,,,,"10120,1,99999,9",,,,,,"MET051METAR FACT 081400Z 17011KT CAVOK 28/16 Q1012 NOSIG=",
"68816099999","2022-03-08T15:00:00","4","-33.964806","18.601667","46.02","CAPE TOWN INTERNATIONAL, SF","FM-15","99999","V020","170,1,N,0082,1","99999,9,9,Y","009900,5,9,9","+0280,1","+0170,1","99999,9",,,,,,,,,,,,"10110,1,99999,9",,,,,,"MET051METAR FACT 081500Z 17016KT CAVOK 28/17 Q1011 NOSIG=",
"68816099999","2022-03-08T16:00:00","4","-33.964806","18.601667","46.02","CAPE TOWN INTERNATIONAL, SF","FM-15","99999","V020","190,1,V,0077,1","99999,9,9,Y","009900,5,9,9","+0270,1","+0180,1","99999,9",,,,,,,,,,,,"10110,1,99999,9",,,,,,"MET059METAR FACT 081600Z 19015KT 160V220 CAVOK 27/18 Q1011 NOSIG=",
"68816099999","2022-03-08T17:00:00","4","-33.964806","18.601667","46.02","CAPE TOWN INTERNATIONAL, SF","FM-15","99999","V020","220,1,N,0051,1","99999,9,9,Y","009900,5,9,9","+0230,1","+0170,1","99999,9",,,,,,,,,,,,"10110,1,99999,9",,,,,,"MET051METAR FACT 081700Z 22010KT CAVOK 23/17 Q1011 NOSIG=",
"68816099999","2022-03-08T18:00:00","4","-33.964806","18.601667","46.02","CAPE TOWN INTERNATIONAL, SF","FM-12","99999","V020","210,1,N,0057,1","99999,9,9,N","040000,1,9,9","+0209,1","+0166,1","10111,1",,,,,,,,,,"120,M,+0291,1",,"99999,9,10057,1","5,1,003,1,+999,9",,,,"4,99,0072,1,999","SYN07468816 32982 02111 10209 20166 30057 40111 55003 333 10291 91014 555 91011=",
"68816099999","2022-03-08T18:00:00","4","-33.964806","18.601667","46.02","CAPE TOWN INTERNATIONAL, SF","FM-15","99999","V020","210,1,N,0057,1","99999,9,9,Y","009900,5,9,9","+0210,1","+0170,1","99999,9",,,,,,,,,,,,"10110,1,99999,9",,,,,,"MET051METAR FACT 081800Z 21011KT CAVOK 21/17 Q1011 NOSIG=",
"68816099999","2022-03-08T19:00:00","4","-33.964806","18.601667","46.02","CAPE TOWN INTERNATIONAL, SF","FM-15","99999","V020","210,1,N,0051,1","99999,9,9,Y","009900,5,9,9","+0210,1","+0170,1","99999,9",,,,,,,,,,,,"10110,1,99999,9",,,,,,"MET051METAR FACT 081900Z 21010KT CAVOK 21/17 Q1011 NOSIG=",
"68816099999","2022-03-08T20:00:00","4","-33.964806","18.601667","46.02","CAPE TOWN INTERNATIONAL, SF","FM-15","99999","V020","200,1,N,0046,1","99999,9,9,Y","009900,5,9,9","+0210,1","+0170,1","99999,9",,,,,,,,,,,,"10110,1,99999,9",,,,,,"MET051METAR FACT 082000Z 20009KT CAVOK 21/17 Q1011 NOSIG=",
"68816099999","2022-03-08T21:00:00","4","-33.964806","18.601667","46.02","CAPE TOWN INTERNATIONAL, SF","FM-15","99999","V020","210,1,N,0041,1","99999,9,9,Y","009900,5,9,9","+0200,1","+0160,1","99999,9",,,,,,,,,,,,"10110,1,99999,9",,,,,,"MET051METAR FACT 082100Z 21008KT CAVOK 20/16 Q1011 NOSIG=",
"68816099999","2022-03-08T22:00:00","4","-33.964806","18.601667","46.02","CAPE TOWN INTERNATIONAL, SF","FM-15","99999","V020","220,1,N,0046,1","99999,9,9,Y","009900,5,9,9","+0200,1","+0160,1","99999,9",,,,,,,,,,,,"10100,1,99999,9",,,,,,"MET051METAR FACT 082200Z 22009KT CAVOK 20/16 Q1010 NOSIG=",
"68816099999","2022-03-08T23:00:00","4","-33.964806","18.601667","46.02","CAPE TOWN INTERNATIONAL, SF","FM-15","99999","V020","200,1,N,0041,1","99999,9,9,Y","009900,5,9,9","+0200,1","+0160,1","99999,9",,,,,,,,,,,,"10100,1,99999,9",,,,,,"MET051METAR FACT 082300Z 20008KT CAVOK 20/16 Q1010 NOSIG=",
"68816099999","2022-03-09T00:00:00","4","-33.964806","18.601667","46.02","CAPE TOWN INTERNATIONAL, SF","FM-12","99999","V020","210,1,N,0036,1","99999,9,9,N","020000,1,9,9","+0192,1","+0162,1","10098,1",,,,,,,,,,,,"99999,9,10044,1","5,1,003,1,+999,9",,,,"4,99,0046,1,999","SYN06868816 32970 02107 10192 20162 30044 40098 55003 333 91009 555 91009=",
"68816099999","2022-03-09T00:00:00","4","-33.964806","18.601667","46.02","CAPE TOWN INTERNATIONAL, SF","FM-15","99999","V020","210,1,N,0036,1","99999,9,9,Y","009900,5,9,9","+0190,1","+0160,1","99999,9",,,,,,,,,,,,"10090,1,99999,9",,,,,,"MET051METAR FACT 090000Z 21007KT CAVOK 19/16 Q1009 NOSIG=",
"68816099999","2022-03-09T01:00:00","4","-33.964806","18.601667","46.02","CAPE TOWN INTERNATIONAL, SF","FM-15","99999","V020","200,1,N,0026,1","99999,9,9,Y","009900,5,9,9","+0190,1","+0160,1","99999,9",,,,,,,,,,,,"10090,1,99999,9",,,,,,"MET051METAR FACT 090100Z 20005KT CAVOK 19/16 Q1009 NOSIG=",
"68816099999","2022-03-09T02:00:00","4","-33.964806","18.601667","46.02","CAPE TOWN INTERNATIONAL, SF","FM-15","99999","V020","999,9,V,0005,1","99999,9,9,Y","009900,5,9,9","+0170,1","+0150,1","99999,9",,,,,,,,,,,,"10090,1,99999,9",,,,,,"MET051METAR FACT 090200Z VRB01KT CAVOK 17/15 Q1009 NOSIG=",
"68816099999","2022-03-09T03:00:00","4","-33.964806","18.601667","46.02","CAPE TOWN INTERNATIONAL, SF","FM-15","99999","V020","320,1,N,0021,1","99999,9,9,Y","009900,5,9,9","+0160,1","+0140,1","99999,9",,,,,,,,,,,,"10080,1,99999,9",,,,,,"MET051METAR FACT 090300Z 32004KT CAVOK 16/14 Q1008 NOSIG=",
"68816099999","2022-03-09T04:00:00","4","-33.964806","18.601667","46.02","CAPE TOWN INTERNATIONAL, SF","FM-15","99999","V020","999,9,V,0005,1","99999,9,9,Y","009900,5,9,9","+0170,1","+0150,1","99999,9",,,,,,,,,,,,"10090,1,99999,9",,,,,,"MET051METAR FACT 090400Z VRB01KT CAVOK 17/15 Q1009 NOSIG=",
"68816099999","2022-03-09T05:00:00","4","-33.964806","18.601667","46.02","CAPE TOWN INTERNATIONAL, SF","FM-15","99999","V020","030,1,N,0010,1","99999,9,9,Y","009900,5,9,9","+0160,1","+0150,1","99999,9",,,,,,,,,,,,"10090,1,99999,9",,,,,,"MET051METAR FACT 090500Z 03002KT CAVOK 16/15 Q1009 NOSIG=",
"68816099999","2022-03-09T05:28:00","4","-33.964806","18.601667","46.02","CAPE TOWN INTERNATIONAL, SF","FM-16","99999","V020","999,9,V,0015,1","99999,9,9,Y","009900,5,9,9","+0180,1","+0160,1","99999,9",,,,,,,,,,,,"10090,1,99999,9",,,,,,"MET051SPECI FACT 090528Z VRB03KT CAVOK 18/16 Q1009 NOSIG=",
"68816099999","2022-03-09T06:00:00","4","-33.964806","18.601667","46.02","CAPE TOWN INTERNATIONAL, SF","FM-12","99999","V020","270,1,N,0015,1","22000,1,9,N","020000,1,9,9","+0193,1","+0162,1","10098,1",,,,,"01,1,+99999,9,03,1",,,"9,AGL   ,+99999,+99999","01,99,1,01,1,99,9,99999,9,99,9,99,9","240,N,+0153,1",,"99999,9,10044,1","2,1,009,1,+999,9",,,,"4,99,0026,1,999","SYN08668816 32970 12703 10193 20162 30044 40098 52009 81080 333 20153 91005 555 10291 91009=",
"68816099999","2022-03-09T06:00:00","4","-33.964806","18.601667","46.02","CAPE TOWN INTERNATIONAL, SF","FM-15","99999","V020","999,9,V,0015,1","99999,9,9,Y","009900,5,9,9","+0190,1","+0160,1","99999,9",,,,,,,,,,,,"10090,1,99999,9",,,,,,"MET051METAR FACT 090600Z VRB03KT CAVOK 19/16 Q1009 NOSIG=",
"68816099999","2022-03-09T07:00:00","4","-33.964806","18.601667","46.02","CAPE TOWN INTERNATIONAL, SF","FM-15","99999","V020","999,9,V,0015,1","99999,9,9,Y","009900,5,9,9","+0210,1","+0160,1","99999,9",,,,,,,,,,,,"10100,1,99999,9",,,,,,"MET051METAR FACT 090700Z VRB03KT CAVOK 21/16 Q1010 NOSIG=",
"68816099999","2022-03-09T07:21:00","4","-33.964806","18.601667","46.02","CAPE TOWN INTERNATIONAL, SF","FM-16","99999","V020","999,9,V,0015,1","99999,9,9,Y","009900,5,9,9","+0230,1","+0160,1","99999,9",,,,,,,,,,,,"10100,1,99999,9",,,,,,"MET051SPECI FACT 090721Z VRB03KT CAVOK 23/16 Q1010 NOSIG=",
"68816099999","2022-03-09T07:46:00","4","-33.964806","18.601667","46.02","CAPE TOWN INTERNATIONAL, SF","FM-16","99999","V020","320,1,V,0021,1","99999,9,9,Y","009900,5,9,9","+0250,1","+0150,1","99999,9",,,,,,,,,,,,"10100,1,99999,9",,,,,,"MET059SPECI FACT 090746Z 32004KT 280V360 CAVOK 25/15 Q1010 NOSIG=",
"68816099999","2022-03-09T08:00:00","4","-33.964806","18.601667","46.02","CAPE TOWN INTERNATIONAL, SF","FM-15","99999","V020","310,1,V,0021,1","99999,9,9,Y","009900,5,9,9","+0250,1","+0150,1","99999,9",,,,,,,,,,,,"10100,1,99999,9",,,,,,"MET059METAR FACT 090800Z 31004KT 260V020 CAVOK 25/15 Q1010 NOSIG=",
"68816099999","2022-03-09T08:26:00","4","-33.964806","18.601667","46.02","CAPE TOWN INTERNATIONAL, SF","FM-16","99999","V020","310,1,V,0036,1","99999,9,9,Y","009900,5,9,9","+0270,1","+0150,1","99999,9",,,,,,,,,,,,"10100,1,99999,9",,,,,,"MET059SPECI FACT 090826Z 31007KT 270V350 CAVOK 27/15 Q1010 NOSIG=",
"68816099999","2022-03-09T09:00:00","4","-33.964806","18.601667","46.02","CAPE TOWN INTERNATIONAL, SF","FM-15","99999","V020","310,1,V,0046,1","99999,9,9,Y","009900,5,9,9","+0280,1","+0150,1","99999,9",,,,,,,,,,,,"10100,1,99999,9",,,,,,"MET059METAR FACT 090900Z 31009KT 280V350 CAVOK 28/15 Q1010 NOSIG=",
"68816099999","2022-03-09T10:00:00","4","-33.964806","18.601667","46.02","CAPE TOWN INTERNATIONAL, SF","FM-15","99999","V020","320,1,N,0046,1","99999,9,9,Y","009900,5,9,9","+0290,1","+0140,1","99999,9",,,,,,,,,,,,"10100,1,99999,9",,,,,,"MET051METAR FACT 091000Z 32009KT CAVOK 29/14 Q1010 NOSIG=",
"68816099999","2022-03-09T11:00:00","4","-33.964806","18.601667","46.02","CAPE TOWN INTERNATIONAL, SF","FM-15","99999","V020","180,1,V,0062,1","99999,9,9,Y","009900,5,9,9","+0280,1","+0160,1","99999,9",,,,,,,,,,,,"10100,1,99999,9",,,,,,"MET059METAR FACT 091100Z 18012KT 100V240 CAVOK 28/16 Q1010 NOSIG=",
"68816099999","2022-03-09T12:00:00","4","-33.964806","18.601667","46.02","CAPE TOWN INTERNATIONAL, SF","FM-12","99999","V020","180,1,N,0093,1","22000,1,9,N","040000,1,9,9","+0252,1","+0181,1","10106,1",,,,,"99,9,+99999,9,02,1",,,"9,AGL   ,+99999,+99999","02,99,1,00,1,99,9,99999,9,99,9,99,9","240,N,+0188,1",,"99999,9,10053,1","3,1,003,1,+999,9",,,,"4,99,0118,1,999","SYN08068816 32982 21818 10252 20181 30053 40106 53003 80008 333 20188 91023 555 91010=","Q01    003SCCGA1"
"68816099999","2022-03-09T12:00:00","4","-33.964806","18.601667","46.02","CAPE TOWN INTERNATIONAL, SF","FM-15","99999","V020","170,1,N,0093,1","99999,9,9,Y","009900,5,9,9","+0250,1","+0180,1","99999,9",,,,,,,,,,,,"10110,1,99999,9",,,,,,"MET051METAR FACT 091200Z 17018KT CAVOK 25/18 Q1011 NOSIG=",
"68816099999","2022-03-09T13:00:00","4","-33.964806","18.601667","46.02","CAPE TOWN INTERNATIONAL, SF","FM-15","99999","V020","170,1,N,0082,1","99999,9,9,Y","009900,5,9,9","+0250,1","+0180,1","99999,9",,,,,,,,,,,,"10100,1,99999,9",,,,,,"MET051METAR FACT 091300Z 17016KT CAVOK 25/18 Q1010 NOSIG=",
"68816099999","2022-03-09T14:00:00","4","-33.964806","18.601667","46.02","CAPE TOWN INTERNATIONAL, SF","FM-15","99999","V020","170,1,N,0088,1","99999,9,9,Y","009900,5,9,9","+0250,1","+0180,1","99999,9",,,,,,,,,,,,"10100,1,99999,9",,,,,,"MET051METAR FACT 091400Z 17017KT CAVOK 25/18 Q1010 NOSIG=",
"68816099999","2022-03-09T15:00:00","4","-33.964806","18.601667","46.02","CAPE TOWN INTERNATIONAL, SF","FM-15","99999","V020","180,1,N,0113,1","99999,9,9,N","009999,1,9,9","+0240,1","+0190,1","99999,9",,,,,"02,1,+00427,1,99,9",,,"9,AGL   ,+99999,+99999","99,99,9,02,1,99,9,00427,1,99,9,99,9",,,"10110,1,99999,9",,,,,,"MET057METAR FACT 091500Z 18022KT 9999 FEW014 24/19 Q1011 NOSIG=",
"68816099999","2022-03-09T16:00:00","4","-33.964806","18.601667","46.02","CAPE TOWN INTERNATIONAL, SF","FM-15","99999","V020","190,1,N,0088,1","99999,9,9,N","009999,1,9,9","+0230,1","+0190,1","99999,9",,,,,"02,1,+00427,1,99,9",,,"9,AGL   ,+99999,+99999","99,99,9,02,1,99,9,00427,1,99,9,99,9",,,"10120,1,99999,9",,,,,,"MET057METAR FACT 091600Z 19017KT 9999 FEW014 23/19 Q1012 NOSIG=",
"68816099999","2022-03-09T17:00:00","4","-33.964806","18.601667","46.02","CAPE TOWN INTERNATIONAL, SF","FM-15","99999","V020","190,1,N,0082,1","99999,9,9,N","009999,1,9,9","+0220,1","+0180,1","99999,9",,,,,"02,1,+00488,1,99,9",,,"9,AGL   ,+99999,+99999","99,99,9,02,1,99,9,00488,1,99,9,99,9",,,"10120,1,99999,9",,,,,,"MET057METAR FACT 091700Z 19016KT 9999 FEW016 22/18 Q1012 NOSIG=",
"68816099999","2022-03-09T18:00:00","4","-33.964806","18.601667","46.02","CAPE TOWN INTERNATIONAL, SF","FM-12","99999","V020","200,1,N,0072,1","22000,1,9,N","040000,1,9,9","+0205,1","+0185,1","10131,1",,,,,"01,1,+00450,1,06,1",,,"9,AGL   ,+99999,+99999","01,99,1,01,1,99,9,00450,1,99,9,99,9","120,M,+0303,1",,"99999,9,10077,1","2,1,020,1,+999,9",,,,"4,99,0103,1,999","SYN08068816 32482 12014 10205 20185 30077 40131 52020 81500 333 10303 91020 555 91013=",
"68816099999","2022-03-09T18:00:00","4","-33.964806","18.601667","46.02","CAPE TOWN INTERNATIONAL, SF","FM-15","99999","V020","190,1,N,0067,1","99999,9,9,N","009999,1,9,9","+0210,1","+0190,1","99999,9",,,,,"02,1,+00488,1,99,9",,,"9,AGL   ,+99999,+99999","99,99,9,02,1,99,9,00488,1,99,9,99,9",,,"10130,1,99999,9",,,,,,"MET057METAR FACT 091800Z 19013KT 9999 FEW016 21/19 Q1013 NOSIG=",
"68816099999","2022-03-09T19:00:00","4","-33.964806","18.601667","46.02","CAPE TOWN INTERNATIONAL, SF","FM-15","99999","V020","200,1,N,0072,1","99999,9,9,N","009999,1,9,9","+0200,1","+0190,1","99999,9",,,,,"02,1,+00457,1,99,9",,,"9,AGL   ,+99999,+99999","99,99,9,02,1,99,9,00457,1,99,9,99,9",,,"10130,1,99999,9",,,,,,"MET057METAR FACT 091900Z 20014KT 9999 FEW015 20/19 Q1013 NOSIG=",
"68816099999","2022-03-09T20:00:00","4","-33.964806","18.601667","46.02","CAPE TOWN INTERNATIONAL, SF","FM-15","99999","V020","200,1,N,0088,1","99999,9,9,N","009999,1,9,9","+0200,1","+0180,1","99999,9",,,,,"02,1,+00457,1,99,9",,,"9,AGL   ,+99999,+99999","99,99,9,02,1,99,9,00457,1,99,9,99,9",,,"10140,1,99999,9",,,,,,"MET057METAR FACT 092000Z 20017KT 9999 FEW015 20/18 Q1014 NOSIG=",
"68816099999","2022-03-09T21:00:00","4","-33.964806","18.601667","46.02","CAPE TOWN INTERNATIONAL, SF","FM-15","99999","V020","190,1,N,0082,1","99999,9,9,N","009999,1,9,9","+0200,1","+0180,1","99999,9",,,,,"02,1,+00427,1,99,9",,,"9,AGL   ,+99999,+99999","99,99,9,02,1,99,9,00427,1,99,9,99,9",,,"10140,1,99999,9",,,,,,"MET057METAR FACT 092100Z 19016KT 9999 FEW014 20/18 Q1014 NOSIG=",
"68816099999","2022-03-09T22:00:00","4","-33.964806","18.601667","46.02","CAPE TOWN INTERNATIONAL, SF","FM-15","99999","V020","190,1,N,0093,1","99999,9,9,Y","009900,5,9,9","+0190,1","+0170,1","99999,9",,,,,,,,,,,,"10140,1,99999,9",,,,,,"MET055METAR COR FACT 092200Z 19018KT CAVOK 19/17 Q1014 NOSIG=",
"68816099999","2022-03-09T23:00:00","4","-33.964806","18.601667","46.02","CAPE TOWN INTERNATIONAL, SF","FM-15","99999","V020","190,1,N,0093,1","99999,9,9,Y","009900,5,9,9","+0190,1","+0170,1","99999,9",,,,,,,,,,,,"10140,1,99999,9",,,,,,"MET051METAR FACT 092300Z 19018KT CAVOK 19/17 Q1014 NOSIG=",
"68816099999","2022-03-10T00:00:00","4","-33.964806","18.601667","46.02","CAPE TOWN INTERNATIONAL, SF","FM-12","99999","V020","190,1,N,0093,1","99999,9,9,N","020000,1,9,9","+0191,1","+0167,1","10144,1",,,,,,,,,,"120,M,+0303,1","120,N,+0191,1","99999,9,10090,1","8,1,001,1,+999,9",,,,"4,99,0124,1,999","SYN08068816 32970 01918 10191 20167 30090 40144 58001 333 10303 20191 91024 555 91014=",
"68816099999","2022-03-10T00:00:00","4","-33.964806","18.601667","46.02","CAPE TOWN INTERNATIONAL, SF","FM-15","99999","V020","190,1,N,0093,1","99999,9,9,Y","009900,5,9,9","+0190,1","+0170,1","99999,9",,,,,,,,,,,,"10140,1,99999,9",,,,,,"MET051METAR FACT 100000Z 19018KT CAVOK 19/17 Q1014 NOSIG=",
"68816099999","2022-03-10T01:00:00","4","-33.964806","18.601667","46.02","CAPE TOWN INTERNATIONAL, SF","FM-15","99999","V020","190,1,N,0093,1","99999,9,9,Y","009900,5,9,9","+0190,1","+0160,1","99999,9",,,,,,,,,,,,"10140,1,99999,9",,,,,,"MET051METAR FACT 100100Z 19018KT CAVOK 19/16 Q1014 NOSIG=",
"68816099999","2022-03-10T02:00:00","4","-33.964806","18.601667","46.02","CAPE TOWN INTERNATIONAL, SF","FM-15","99999","V020","200,1,N,0072,1","99999,9,9,N","009999,1,9,9","+0190,1","+0160,1","99999,9",,,,,"02,1,+00610,1,99,9",,,"9,AGL   ,+99999,+99999","99,99,9,02,1,99,9,00610,1,99,9,99,9",,,"10140,1,99999,9",,,,,,"MET057METAR FACT 100200Z 20014KT 9999 FEW020 19/16 Q1014 NOSIG=",
"68816099999","2022-03-10T03:00:00","4","-33.964806","18.601667","46.02","CAPE TOWN INTERNATIONAL, SF","FM-15","99999","V020","200,1,N,0077,1","99999,9,9,Y","009900,5,9,9","+0190,1","+0160,1","99999,9",,,,,,,,,,,,"10140,1,99999,9",,,,,,"MET051METAR FACT 100300Z 20015KT CAVOK 19/16 Q1014 NOSIG=",
"68816099999","2022-03-10T04:00:00","4","-33.964806","18.601667","46.02","CAPE TOWN INTERNATIONAL, SF","FM-15","99999","V020","190,1,N,0077,1","99999,9,9,Y","009900,5,9,9","+0180,1","+0160,1","99999,9",,,,,,,,,,,,"10140,1,99999,9",,,,,,"MET051METAR FACT 100400Z 19015KT CAVOK 18/16 Q1014 NOSIG=",
"68816099999","2022-03-10T05:00:00","4","-33.964806","18.601667","46.02","CAPE TOWN INTERNATIONAL, SF","FM-15","99999","V020","200,1,N,0072,1","99999,9,9,N","009999,1,9,9","+0180,1","+0160,1","99999,9",,,,,"02,1,+00914,1,99,9",,,"9,AGL   ,+99999,+99999","99,99,9,02,1,99,9,00914,1,99,9,99,9",,,"10140,1,99999,9",,,,,,"MET057METAR FACT 100500Z 20014KT 9999 FEW030 18/16 Q1014 NOSIG=",
"68816099999","2022-03-10T06:00:00","4","-33.964806","18.601667","46.02","CAPE TOWN INTERNATIONAL, SF","FM-12","99999","V020","190,1,N,0072,1","22000,1,9,N","030000,1,9,9","+0198,1","+0161,1","10153,1",,,,,"01,1,+00800,1,06,1",,,"9,AGL   ,+99999,+99999","01,99,1,01,1,99,9,00800,1,99,9,99,9","240,N,+0183,1",,"99999,9,10099,1","5,1,001,1,+999,9",,,,"4,99,0103,1,999","SYN08668816 32580 11914 10198 20161 30099 40153 55001 81500 333 20183 91020 555 10303 91015=",
"68816099999","2022-03-10T06:00:00","4","-33.964806","18.601667","46.02","CAPE TOWN INTERNATIONAL, SF","FM-15","99999","V020","190,1,N,0067,1","99999,9,9,N","009999,1,9,9","+0200,1","+0160,1","99999,9",,,,,"02,1,+00914,1,99,9",,,"9,AGL   ,+99999,+99999","99,99,9,02,1,99,9,00914,1,99,9,99,9",,,"10150,1,99999,9",,,,,,"MET057METAR FACT 100600Z 19013KT 9999 FEW030 20/16 Q1015 NOSIG=",
"68816099999","2022-03-10T07:00:00","4","-33.964806","18.601667","46.02","CAPE TOWN INTERNATIONAL, SF","FM-15","99999","V020","210,1,N,0077,1","99999,9,9,N","009999,1,9,9","+0210,1","+0160,1","99999,9",,,,,"02,1,+00914,1,99,9",,,"9,AGL   ,+99999,+99999","99,99,9,02,1,99,9,00914,1,99,9,99,9",,,"10150,1,99999,9",,,,,,"MET057METAR FACT 100700Z 21015KT 9999 FEW030 21/16 Q1015 NOSIG=",
"68816099999","2022-03-10T08:00:00","4","-33.964806","18.601667","46.02","CAPE TOWN INTERNATIONAL, SF","FM-15","99999","V020","200,1,N,0077,1","99999,9,9,N","009999,1,9,9","+0230,1","+0160,1","99999,9",,,,,"02,1,+00914,1,99,9",,,"9,AGL   ,+99999,+99999","99,99,9,02,1,99,9,00914,1,99,9,99,9",,,"10160,1,99999,9",,,,,,"MET057METAR FACT 100800Z 20015KT 9999 FEW030 23/16 Q1016 NOSIG=",
"68816099999","2022-03-10T09:00:00","4","-33.964806","18.601667","46.02","CAPE TOWN INTERNATIONAL, SF","FM-15","99999","V020","190,1,N,0082,1","99999,9,9,N","009999,1,9,9","+0230,1","+0160,1","99999,9",,,,,"02,1,+00914,1,99,9",,,"9,AGL   ,+99999,+99999","99,99,9,02,1,99,9,00914,1,99,9,99,9",,,"10150,1,99999,9",,,,,,"MET057METAR FACT 100900Z 19016KT 9999 FEW030 23/16 Q1015 NOSIG=",
"68816099999","2022-03-10T10:00:00","4","-33.964806","18.601667","46.02","CAPE TOWN INTERNATIONAL, SF","FM-15","99999","V020","200,1,N,0088,1","99999,9,9,N","009999,1,9,9","+0250,1","+0160,1","99999,9",,,,,"02,1,+00914,1,99,9",,,"9,AGL   ,+99999,+99999","99,99,9,02,1,99,9,00914,1,99,9,99,9",,,"10150,1,99999,9",,,,,,"MET057METAR FACT 101000Z 20017KT 9999 FEW030 25/16 Q1015 NOSIG=",
"68816099999","2022-03-10T11:00:00","4","-33.964806","18.601667","46.02","CAPE TOWN INTERNATIONAL, SF","FM-15","99999","V020","200,1,N,0082,1","99999,9,9,Y","009900,5,9,9","+0250,1","+0160,1","99999,9",,,,,,,,,,,,"10150,1,99999,9",,,,,,"MET051METAR FACT 101100Z 20016KT CAVOK 25/16 Q1015 NOSIG=",
"68816099999","2022-03-10T12:00:00","4","-33.964806","18.601667","46.02","CAPE TOWN INTERNATIONAL, SF","FM-12","99999","V020","190,1,N,0088,1","99999,9,9,N","035000,1,9,9","+0257,1","+0156,1","10145,1",,,,,,,,,,"240,N,+0245,1",,"99999,9,10091,1","9,9,003,1,+999,9",,,,"4,99,0103,1,999","SYN07468816 32981 01917 10257 20156 30091 40145 50003 333 20245 91020 555 91014=",
"68816099999","2022-03-10T12:00:00","4","-33.964806","18.601667","46.02","CAPE TOWN INTERNATIONAL, SF","FM-15","99999","V020","190,1,N,0088,1","99999,9,9,Y","009900,5,9,9","+0260,1","+0160,1","99999,9",,,,,,,,,,,,"10140,1,99999,9",,,,,,"MET051METAR FACT 101200Z 19017KT CAVOK 26/16 Q1014 NOSIG=",
"68816099999","2022-03-10T13:00:00","4","-33.964806","18.601667","46.02","CAPE TOWN INTERNATIONAL, SF","FM-15","99999","V020","200,1,N,0082,1","99999,9,9,Y","009900,5,9,9","+0250,1","+0160,1","99999,9",,,,,,,,,,,,"10140,1,99999,9",,,,,,"MET051METAR FACT 101300Z 20016KT CAVOK 25/16 Q1014 NOSIG=",
"68816099999","2022-03-10T14:00:00","4","-33.964806","18.601667","46.02","CAPE TOWN INTERNATIONAL, SF","FM-15","99999","V020","210,1,N,0077,1","99999,9,9,Y","009900,5,9,9","+0250,1","+0160,1","99999,9",,,,,,,,,,,,"10130,1,99999,9",,,,,,"MET051METAR FACT 101400Z 21015KT CAVOK 25/16 Q1013 NOSIG=",
"68816099999","2022-03-10T15:00:00","4","-33.964806","18.601667","46.02","CAPE TOWN INTERNATIONAL, SF","FM-15","99999","V020","210,1,N,0082,1","99999,9,9,Y","009900,5,9,9","+0240,1","+0150,1","99999,9",,,,,,,,,,,,"10130,1,99999,9",,,,,,"MET051METAR FACT 101500Z 21016KT CAVOK 24/15 Q1013 NOSIG=",
"68816099999","2022-03-10T16:00:00","4","-33.964806","18.601667","46.02","CAPE TOWN INTERNATIONAL, SF","FM-15","99999","V020","210,1,N,0082,1","99999,9,9,Y","009900,5,9,9","+0220,1","+0150,1","99999,9",,,,,,,,,,,,"10130,1,99999,9",,,,,,"MET051METAR FACT 101600Z 21016KT CAVOK 22/15 Q1013 NOSIG=",
"68816099999","2022-03-10T17:00:00","4","-33.964806","18.601667","46.02","CAPE TOWN INTERNATIONAL, SF","FM-15","99999","V020","230,1,N,0077,1","99999,9,9,Y","009900,5,9,9","+0210,1","+0150,1","99999,9",,,,,,,,,,,,"10130,1,99999,9",,,,,,"MET051METAR FACT 101700Z 23015KT CAVOK 21/15 Q1013 NOSIG=",
"68816099999","2022-03-10T18:00:00","4","-33.964806","18.601667","46.02","CAPE TOWN INTERNATIONAL, SF","FM-12","99999","V020","240,1,N,0082,1","99999,9,9,N","021000,1,9,9","+0195,1","+0151,1","10135,1",,,,,,,,,,"120,M,+0264,1","120,N,+0183,1","99999,9,10080,1","9,9,003,1,+999,9",,,,"4,99,0077,1,999","SYN08068816 32971 02416 10195 20151 30080 40135 50003 333 10264 20183 91015 555 91013=",
"68816099999","2022-03-10T18:00:00","4","-33.964806","18.601667","46.02","CAPE TOWN INTERNATIONAL, SF","FM-15","99999","V020","240,1,N,0077,1","99999,9,9,Y","009900,5,9,9","+0200,1","+0150,1","99999,9",,,,,,,,,,,,"10130,1,99999,9",,,,,,"MET051METAR FACT 101800Z 24015KT CAVOK 20/15 Q1013 NOSIG=",
"68816099999","2022-03-10T19:00:00","4","-33.964806","18.601667","46.02","CAPE TOWN INTERNATIONAL, SF","FM-15","99999","V020","230,1,N,0072,1","99999,9,9,Y","009900,5,9,9","+0190,1","+0150,1","99999,9",,,,,,,,,,,,"10130,1,99999,9",,,,,,"MET051METAR FACT 101900Z 23014KT CAVOK 19/15 Q1013 NOSIG=",
"68816099999","2022-03-10T20:00:00","4","-33.964806","18.601667","46.02","CAPE TOWN INTERNATIONAL, SF","FM-15","99999","V020","230,1,N,0062,1","99999,9,9,Y","009900,5,9,9","+0190,1","+0150,1","99999,9",,,,,,,,,,,,"10130,1,99999,9",,,,,,"MET055METAR COR FACT 102000Z 23012KT CAVOK 19/15 Q1013 NOSIG=",
"68816099999","2022-03-10T21:00:00","4","-33.964806","18.601667","46.02","CAPE TOWN INTERNATIONAL, SF","FM-15","99999","V020","220,1,N,0041,1","99999,9,9,Y","009900,5,9,9","+0190,1","+0150,1","99999,9",,,,,,,,,,,,"10130,1,99999,9",,,,,,"MET051METAR FACT 102100Z 22008KT CAVOK 19/15 Q1013 NOSIG=",
"68816099999","2022-03-10T22:00:00","4","-33.964806","18.601667","46.02","CAPE TOWN INTERNATIONAL, SF","FM-15","99999","V020","210,1,N,0041,1","99999,9,9,Y","009900,5,9,9","+0190,1","+0150,1","99999,9",,,,,,,,,,,,"10130,1,99999,9",,,,,,"MET051METAR FACT 102200Z 21008KT CAVOK 19/15 Q1013 NOSIG=",
"68816099999","2022-03-10T23:00:00","4","-33.964806","18.601667","46.02","CAPE TOWN INTERNATIONAL, SF","FM-15","99999","V020","230,1,V,0041,1","99999,9,9,Y","009900,5,9,9","+0180,1","+0150,1","99999,9",,,,,,,,,,,,"10130,1,99999,9",,,,,,"MET059METAR FACT 102300Z 23008KT 180V240 CAVOK 18/15 Q1013 NOSIG=",
"68816099999","2022-03-11T00:00:00","4","-33.964806","18.601667","46.02","CAPE TOWN INTERNATIONAL, SF","FM-12","99999","V020","210,1,N,0026,1","99999,9,9,N","030000,1,9,9","+0174,1","+0150,1","10121,1",,,,,,,,,,"120,M,+0264,1",,"99999,9,10066,1","9,9,003,1,+999,9",,,,"4,99,0051,1,999","SYN07468816 32980 02105 10174 20150 30066 40121 50003 333 10264 91010 555 91012=",
"68816099999","2022-03-11T00:00:00","4","-33.964806","18.601667","46.02","CAPE TOWN INTERNATIONAL, SF","FM-15","99999","V020","210,1,N,0031,1","99999,9,9,Y","009900,5,9,9","+0180,1","+0150,1","99999,9",,,,,,,,,,,,"10120,1,99999,9",,,,,,"MET051METAR FACT 110000Z 21006KT CAVOK 18/15 Q1012 NOSIG=",
"68816099999","2022-03-11T01:00:00","4","-33.964806","18.601667","46.02","CAPE TOWN INTERNATIONAL, SF","FM-15","99999","V020","230,1,N,0031,1","99999,9,9,Y","009900,5,9,9","+0180,1","+0150,1","99999,9",,,,,,,,,,,,"10110,1,99999,9",,,,,,"MET051METAR FACT 110100Z 23006KT CAVOK 18/15 Q1011 NOSIG=",
"68816099999","2022-03-11T02:00:00","4","-33.964806","18.601667","46.02","CAPE TOWN INTERNATIONAL, SF","FM-15","99999","V020","999,9,V,0005,1","99999,9,9,Y","009900,5,9,9","+0160,1","+0140,1","99999,9",,,,,,,,,,,,"10100,1,99999,9",,,,,,"MET051METAR FACT 110200Z VRB01KT CAVOK 16/14 Q1010 NOSIG=",
"68816099999","2022-03-11T03:00:00","4","-33.964806","18.601667","46.02","CAPE TOWN INTERNATIONAL, SF","FM-15","99999","V020","999,9,V,0005,1","99999,9,9,Y","009900,5,9,9","+0160,1","+0140,1","99999,9",,,,,,,,,,,,"10100,1,99999,9",,,,,,"MET051METAR FACT 110300Z VRB01KT CAVOK 16/14 Q1010 NOSIG=",
"68816099999","2022-03-11T04:00:00","4","-33.964806","18.601667","46.02","CAPE TOWN INTERNATIONAL, SF","FM-15","99999","V020","090,1,N,0010,1","99999,9,9,Y","009900,5,9,9","+0150,1","+0130,1","99999,9",,,,,,,,,,,,"10100,1,99999,9",,,,,,"MET051METAR FACT 110400Z 09002KT CAVOK 15/13 Q1010 NOSIG=",
"68816099999","2022-03-11T05:00:00","4","-33.964806","18.601667","46.02","CAPE TOWN INTERNATIONAL, SF","FM-15","99999","V020","999,9,V,0010,1","99999,9,9,Y","009900,5,9,9","+0160,1","+0150,1","99999,9",,,,,,,,,,,,"10100,1,99999,9",,,,,,"MET051METAR FACT 110500Z VRB02KT CAVOK 16/15 Q1010 NOSIG=",
"68816099999","2022-03-11T06:00:00","4","-33.964806","18.601667","46.02","CAPE TOWN INTERNATIONAL, SF","FM-12","99999","V020","020,1,N,0005,1","99999,9,9,N","020000,1,9,9","+0199,1","+0160,1","10107,1",,,,,,,,,,"240,N,+0146,1",,"99999,9,10053,1","3,1,002,1,+999,9",,,,"4,99,0015,1,999","SYN08068816 32970 00201 10199 20160 30053 40107 53002 333 20146 91003 555 10264 91010=",
"68816099999","2022-03-11T06:00:00","4","-33.964806","18.601667","46.02","CAPE TOWN INTERNATIONAL, SF","FM-15","99999","V020","999,9,V,0010,1","99999,9,9,Y","009900,5,9,9","+0190,1","+0160,1","99999,9",,,,,,,,,,,,"10100,1,99999,9",,,,,,"MET051METAR FACT 110600Z VRB02KT CAVOK 19/16 Q1010 NOSIG=",
"68816099999","2022-03-11T06:00:00","4","-33.964806","18.601667","46.02","CAPE TOWN INTERNATIONAL, SF","FM-16","99999","V020","999,9,V,0010,1","99999,9,9,Y","009900,5,9,9","+0190,1","+0160,1","99999,9",,,,,,,,,,,,"10100,1,99999,9",,,,,,"MET051SPECI FACT 110600Z VRB02KT CAVOK 19/16 Q1010 NOSIG=",
"68816099999","2022-03-11T06:22:00","4","-33.964806","18.601667","46.02","CAPE TOWN INTERNATIONAL, SF","FM-16","99999","V020","999,9,V,0005,1","99999,9,9,Y","009900,5,9,9","+0210,1","+0160,1","99999,9",,,,,,,,,,,,"10100,1,99999,9",,,,,,"MET051SPECI FACT 110622Z VRB01KT CAVOK 21/16 Q1010 NOSIG=",
"68816099999","2022-03-11T06:47:00","4","-33.964806","18.601667","46.02","CAPE TOWN INTERNATIONAL, SF","FM-16","99999","V020","999,9,V,0005,1","99999,9,9,Y","009900,5,9,9","+0230,1","+0160,1","99999,9",,,,,,,,,,,,"10100,1,99999,9",,,,,,"MET051SPECI FACT 110647Z VRB01KT CAVOK 23/16 Q1010 NOSIG=",
"68816099999","2022-03-11T07:00:00","4","-33.964806","18.601667","46.02","CAPE TOWN INTERNATIONAL, SF","FM-15","99999","V020","999,9,V,0010,1","99999,9,9,Y","009900,5,9,9","+0240,1","+0160,1","99999,9",,,,,,,,,,,,"10100,1,99999,9",,,,,,"MET051METAR FACT 110700Z VRB02KT CAVOK 24/16 Q1010 NOSIG=",
"68816099999","2022-03-11T07:25:00","4","-33.964806","18.601667","46.02","CAPE TOWN INTERNATIONAL, SF","FM-16","99999","V020","999,9,V,0010,1","99999,9,9,Y","009900,5,9,9","+0260,1","+0160,1","99999,9",,,,,,,,,,,,"10100,1,99999,9",,,,,,"MET051SPECI FACT 110725Z VRB02KT CAVOK 26/16 Q1010 NOSIG=",
"68816099999","2022-03-11T07:50:00","4","-33.964806","18.601667","46.02","CAPE TOWN INTERNATIONAL, SF","FM-16","99999","V020","999,9,V,0010,1","99999,9,9,Y","009900,5,9,9","+0280,1","+0160,1","99999,9",,,,,,,,,,,,"10100,1,99999,9",,,,,,"MET051SPECI FACT 110750Z VRB02KT CAVOK 28/16 Q1010 NOSIG=",
"68816099999","2022-03-11T08:00:00","4","-33.964806","18.601667","46.02","CAPE TOWN INTERNATIONAL, SF","FM-15","99999","V020","999,9,V,0010,1","99999,9,9,Y","009900,5,9,9","+0290,1","+0160,1","99999,9",,,,,,,,,,,,"10100,1,99999,9",,,,,,"MET051METAR FACT 110800Z VRB02KT CAVOK 29/16 Q1010 NOSIG=",
"68816099999","2022-03-11T09:00:00","4","-33.964806","18.601667","46.02","CAPE TOWN INTERNATIONAL, SF","FM-15","99999","V020","250,1,V,0021,1","99999,9,9,Y","009900,5,9,9","+0310,2","+0150,1","99999,9",,,,,,,,,,,,"10090,1,99999,9",,,,,,"MET059METAR FACT 110900Z 25004KT 190V310 CAVOK 31/15 Q1009 NOSIG=",
"68816099999","2022-03-11T10:00:00","4","-33.964806","18.601667","46.02","CAPE TOWN INTERNATIONAL, SF","FM-15","99999","V020","300,1,V,0021,1","99999,9,9,Y","009900,5,9,9","+0310,1","+0150,1","99999,9",,,,,,,,,,,,"10100,1,99999,9",,,,,,"MET059METAR FACT 111000Z 30004KT 250V330 CAVOK 31/15 Q1010 NOSIG=",
"68816099999","2022-03-11T10:34:00","4","-33.964806","18.601667","46.02","CAPE TOWN INTERNATIONAL, SF","FM-16","99999","V020","330,1,N,0067,1","99999,9,9,N","009999,1,9,9","+0300,1","+0120,1","99999,9",,,,,"02,1,+01067,1,09,1",,,"9,AGL   ,+99999,+99999","99,99,9,02,1,99,9,01067,1,99,9,99,9",,,"10110,1,99999,9",,"17,1",,,,"MET062SPECI FACT 111034Z 33013KT 9999 TS FEW035CB 30/12 Q1011 NOSIG=",
"68816099999","2022-03-11T11:00:00","4","-33.964806","18.601667","46.02","CAPE TOWN INTERNATIONAL, SF","FM-15","99999","V020","320,1,N,0082,1","99999,9,9,N","009999,1,9,9","+0260,1","+0120,1","99999,9",,,,,"02,1,+01067,1,09,1",,,"9,AGL   ,+99999,+99999","99,99,9,02,1,99,9,01067,1,99,9,99,9",,,"10120,1,99999,9",,"17,1",,,,"MET062METAR FACT 111100Z 32016KT 9999 TS FEW035CB 26/12 Q1012 NOSIG=",
"68816099999","2022-03-11T11:33:00","4","-33.964806","18.601667","46.02","CAPE TOWN INTERNATIONAL, SF","FM-16","99999","V020","320,1,N,0062,1","02438,1,C,N","009999,1,9,9","+0250,1","+0130,1","99999,9",,,,,"07,1,+02438,1,99,9",,,"9,AGL   ,+99999,+99999","99,99,9,07,1,99,9,02438,1,99,9,99,9",,,"10120,1,99999,9",,,,,,"MET062SPECI FACT 111133Z 32012KT 9999 BKN080 25/13 Q1012 RETS NOSIG=",
"68816099999","2022-03-11T12:00:00","4","-33.964806","18.601667","46.02","CAPE TOWN INTERNATIONAL, SF","FM-12","99999","V020","360,1,N,0031,1","99999,9,9,N","010000,1,9,9","+0246,1","+0138,1","10124,1",,"2,1,02,1","2,1,02,1",,"07,1,+02250,1,03,1",,,"9,AGL   ,+99999,+99999","07,99,1,07,1,99,9,02250,1,99,9,99,9",,,"99999,9,10071,1","7,1,026,1,+999,9","14,1",,,"4,99,0046,1,999","SYN08068816 31860 73606 10246 20138 30071 40124 57026 71422 8705/ 333 91009 555 91012=",
"68816099999","2022-03-11T12:00:00","4","-33.964806","18.601667","46.02","CAPE TOWN INTERNATIONAL, SF","FM-15","99999","V020","360,1,N,0031,1","02134,1,C,N","009999,1,9,9","+0240,1","+0140,1","99999,9",,,,,"07,1,+02134,1,99,9",,,"9,AGL   ,+99999,+99999","99,99,9,07,1,99,9,02134,1,99,9,99,9",,,"10120,1,99999,9",,,,,,"MET057METAR FACT 111200Z 36006KT 9999 BKN070 24/14 Q1012 NOSIG=",
"68816099999","2022-03-11T13:00:00","4","-33.964806","18.601667","46.02","CAPE TOWN INTERNATIONAL, SF","FM-15","99999","V020","320,1,V,0041,1","02438,1,C,N","009999,1,9,9","+0240,1","+0160,1","99999,9",,,,,"07,1,+02438,1,99,9",,,"9,AGL   ,+99999,+99999","99,99,9,07,1,99,9,02438,1,99,9,99,9",,,"10120,1,99999,9",,"61,1",,,,"MET069METAR FACT 111300Z 32008KT 290V350 9999 -RA BKN080 24/16 Q1012 NOSIG=",
"68816099999","2022-03-11T13:58:00","4","-33.964806","18.601667","46.02","CAPE TOWN INTERNATIONAL, SF","FM-16","99999","V020","020,1,V,0036,1","02134,1,C,N","009999,1,9,9","+0260,1","+0190,1","99999,9",,,,,"07,1,+02134,1,99,9",,,"9,AGL   ,+99999,+99999","99,99,9,07,1,99,9,02134,1,99,9,99,9",,,"10110,1,99999,9",,,,,,"MET065SPECI FACT 111358Z 02007KT 350V050 9999 BKN070 26/19 Q1011 NOSIG=",
"68816099999","2022-03-11T14:00:00","4","-33.964806","18.601667","46.02","CAPE TOWN INTERNATIONAL, SF","FM-15","99999","V020","020,1,V,0036,1","02134,1,C,N","009999,1,9,9","+0260,1","+0190,1","99999,9",,,,,"07,1,+02134,1,99,9",,,"9,AGL   ,+99999,+99999","99,99,9,07,1,99,9,02134,1,99,9,99,9",,,"10110,1,99999,9",,,,,,"MET065METAR FACT 111400Z 02007KT 350V050 9999 BKN070 26/19 Q1011 NOSIG=",
"68816099999","2022-03-11T15:00:00","4","-33.964806","18.601667","46.02","CAPE TOWN INTERNATIONAL, SF","FM-15","99999","V020","030,1,N,0051,1","99999,9,9,Y","009900,5,9,9","+0260,1","+0180,1","99999,9",,,,,,,,,,,,"10100,1,99999,9",,,,,,"MET051METAR FACT 111500Z 03010KT CAVOK 26/18 Q1010 NOSIG=",
"68816099999","2022-03-11T16:00:00","4","-33.964806","18.601667","46.02","CAPE TOWN INTERNATIONAL, SF","FM-15","99999","V020","040,1,N,0067,1","99999,9,9,Y","009900,5,9,9","+0270,1","+0180,1","99999,9",,,,,,,,,,,,"10090,1,99999,9",,,,,,"MET051METAR FACT 111600Z 04013KT CAVOK 27/18 Q1009 NOSIG=",
"68816099999","2022-03-11T17:00:00","4","-33.964806","18.601667","46.02","CAPE TOWN INTERNATIONAL, SF","FM-15","99999","V020","020,1,V,0031,1","99999,9,9,Y","009900,5,9,9","+0260,1","+0180,1","99999,9",,,,,,,,,,,,"10080,1,99999,9",,,,,,"MET059METAR FACT 111700Z 02006KT 340V040 CAVOK 26/18 Q1008 NOSIG=",
"68816099999","2022-03-11T18:00:00","4","-33.964806","18.601667","46.02","CAPE TOWN INTERNATIONAL, SF","FM-12","99999","V020","999,9,V,0010,1","22000,1,9,N","030000,1,9,9","+0258,1","+0172,1","10083,1","12,0000,2,1",,,,"03,1,+99999,9,03,1",,,"9,AGL   ,+99999,+99999","03,99,1,03,1,99,9,99999,9,99,9,99,9","120,M,+0315,1",,"99999,9,10031,1","7,1,018,1,+999,9",,,,"4,99,0021,1,999","SYN09268816 12980 39902 10258 20172 30031 40083 57018 69902 83050 333 10315 91004 555 20000 91008=",
"68816099999","2022-03-11T18:00:00","4","-33.964806","18.601667","46.02","CAPE TOWN INTERNATIONAL, SF","FM-15","99999","V020","999,9,V,0015,1","99999,9,9,Y","009900,5,9,9","+0260,1","+0170,1","99999,9",,,,,,,,,,,,"10080,1,99999,9",,,,,,"MET051METAR FACT 111800Z VRB03KT CAVOK 26/17 Q1008 NOSIG=",
"68816099999","2022-03-11T19:00:00","4","-33.964806","18.601667","46.02","CAPE TOWN INTERNATIONAL, SF","FM-15","99999","V020","999,9,V,0010,1","99999,9,9,Y","009900,5,9,9","+0250,1","+0180,1","99999,9",,,,,,,,,,,,"10090,1,99999,9",,,,,,"MET051METAR FACT 111900Z VRB02KT CAVOK 25/18 Q1009 NOSIG=",
"68816099999","2022-03-11T20:00:00","4","-33.964806","18.601667","46.02","CAPE TOWN INTERNATIONAL, SF","FM-15","99999","V020","150,1,N,0026,1","99999,9,9,Y","009900,5,9,9","+0210,1","+0170,1","99999,9",,,,,,,,,,,,"10100,1,99999,9",,,,,,"MET051METAR FACT 112000Z 15005KT CAVOK 21/17 Q1010 NOSIG=",
"68816099999","2022-03-11T21:00:00","4","-33.964806","18.601667","46.02","CAPE TOWN INTERNATIONAL, SF","FM-15","99999","V020","160,1,N,0015,1","99999,9,9,Y","009900,5,9,9","+0200,1","+0160,1","99999,9",,,,,,,,,,,,"10090,1,99999,9",,,,,,"MET051METAR FACT 112100Z 16003KT CAVOK 20/16 Q1009 NOSIG=",
"68816099999","2022-03-11T22:00:00","4","-33.964806","18.601667","46.02","CAPE TOWN INTERNATIONAL, SF","FM-15","99999","V020","999,9,V,0005,1","99999,9,9,Y","009900,5,9,9","+0190,1","+0160,1","99999,9",,,,,,,,,,,,"10090,1,99999,9",,,,,,"MET051METAR FACT 112200Z VRB01KT CAVOK 19/16 Q1009 NOSIG=",
"68816099999","2022-03-11T23:00:00","4","-33.964806","18.601667","46.02","CAPE TOWN INTERNATIONAL, SF","FM-15","99999","V020","999,9,V,0010,1","99999,9,9,Y","009900,5,9,9","+0190,1","+0160,1","99999,9",,,,,,,,,,,,"10090,1,99999,9",,,,,,"MET051METAR FACT 112300Z VRB02KT CAVOK 19/16 Q1009 NOSIG=",
"68816099999","2022-03-12T00:00:00","4","-33.964806","18.601667","46.02","CAPE TOWN INTERNATIONAL, SF","FM-12","99999","V020","120,1,N,0005,1","99999,9,9,N","030000,1,9,9","+0178,1","+0154,1","10081,1","18,0000,2,1",,,,,,,,,"120,M,+0315,1",,"99999,9,10027,1","7,1,015,1,+999,9",,,,"4,99,0021,1,999","SYN08668816 12980 01201 10178 20154 30027 40081 57015 69903 333 10315 91004 555 20000 91008=",
"68816099999","2022-03-12T00:00:00","4","-33.964806","18.601667","46.02","CAPE TOWN INTERNATIONAL, SF","FM-15","99999","V020","090,1,N,0010,1","99999,9,9,Y","009900,5,9,9","+0180,1","+0150,1","99999,9",,,,,,,,,,,,"10080,1,99999,9",,,,,,"MET051METAR FACT 120000Z 09002KT CAVOK 18/15 Q1008 NOSIG=",
"68816099999","2022-03-12T01:00:00","4","-33.964806","18.601667","46.02","CAPE TOWN INTERNATIONAL, SF","FM-15","99999","V020","999,9,V,0010,1","99999,9,9,Y","009900,5,9,9","+0180,1","+0160,1","99999,9",,,,,,,,,,,,"10070,1,99999,9",,,,,,"MET051METAR FACT 120100Z VRB02KT CAVOK 18/16 Q1007 NOSIG=",
"68816099999","2022-03-12T02:00:00","4","-33.964806","18.601667","46.02","CAPE TOWN INTERNATIONAL, SF","FM-15","99999","V020","999,9,V,0010,1","99999,9,9,Y","009900,5,9,9","+0180,1","+0160,1","99999,9",,,,,,,,,,,,"10060,1,99999,9",,,,,,"MET051METAR FACT 120200Z VRB02KT CAVOK 18/16 Q1006 NOSIG=",
"68816099999","2022-03-12T03:00:00","4","-33.964806","18.601667","46.02","CAPE TOWN INTERNATIONAL, SF","FM-15","99999","V020","999,9,V,0010,1","99999,9,9,Y","009900,5,9,9","+0180,1","+0160,1","99999,9",,,,,,,,,,,,"10060,1,99999,9",,,,,,"MET051METAR FACT 120300Z VRB02KT CAVOK 18/16 Q1006 NOSIG=",
"68816099999","2022-03-12T04:00:00","4","-33.964806","18.601667","46.02","CAPE TOWN INTERNATIONAL, SF","FM-15","99999","V020","999,9,V,0010,1","99999,9,9,Y","009900,5,9,9","+0180,1","+0160,1","99999,9",,,,,,,,,,,,"10060,1,99999,9",,,,,,"MET051METAR FACT 120400Z VRB02KT CAVOK 18/16 Q1006 NOSIG=",
"68816099999","2022-03-12T05:00:00","4","-33.964806","18.601667","46.02","CAPE TOWN INTERNATIONAL, SF","FM-15","99999","V020","999,9,V,0015,1","99999,9,9,Y","009900,5,9,9","+0190,1","+0160,1","99999,9",,,,,,,,,,,,"10060,1,99999,9",,,,,,"MET051METAR FACT 120500Z VRB03KT CAVOK 19/16 Q1006 NOSIG=",
"68816099999","2022-03-12T05:30:00","4","-33.964806","18.601667","46.02","CAPE TOWN INTERNATIONAL, SF","FM-16","99999","V020","340,1,N,0041,1","99999,9,9,Y","009900,5,9,9","+0210,1","+0170,1","99999,9",,,,,,,,,,,,"10070,1,99999,9",,,,,,"MET051SPECI FACT 120530Z 34008KT CAVOK 21/17 Q1007 NOSIG=",
"68816099999","2022-03-12T05:54:00","4","-33.964806","18.601667","46.02","CAPE TOWN INTERNATIONAL, SF","FM-16","99999","V020","330,1,N,0041,1","99999,9,9,Y","009900,5,9,9","+0240,1","+0170,1","99999,9",,,,,,,,,,,,"10070,1,99999,9",,,,,,"MET051SPECI FACT 120554Z 33008KT CAVOK 24/17 Q1007 NOSIG=",
"68816099999","2022-03-12T06:00:00","4","-33.964806","18.601667","46.02","CAPE TOWN INTERNATIONAL, SF","FM-12","99999","V020","340,1,N,0041,1","99999,9,9,N","055000,1,9,9","+0244,1","+0167,1","10073,1","24,0000,2,1",,,,,,,,,"240,N,+0166,1",,"99999,9,10020,1","6,1,022,1,+999,9",,,,"4,99,0051,1,999","SYN09268816 32985 03408 10244 20167 30020 40073 56022 69904 333 20166 91010 555 10315 20000 91007=",
"68816099999","2022-03-12T06:00:00","4","-33.964806","18.601667","46.02","CAPE TOWN INTERNATIONAL, SF","FM-15","99999","V020","330,1,N,0041,1","99999,9,9,Y","009900,5,9,9","+0240,1","+0170,1","99999,9",,,,,,,,,,,,"10070,1,99999,9",,,,,,"MET051METAR FACT 120600Z 33008KT CAVOK 24/17 Q1007 NOSIG=",
"68816099999","2022-03-12T06:27:00","4","-33.964806","18.601667","46.02","CAPE TOWN INTERNATIONAL, SF","FM-16","99999","V020","330,1,N,0041,1","99999,9,9,Y","009900,5,9,9","+0260,1","+0170,1","99999,9",,,,,,,,,,,,"10070,1,99999,9",,,,,,"MET051SPECI FACT 120627Z 33008KT CAVOK 26/17 Q1007 NOSIG=",
"68816099999","2022-03-12T06:54:00","4","-33.964806","18.601667","46.02","CAPE TOWN INTERNATIONAL, SF","FM-16","99999","V020","350,1,N,0072,1","99999,9,9,Y","009900,5,9,9","+0280,1","+0180,1","99999,9",,,,,,,,,,,,"10070,1,99999,9",,,,,,"MET051SPECI FACT 120654Z 35014KT CAVOK 28/18 Q1007 NOSIG=",
"68816099999","2022-03-12T07:00:00","4","-33.964806","18.601667","46.02","CAPE TOWN INTERNATIONAL, SF","FM-15","99999","V020","350,1,N,0072,1","99999,9,9,Y","009900,5,9,9","+0280,1","+0180,1","99999,9",,,,,,,,,,,,"10070,1,99999,9",,,,,,"MET051METAR FACT 120700Z 35014KT CAVOK 28/18 Q1007 NOSIG=",
"68816099999","2022-03-12T08:00:00","4","-33.964806","18.601667","46.02","CAPE TOWN INTERNATIONAL, SF","FM-15","99999","V020","310,1,N,0072,1","99999,9,9,Y","009900,5,9,9","+0260,1","+0180,1","99999,9",,,,,,,,,,,,"10070,1,99999,9",,,,,,"MET051METAR FACT 120800Z 31014KT CAVOK 26/18 Q1007 NOSIG=",
"68816099999","2022-03-12T09:00:00","4","-33.964806","18.601667","46.02","CAPE TOWN INTERNATIONAL, SF","FM-15","99999","V020","310,1,N,0077,1","99999,9,9,Y","009900,5,9,9","+0270,1","+0180,1","99999,9",,,,,,,,,,,,"10060,1,99999,9",,,,,,"MET051METAR FACT 120900Z 31015KT CAVOK 27/18 Q1006 NOSIG=",
"68816099999","2022-03-12T10:00:00","4","-33.964806","18.601667","46.02","CAPE TOWN INTERNATIONAL, SF","FM-15","99999","V020","310,1,N,0113,1","99999,9,9,N","009999,1,9,9","+0220,1","+0170,1","99999,9",,,,,"02,1,+00244,1,99,9",,,"9,AGL   ,+99999,+99999","99,99,9,02,1,99,9,00244,1,99,9,99,9",,,"10070,1,99999,9",,,,,,"MET057METAR FACT 121000Z 31022KT 9999 FEW008 22/17 Q1007 NOSIG=",
"68816099999","2022-03-12T11:00:00","4","-33.964806","18.601667","46.02","CAPE TOWN INTERNATIONAL, SF","FM-15","99999","V020","320,1,N,0082,1","99999,9,9,N","009999,1,9,9","+0210,1","+0160,1","99999,9",,,,,"02,1,+00305,1,99,9",,,"9,AGL   ,+99999,+99999","99,99,9,02,1,99,9,00305,1,99,9,99,9",,,"10060,1,99999,9",,,,,,"MET057METAR FACT 121100Z 32016KT 9999 FEW010 21/16 Q1006 NOSIG=",
"68816099999","2022-03-12T12:00:00","4","-33.964806","18.601667","46.02","CAPE TOWN INTERNATIONAL, SF","FM-12","99999","V020","320,1,N,0088,1","22000,1,9,N","030000,1,9,9","+0214,1","+0161,1","10062,1",,,,,"01,1,+00800,1,06,1",,,"9,AGL   ,+99999,+99999","01,99,1,01,1,99,9,00800,1,99,9,99,9","240,M,+0284,1","240,N,+0214,1","99999,9,10009,1","8,1,005,1,+999,9",,,,"4,99,0118,1,999","SYN08668816 32580 13217 10214 20161 30009 40062 58005 81500 333 10284 20214 91023 555 91006=",
"68816099999","2022-03-12T12:00:00","4","-33.964806","18.601667","46.02","CAPE TOWN INTERNATIONAL, SF","FM-15","99999","V020","320,1,N,0088,1","99999,9,9,N","009999,1,9,9","+0210,1","+0160,1","99999,9",,,,,"02,1,+00762,1,99,9",,,"9,AGL   ,+99999,+99999","99,99,9,02,1,99,9,00762,1,99,9,99,9",,,"10060,1,99999,9",,,,,,"MET057METAR FACT 121200Z 32017KT 9999 FEW025 21/16 Q1006 NOSIG=",
"68816099999","2022-03-12T13:00:00","4","-33.964806","18.601667","46.02","CAPE TOWN INTERNATIONAL, SF","FM-15","99999","V020","320,1,N,0082,1","99999,9,9,N","009999,1,9,9","+0230,1","+0170,1","99999,9",,,,,"02,1,+01067,1,99,9",,,"9,AGL   ,+99999,+99999","99,99,9,02,1,99,9,01067,1,99,9,99,9",,,"10050,1,99999,9",,,,,,"MET057METAR FACT 121300Z 32016KT 9999 FEW035 23/17 Q1005 NOSIG=",
"68816099999","2022-03-12T14:00:00","4","-33.964806","18.601667","46.02","CAPE TOWN INTERNATIONAL, SF","FM-15","99999","V020","330,1,N,0082,1","99999,9,9,N","009999,1,9,9","+0230,1","+0180,1","99999,9",,,,,"02,1,+00305,1,99,9",,,"9,AGL   ,+99999,+99999","99,99,9,02,1,99,9,00305,1,99,9,99,9",,,"10050,1,99999,9",,,,,,"MET057METAR FACT 121400Z 33016KT 9999 FEW010 23/18 Q1005 NOSIG=",
"68816099999","2022-03-12T14:57:00","4","-33.964806","18.601667","46.02","CAPE TOWN INTERNATIONAL, SF","FM-16","99999","V020","330,1,N,0067,1","00183,1,C,N","009999,1,9,9","+0210,1","+0180,1","99999,9",,,,,"07,1,+00183,1,99,9",,,"9,AGL   ,+99999,+99999","99,99,9,07,1,99,9,00183,1,99,9,99,9",,,"10050,1,99999,9",,,,,,"MET064SPECI FACT 121457Z 33013KT 9999 BKN006 21/18 Q1005 BECMG FEW010=",
"68816099999","2022-03-12T15:00:00","4","-33.964806","18.601667","46.02","CAPE TOWN INTERNATIONAL, SF","FM-15","99999","V020","330,1,N,0067,1","00183,1,C,N","009999,1,9,9","+0210,1","+0180,1","99999,9",,,,,"07,1,+00183,1,99,9",,,"9,AGL   ,+99999,+99999","99,99,9,07,1,99,9,00183,1,99,9,99,9",,,"10050,1,99999,9",,,,,,"MET064METAR FACT 121500Z 33013KT 9999 BKN006 21/18 Q1005 BECMG FEW010=",
"68816099999","2022-03-12T15:30:00","4","-33.964806","18.601667","46.02","CAPE TOWN INTERNATIONAL, SF","FM-16","99999","V020","320,1,N,0062,1","00366,1,9,N","009999,1,9,9","+0210,1","+0180,1","99999,9",,,,,"04,1,+00183,1,99,9","07,1,+00366,1,99,9",,"9,AGL   ,+99999,+99999","99,99,9,04,1,99,9,00183,1,99,9,99,9",,,"10060,1,99999,9",,,,,,"MET071SPECI FACT 121530Z 32012KT 9999 SCT006 BKN012 21/18 Q1006 BECMG BKN020=",
"68816099999","2022-03-12T15:59:00","4","-33.964806","18.601667","46.02","CAPE TOWN INTERNATIONAL, SF","FM-16","99999","V020","310,1,N,0046,1","00518,1,9,N","009999,1,9,9","+0190,1","+0170,1","99999,9",,,,,"02,1,+00244,1,99,9","07,1,+00518,1,99,9",,"9,AGL   ,+99999,+99999","99,99,9,02,1,99,9,00244,1,99,9,99,9",,,"10060,1,99999,9",,,,,,"MET064SPECI FACT 121559Z 31009KT 9999 FEW008 BKN017 19/17 Q1006 NOSIG=",
"68816099999","2022-03-12T16:00:00","4","-33.964806","18.601667","46.02","CAPE TOWN INTERNATIONAL, SF","FM-15","99999","V020","310,1,N,0046,1","00518,1,9,N","009999,1,9,9","+0190,1","+0170,1","99999,9",,,,,"02,1,+00244,1,99,9","07,1,+00518,1,99,9",,"9,AGL   ,+99999,+99999","99,99,9,02,1,99,9,00244,1,99,9,99,9",,,"10060,1,99999,9",,,,,,"MET064METAR FACT 121600Z 31009KT 9999 FEW008 BKN017 19/17 Q1006 NOSIG=",
"68816099999","2022-03-12T17:00:00","4","-33.964806","18.601667","46.02","CAPE TOWN INTERNATIONAL, SF","FM-15","99999","V020","340,1,N,0046,1","00701,1,C,N","009999,1,9,9","+0190,1","+0170,1","99999,9",,,,,"07,1,+00701,1,99,9",,,"9,AGL   ,+99999,+99999","99,99,9,07,1,99,9,00701,1,99,9,99,9",,,"10060,1,99999,9",,,,,,"MET057METAR FACT 121700Z 34009KT 9999 BKN023 19/17 Q1006 NOSIG=",
"68816099999","2022-03-12T18:00:00","4","-33.964806","18.601667","46.02","CAPE TOWN INTERNATIONAL, SF","FM-15","99999","V020","330,1,N,0031,1","00853,1,C,N","009999,1,9,9","+0190,1","+0170,1","99999,9",,,,,"07,1,+00853,1,99,9",,,"9,AGL   ,+99999,+99999","99,99,9,07,1,99,9,00853,1,99,9,99,9",,,"10070,1,99999,9",,,,,,"MET057METAR FACT 121800Z 33006KT 9999 BKN028 19/17 Q1007 NOSIG=",
"68816099999","2022-03-12T19:00:00","4","-33.964806","18.601667","46.02","CAPE TOWN INTERNATIONAL, SF","FM-15","99999","V020","350,1,N,0031,1","00914,1,C,N","009999,1,9,9","+0180,1","+0160,1","99999,9",,,,,"07,1,+00914,1,99,9",,,"9,AGL   ,+99999,+99999","99,99,9,07,1,99,9,00914,1,99,9,99,9",,,"10080,1,99999,9",,,,,,"MET057METAR FACT 121900Z 35006KT 9999 BKN030 18/16 Q1008 NOSIG=",
"68816099999","2022-03-12T21:00:00","4","-33.964806","18.601667","46.02","CAPE TOWN INTERNATIONAL, SF","FM-15","99999","V020","999,9,V,0015,1","99999,9,9,Y","009900,5,9,9","+0170,1","+0160,1","99999,9",,,,,,,,,,,,"10090,1,99999,9",,,,,,"MET051METAR FACT 122100Z VRB03KT CAVOK 17/16 Q1009 NOSIG=",
"68816099999","2022-03-12T22:00:00","4","-33.964806","18.601667","46.02","CAPE TOWN INTERNATIONAL, SF","FM-15","99999","V020","310,1,N,0026,1","99999,9,9,Y","009900,5,9,9","+0170,1","+0160,1","99999,9",,,,,,,,,,,,"10090,1,99999,9",,,,,,"MET051METAR FACT 122200Z 31005KT CAVOK 17/16 Q1009 NOSIG=",
"68816099999","2022-03-13T00:00:00","4","-33.964806","18.601667","46.02","CAPE TOWN INTERNATIONAL, SF","FM-12","99999","V020","360,1,N,0021,1","22000,1,9,N","022000,1,9,9","+0166,1","+0151,1","10086,1",,,,,"99,9,+99999,9,00,1",,,"9,AGL   ,+99999,+99999","02,99,1,00,1,99,9,99999,9,99,9,99,9",,,"99999,9,10032,1","9,9,002,1,+999,9",,,,"4,99,0026,1,999","SYN07468816 32972 20004 10166 20151 30032 40086 50002 80002 333 91005 555 91008=","Q01    003SCCGA1"
"68816099999","2022-03-13T00:00:00","4","-33.964806","18.601667","46.02","CAPE TOWN INTERNATIONAL, SF","FM-15","99999","V020","360,1,N,0021,1","99999,9,9,Y","009900,5,9,9","+0170,1","+0150,1","99999,9",,,,,,,,,,,,"10080,1,99999,9",,,,,,"MET051METAR FACT 130000Z 36004KT CAVOK 17/15 Q1008 NOSIG=",
"68816099999","2022-03-13T01:00:00","4","-33.964806","18.601667","46.02","CAPE TOWN INTERNATIONAL, SF","FM-15","99999","V020","010,1,N,0036,1","99999,9,9,Y","009900,5,9,9","+0170,1","+0150,1","99999,9",,,,,,,,,,,,"10070,1,99999,9",,,,,,"MET051METAR FACT 130100Z 01007KT CAVOK 17/15 Q1007 NOSIG=",
"68816099999","2022-03-13T03:00:00","4","-33.964806","18.601667","46.02","CAPE TOWN INTERNATIONAL, SF","FM-15","99999","V020","030,1,V,0026,1","01219,1,9,N","009999,1,9,9","+0170,1","+0150,1","99999,9",,,,,"02,1,+00762,1,99,9","07,1,+01219,1,99,9",,"9,AGL   ,+99999,+99999","99,99,9,02,1,99,9,00762,1,99,9,99,9",,,"10080,1,99999,9",,,,,,"MET072METAR FACT 130300Z 03005KT 320V070 9999 FEW025 BKN040 17/15 Q1008 NOSIG=",
"68816099999","2022-03-13T03:36:00","4","-33.964806","18.601667","46.02","CAPE TOWN INTERNATIONAL, SF","FM-16","99999","V020","290,1,N,0031,1","00914,1,9,N","004000,1,9,9","+0180,1","+0160,1","99999,9",,,,,"02,1,+00305,1,99,9","07,1,+00914,1,99,9",,"9,AGL   ,+99999,+99999","99,99,9,02,1,99,9,00305,1,99,9,99,9",,,"10090,1,99999,9",,"53,1",,,,"MET067SPECI FACT 130336Z 29006KT 4000 DZ FEW010 BKN030 18/16 Q1009 NOSIG=",
"68816099999","2022-03-13T04:00:00","4","-33.964806","18.601667","46.02","CAPE TOWN INTERNATIONAL, SF","FM-15","99999","V020","310,1,N,0046,1","00914,1,9,N","004000,1,9,9","+0170,1","+0160,1","99999,9",,,,,"02,1,+00152,1,99,9","07,1,+00914,1,99,9",,"9,AGL   ,+99999,+99999","99,99,9,02,1,99,9,00152,1,99,9,99,9",,,"10090,1,99999,9",,"53,1",,,,"MET078METAR COR FACT 130400Z 31009KT 4000 DZ FEW005 BKN030 17/16 Q1009 TEMPO BKN010=",
"68816099999","2022-03-13T04:17:00","4","-33.964806","18.601667","46.02","CAPE TOWN INTERNATIONAL, SF","FM-16","99999","V020","310,1,N,0046,1","00396,1,9,N","003000,1,9,9","+0170,1","+0160,1","99999,9",,,,,"02,1,+00152,1,99,9","07,1,+00396,1,99,9",,"9,AGL   ,+99999,+99999","99,99,9,02,1,99,9,00152,1,99,9,99,9",,,"10090,1,99999,9",,"61,1",,,,"MET075SPECI FACT 130417Z 31009KT 3000 -RA FEW005 BKN013 17/16 Q1009 TEMPO BKN010=",
"68816099999","2022-03-13T04:28:00","4","-33.964806","18.601667","46.02","CAPE TOWN INTERNATIONAL, SF","FM-16","99999","V020","300,1,N,0036,1","00396,1,9,N","002000,1,9,9","+0170,1","+0160,1","99999,9",,,,,"02,1,+00152,1,99,9","07,1,+00396,1,99,9",,"9,AGL   ,+99999,+99999","99,99,9,02,1,99,9,00152,1,99,9,99,9",,,"10090,1,99999,9",,"63,1",,,,"MET084SPECI FACT 130428Z 30007KT 2000 RA FEW005 BKN013 17/16 Q1009 REDZ TEMPO 4000 BKN010=",
"68816099999","2022-03-13T04:31:00","4","-33.964806","18.601667","46.02","CAPE TOWN INTERNATIONAL, SF","FM-16","99999","V020","300,1,N,0036,1","00396,1,9,N","002000,1,9,9","+0170,1","+0160,1","99999,9",,,,,"02,1,+00152,1,99,9","07,1,+00396,1,99,9",,"9,AGL   ,+99999,+99999","99,99,9,02,1,99,9,00152,1,99,9,99,9",,,"10090,1,99999,9",,"63,1",,,,"MET088SPECI FACT 130431Z 30007KT 2000 RA FEW005 BKN013 17/16 Q1009 REDZ TEMPO 4000 -RA BKN010=",
"68816099999","2022-03-13T04:58:00","4","-33.964806","18.601667","46.02","CAPE TOWN INTERNATIONAL, SF","FM-16","99999","V020","300,1,V,0021,1","00305,1,9,N","002000,1,9,9","+0160,1","+0160,1","99999,9",,,,,"02,1,+00152,1,99,9","07,1,+00305,1,99,9",,"9,AGL   ,+99999,+99999","99,99,9,02,1,99,9,00152,1,99,9,99,9",,,"10090,1,99999,9",,"63,1",,,,"MET084SPECI FACT 130458Z 30004KT 260V330 2000 RA FEW005 BKN010 16/16 Q1009 TEMPO 4000 -RA=",
"68816099999","2022-03-13T05:00:00","4","-33.964806","18.601667","46.02","CAPE TOWN INTERNATIONAL, SF","FM-15","99999","V020","300,1,V,0021,1","00305,1,9,N","002000,1,9,9","+0160,1","+0160,1","99999,9",,,,,"02,1,+00152,1,99,9","07,1,+00305,1,99,9",,"9,AGL   ,+99999,+99999","99,99,9,02,1,99,9,00152,1,99,9,99,9",,,"10090,1,99999,9",,"63,1",,,,"MET084METAR FACT 130500Z 30004KT 260V330 2000 RA FEW005 BKN010 16/16 Q1009 TEMPO 4000 -RA=",
"68816099999","2022-03-13T05:28:00","4","-33.964806","18.601667","46.02","CAPE TOWN INTERNATIONAL, SF","FM-16","99999","V020","200,1,V,0046,1","00305,1,9,N","002000,1,9,9","+0170,1","+0160,1","99999,9",,,,,"02,1,+00152,1,99,9","08,1,+00305,1,99,9",,"9,AGL   ,+99999,+99999","99,99,9,02,1,99,9,00152,1,99,9,99,9",,,"10100,1,99999,9",,"63,1",,,,"MET084SPECI FACT 130528Z 20009KT 130V230 2000 RA FEW005 OVC010 17/16 Q1010 TEMPO 4000 -RA=",
"68816099999","2022-03-13T06:00:00","4","-33.964806","18.601667","46.02","CAPE TOWN INTERNATIONAL, SF","FM-12","99999","V020","200,1,N,0062,1","99999,9,9,N","004000,1,9,9","+0153,1","+0146,1","10111,1","24,0080,3,1","6,1,02,1","2,1,02,1",,"08,1,+00800,1,07,1",,,"9,AGL   ,+99999,+99999","08,99,1,08,1,99,9,00800,1,99,9,99,9","240,N,+0153,1",,"99999,9,10056,1","2,1,013,1,+999,9","51,1",,,"4,99,0072,1,999","SYN10468816 11540 82012 10153 20146 30056 40111 52013 60084 75162 886// 333 20153 91014 555 10284 20080 91011=",
"68816099999","2022-03-13T06:00:00","4","-33.964806","18.601667","46.02","CAPE TOWN INTERNATIONAL, SF","FM-15","99999","V020","200,1,N,0062,1","00457,1,C,N","004000,1,9,9","+0160,1","+0150,1","99999,9",,,,,"08,1,+00457,1,99,9",,,"9,AGL   ,+99999,+99999","99,99,9,08,1,99,9,00457,1,99,9,99,9",,,"10110,1,99999,9",,"51,1",,,,"MET073METAR FACT 130600Z 20012KT 4000 -DZ OVC015 16/15 Q1011 RERA TEMPO BKN012=",
"68816099999","2022-03-13T06:02:00","4","-33.964806","18.601667","46.02","CAPE TOWN INTERNATIONAL, SF","FM-16","99999","V020","200,1,N,0062,1","00396,1,C,N","004000,1,9,9","+0160,1","+0150,1","99999,9",,,,,"07,1,+00396,1,99,9","08,1,+00610,1,99,9",,"9,AGL   ,+99999,+99999","99,99,9,07,1,99,9,00396,1,99,9,99,9",,,"10110,1,99999,9",,"51,1",,,,"MET080SPECI FACT 130602Z 20012KT 4000 -DZ BKN013 OVC020 16/15 Q1011 RERA TEMPO BKN012=",
"68816099999","2022-03-13T06:26:00","4","-33.964806","18.601667","46.02","CAPE TOWN INTERNATIONAL, SF","FM-16","99999","V020","190,1,N,0046,1","00823,1,9,N","006000,1,9,9","+0150,1","+0150,1","99999,9",,,,,"02,1,+00152,1,99,9","08,1,+00823,1,99,9",,"9,AGL   ,+99999,+99999","99,99,9,02,1,99,9,00152,1,99,9,99,9",,,"10110,1,99999,9",,,,,,"MET064SPECI FACT 130626Z 19009KT 6000 FEW005 OVC027 15/15 Q1011 NOSIG=",
"68816099999","2022-03-13T06:45:00","4","-33.964806","18.601667","46.02","CAPE TOWN INTERNATIONAL, SF","FM-16","99999","V020","190,1,N,0051,1","00762,1,9,N","004000,1,9,9","+0160,1","+0150,1","99999,9",,,,,"02,1,+00152,1,99,9","08,1,+00762,1,99,9",,"9,AGL   ,+99999,+99999","99,99,9,02,1,99,9,00152,1,99,9,99,9",,,"10110,1,99999,9",,"53,1",,,,"MET074SPECI FACT 130645Z 19010KT 4000 DZ FEW005 OVC025 16/15 Q1011 TEMPO BKN012=",
"68816099999","2022-03-13T06:47:00","4","-33.964806","18.601667","46.02","CAPE TOWN INTERNATIONAL, SF","FM-16","99999","V020","190,1,N,0051,1","00762,1,9,N","004000,1,9,9","+0160,1","+0150,1","99999,9",,,,,"02,1,+00152,1,99,9","08,1,+00762,1,99,9",,"9,AGL   ,+99999,+99999","99,99,9,02,1,99,9,00152,1,99,9,99,9",,,"10110,1,99999,9",,"53,1",,,,"MET074SPECI FACT 130647Z 19010KT 4000 DZ FEW005 OVC025 16/15 Q1011 TEMPO BKN012=",
"68816099999","2022-03-13T06:58:00","4","-33.964806","18.601667","46.02","CAPE TOWN INTERNATIONAL, SF","FM-16","99999","V020","200,1,N,0062,1","00610,1,9,N","003000,1,9,9","+0150,1","+0150,1","99999,9",,,,,"02,1,+00152,1,99,9","08,1,+00610,1,99,9",,"9,AGL   ,+99999,+99999","99,99,9,02,1,99,9,00152,1,99,9,99,9",,,"10110,1,99999,9",,"58,1",,,,"MET077SPECI FACT 130658Z 20012KT 3000 -DZRA FEW005 OVC020 15/15 Q1011 TEMPO BKN012=",
"68816099999","2022-03-13T07:00:00","4","-33.964806","18.601667","46.02","CAPE TOWN INTERNATIONAL, SF","FM-15","99999","V020","200,1,N,0062,1","00610,1,9,N","003000,1,9,9","+0150,1","+0150,1","99999,9",,,,,"02,1,+00152,1,99,9","08,1,+00610,1,99,9",,"9,AGL   ,+99999,+99999","99,99,9,02,1,99,9,00152,1,99,9,99,9",,,"10110,1,99999,9",,"58,1",,,,"MET077METAR FACT 130700Z 20012KT 3000 -DZRA FEW005 OVC020 15/15 Q1011 TEMPO BKN012=",
"68816099999","2022-03-13T07:25:00","4","-33.964806","18.601667","46.02","CAPE TOWN INTERNATIONAL, SF","FM-16","99999","V020","200,1,N,0057,1","00457,1,9,N","005000,1,9,9","+0150,1","+0140,1","99999,9",,,,,"04,1,+00213,1,99,9","07,1,+00457,1,99,9",,"9,AGL   ,+99999,+99999","99,99,9,04,1,99,9,00213,1,99,9,99,9",,,"10110,1,99999,9",,"53,1",,,,"MET079SPECI FACT 130725Z 20011KT 5000 DZ SCT007 BKN015 15/14 Q1011 TEMPO 4000 BKN012=",
"68816099999","2022-03-13T07:56:00","4","-33.964806","18.601667","46.02","CAPE TOWN INTERNATIONAL, SF","FM-16","99999","V020","190,1,N,0046,1","00610,1,9,N","004000,1,9,9","+0160,1","+0150,1","99999,9",,,,,"04,1,+00305,1,99,9","07,1,+00610,1,99,9",,"9,AGL   ,+99999,+99999","99,99,9,04,1,99,9,00305,1,99,9,99,9",,,"10120,1,99999,9",,"61,1",,,,"MET075SPECI FACT 130756Z 19009KT 4000 -RA SCT010 BKN020 16/15 Q1012 TEMPO BKN012=",
"68816099999","2022-03-13T08:00:00","4","-33.964806","18.601667","46.02","CAPE TOWN INTERNATIONAL, SF","FM-15","99999","V020","190,1,N,0046,1","00610,1,9,N","003000,1,9,9","+0160,1","+0150,1","99999,9",,,,,"04,1,+00305,1,99,9","07,1,+00610,1,99,9",,"9,AGL   ,+99999,+99999","99,99,9,04,1,99,9,00305,1,99,9,99,9",,,"10120,1,99999,9",,"61,1",,,,"MET079METAR COR FACT 130800Z 19009KT 3000 -RA SCT010 BKN020 16/15 Q1012 TEMPO BKN012=",
"68816099999","2022-03-13T09:00:00","4","-33.964806","18.601667","46.02","CAPE TOWN INTERNATIONAL, SF","FM-15","99999","V020","190,1,N,0057,1","00610,1,9,N","003000,1,9,9","+0150,1","+0150,1","99999,9",,,,,"04,1,+00305,1,99,9","07,1,+00610,1,99,9",,"9,AGL   ,+99999,+99999","99,99,9,04,1,99,9,00305,1,99,9,99,9",,,"10130,1,99999,9",,"61,1",,,,"MET075METAR FACT 130900Z 19011KT 3000 -RA SCT010 BKN020 15/15 Q1013 TEMPO BKN012=",
"68816099999","2022-03-13T09:29:00","4","-33.964806","18.601667","46.02","CAPE TOWN INTERNATIONAL, SF","FM-16","99999","V020","190,1,V,0036,1","00914,1,9,N","006000,1,9,9","+0150,1","+0140,1","99999,9",,,,,"04,1,+00305,1,99,9","07,1,+00914,1,99,9",,"9,AGL   ,+99999,+99999","99,99,9,04,1,99,9,00305,1,99,9,99,9",,,"10130,1,99999,9",,"51,1",,,,"MET076SPECI FACT 130929Z 19007KT 150V220 6000 -DZ SCT010 BKN030 15/14 Q1013 NOSIG=",
"68816099999","2022-03-13T10:00:00","4","-33.964806","18.601667","46.02","CAPE TOWN INTERNATIONAL, SF","FM-15","99999","V020","130,1,V,0031,1","01067,1,9,N","009999,1,9,9","+0160,1","+0140,1","99999,9",,,,,"02,1,+00305,1,99,9","07,1,+01067,1,99,9",,"9,AGL   ,+99999,+99999","99,99,9,02,1,99,9,00305,1,99,9,99,9",,,"10120,1,99999,9",,,,,,"MET072METAR FACT 131000Z 13006KT 110V170 9999 FEW010 BKN035 16/14 Q1012 NOSIG=",
"68816099999","2022-03-13T11:00:00","4","-33.964806","18.601667","46.02","CAPE TOWN INTERNATIONAL, SF","FM-15","99999","V020","130,1,N,0026,1","01219,1,9,N","009999,1,9,9","+0170,1","+0130,1","99999,9",,,,,"02,1,+00305,1,99,9","07,1,+01219,1,99,9",,"9,AGL   ,+99999,+99999","99,99,9,02,1,99,9,00305,1,99,9,99,9",,,"10120,1,99999,9",,,,,,"MET064METAR FACT 131100Z 13005KT 9999 FEW010 BKN040 17/13 Q1012 NOSIG=",
"68816099999","2022-03-13T12:00:00","4","-33.964806","18.601667","46.02","CAPE TOWN INTERNATIONAL, SF","FM-12","99999","V020","190,1,N,0041,1","99999,9,9,N","020000,1,9,9","+0174,1","+0126,1","10125,1","06,0010,3,1","6,1,02,1","2,1,02,1",,"07,1,+00800,1,06,1",,,"9,AGL   ,+99999,+99999","07,99,1,07,1,99,9,00800,1,99,9,99,9","240,M,+0175,1","240,N,+0153,1","99999,9,10071,1","7,1,003,1,+999,9","02,1",,,"4,99,0062,1,999","SYN10468816 11570 71908 10174 20126 30071 40125 57003 60011 70262 875// 333 10175 20153 91012 555 20018 91012=",
"68816099999","2022-03-13T12:00:00","4","-33.964806","18.601667","46.02","CAPE TOWN INTERNATIONAL, SF","FM-15","99999","V020","160,1,N,0031,1","01219,1,9,N","009999,1,9,9","+0170,1","+0130,1","99999,9",,,,,"04,1,+00610,1,99,9","07,1,+01219,1,99,9",,"9,AGL   ,+99999,+99999","99,99,9,04,1,99,9,00610,1,99,9,99,9",,,"10120,1,99999,9",,,,,,"MET064METAR FACT 131200Z 16006KT 9999 SCT020 BKN040 17/13 Q1012 NOSIG=",
"68816099999","2022-03-13T13:00:00","4","-33.964806","18.601667","46.02","CAPE TOWN INTERNATIONAL, SF","FM-15","99999","V020","140,1,V,0026,1","00914,1,9,N","009999,1,9,9","+0170,1","+0140,1","99999,9",,,,,"02,1,+00244,1,99,9","07,1,+00914,1,99,9",,"9,AGL   ,+99999,+99999","99,99,9,02,1,99,9,00244,1,99,9,99,9",,,"10120,1,99999,9",,,,,,"MET072METAR FACT 131300Z 14005KT 120V190 9999 FEW008 BKN030 17/14 Q1012 NOSIG=",
"68816099999","2022-03-13T13:48:00","4","-33.964806","18.601667","46.02","CAPE TOWN INTERNATIONAL, SF","FM-16","99999","V020","150,1,V,0026,1","01219,1,C,N","009999,1,9,9","+0190,1","+0130,1","99999,9",,,,,"07,1,+01219,1,99,9",,,"9,AGL   ,+99999,+99999","99,99,9,07,1,99,9,01219,1,99,9,99,9",,,"10120,1,99999,9",,,,,,"MET065SPECI FACT 131348Z 15005KT 110V200 9999 BKN040 19/13 Q1012 NOSIG=",
"68816099999","2022-03-13T14:00:00","4","-33.964806","18.601667","46.02","CAPE TOWN INTERNATIONAL, SF","FM-15","99999","V020","150,1,V,0031,1","01219,1,C,N","009999,1,9,9","+0190,1","+0120,1","99999,9",,,,,"07,1,+01219,1,99,9",,,"9,AGL   ,+99999,+99999","99,99,9,07,1,99,9,01219,1,99,9,99,9",,,"10120,1,99999,9",,,,,,"MET065METAR FACT 131400Z 15006KT 120V200 9999 BKN040 19/12 Q1012 NOSIG=",
"68816099999","2022-03-13T15:00:00","4","-33.964806","18.601667","46.02","CAPE TOWN INTERNATIONAL, SF","FM-12","99999","V020","180,1,N,0067,1","99999,9,9,N","030000,1,9,9","+0193,1","+0112,1","10128,1",,,,,"07,1,+01250,1,06,1",,,"9,AGL   ,+99999,+99999","07,99,1,07,1,99,9,01250,1,99,9,99,9","240,M,+0197,1",,"99999,9,10074,1","7,1,003,1,+999,9",,,,"4,99,0103,1,999","SYN07068816 42680 71813 10193 20112 30074 40128 57003 875// 333 10197 91020=",
"68816099999","2022-03-13T15:00:00","4","-33.964806","18.601667","46.02","CAPE TOWN INTERNATIONAL, SF","FM-15","99999","V020","180,1,N,0062,1","01372,1,C,N","009999,1,9,9","+0190,1","+0120,1","99999,9",,,,,"07,1,+01372,1,99,9",,,"9,AGL   ,+99999,+99999","99,99,9,07,1,99,9,01372,1,99,9,99,9",,,"10120,1,99999,9",,,,,,"MET057METAR FACT 131500Z 18012KT 9999 BKN045 19/12 Q1012 NOSIG=",
"68816099999","2022-03-13T16:00:00","4","-33.964806","18.601667","46.02","CAPE TOWN INTERNATIONAL, SF","FM-15","99999","V020","180,1,N,0062,1","99999,9,9,N","009999,1,9,9","+0180,1","+0110,1","99999,9",,,,,"04,1,+01219,1,99,9",,,"9,AGL   ,+99999,+99999","99,99,9,04,1,99,9,01219,1,99,9,99,9",,,"10130,1,99999,9",,,,,,"MET057METAR FACT 131600Z 18012KT 9999 SCT040 18/11 Q1013 NOSIG=",
"68816099999","2022-03-13T17:00:00","4","-33.964806","18.601667","46.02","CAPE TOWN INTERNATIONAL, SF","FM-15","99999","V020","190,1,N,0077,1","99999,9,9,N","009999,1,9,9","+0170,1","+0100,1","99999,9",,,,,"04,1,+01219,1,99,9",,,"9,AGL   ,+99999,+99999","99,99,9,04,1,99,9,01219,1,99,9,99,9",,,"10140,1,99999,9",,,,,,"MET057METAR FACT 131700Z 19015KT 9999 SCT040 17/10 Q1014 NOSIG=",
"68816099999","2022-03-13T18:00:00","4","-33.964806","18.601667","46.02","CAPE TOWN INTERNATIONAL, SF","FM-12","99999","V020","200,1,N,0067,1","99999,9,9,N","030000,1,9,9","+0168,1","+0099,1","10151,1","12,0020,3,1",,,,"07,1,+01250,1,06,1",,,"9,AGL   ,+99999,+99999","07,99,1,07,1,99,9,01250,1,99,9,99,9","120,M,+0197,1",,"99999,9,10096,1","7,1,003,1,+999,9",,,,"4,99,0082,1,999","SYN09268816 12680 72013 10168 20099 30096 40151 57003 60022 875// 333 10197 91016 555 20018 91015=",
"68816099999","2022-03-13T18:00:00","4","-33.964806","18.601667","46.02","CAPE TOWN INTERNATIONAL, SF","FM-15","99999","V020","200,1,N,0062,1","01219,1,C,N","009999,1,9,9","+0170,1","+0100,1","99999,9",,,,,"07,1,+01219,1,99,9",,,"9,AGL   ,+99999,+99999","99,99,9,07,1,99,9,01219,1,99,9,99,9",,,"10150,1,99999,9",,,,,,"MET057METAR FACT 131800Z 20012KT 9999 BKN040 17/10 Q1015 NOSIG=",
"68816099999","2022-03-13T19:00:00","4","-33.964806","18.601667","46.02","CAPE TOWN INTERNATIONAL, SF","FM-15","99999","V020","190,1,N,0067,1","01219,1,C,N","009999,1,9,9","+0170,1","+0090,1","99999,9",,,,,"07,1,+01219,1,99,9",,,"9,AGL   ,+99999,+99999","99,99,9,07,1,99,9,01219,1,99,9,99,9",,,"10160,1,99999,9",,,,,,"MET057METAR FACT 131900Z 19013KT 9999 BKN040 17/09 Q1016 NOSIG=",
"68816099999","2022-03-13T20:00:00","4","-33.964806","18.601667","46.02","CAPE TOWN INTERNATIONAL, SF","FM-15","99999","V020","190,1,N,0046,1","99999,9,9,N","009999,1,9,9","+0160,1","+0080,1","99999,9",,,,,"04,1,+01219,1,99,9",,,"9,AGL   ,+99999,+99999","99,99,9,04,1,99,9,01219,1,99,9,99,9",,,"10170,1,99999,9",,,,,,"MET057METAR FACT 132000Z 19009KT 9999 SCT040 16/08 Q1017 NOSIG=",
"68816099999","2022-03-13T21:00:00","4","-33.964806","18.601667","46.02","CAPE TOWN INTERNATIONAL, SF","FM-15","99999","V020","200,1,N,0051,1","99999,9,9,N","009999,1,9,9","+0160,1","+0080,1","99999,9",,,,,"04,1,+01219,1,99,9",,,"9,AGL   ,+99999,+99999","99,99,9,04,1,99,9,01219,1,99,9,99,9",,,"10170,1,99999,9",,,,,,"MET057METAR FACT 132100Z 20010KT 9999 SCT040 16/08 Q1017 NOSIG=",
"68816099999","2022-03-13T22:00:00","4","-33.964806","18.601667","46.02","CAPE TOWN INTERNATIONAL, SF","FM-15","99999","V020","200,1,N,0051,1","99999,9,9,N","009999,1,9,9","+0150,1","+0080,1","99999,9",,,,,"02,1,+01219,1,99,9",,,"9,AGL   ,+99999,+99999","99,99,9,02,1,99,9,01219,1,99,9,99,9",,,"10180,1,99999,9",,,,,,"MET057METAR FACT 132200Z 20010KT 9999 FEW040 15/08 Q1018 NOSIG=",
"68816099999","2022-03-13T23:00:00","4","-33.964806","18.601667","46.02","CAPE TOWN INTERNATIONAL, SF","FM-15","99999","V020","200,1,N,0036,1","99999,9,9,N","009999,1,9,9","+0150,1","+0070,1","99999,9",,,,,"02,1,+01219,1,99,9",,,"9,AGL   ,+99999,+99999","99,99,9,02,1,99,9,01219,1,99,9,99,9",,,"10180,1,99999,9",,,,,,"MET057METAR FACT 132300Z 20007KT 9999 FEW040 15/07 Q1018 NOSIG=",
"68816099999","2022-03-14T00:00:00","4","-33.964806","18.601667","46.02","CAPE TOWN INTERNATIONAL, SF","FM-12","99999","V020","190,1,N,0026,1","22000,1,9,N","020000,1,9,9","+0127,1","+0067,1","10186,1",,,,,"02,1,+01250,1,06,1",,,"9,AGL   ,+99999,+99999","02,99,1,02,1,99,9,01250,1,99,9,99,9",,,"99999,9,10130,1","2,1,011,1,+999,9",,,,"4,99,0031,1,999","SYN07468816 32670 21905 10127 20067 30130 40186 52011 82500 333 91006 555 91018=",
"68816099999","2022-03-14T00:00:00","4","-33.964806","18.601667","46.02","CAPE TOWN INTERNATIONAL, SF","FM-15","99999","V020","190,1,N,0026,1","99999,9,9,N","009999,1,9,9","+0130,1","+0070,1","99999,9",,,,,"02,1,+01219,1,99,9",,,"9,AGL   ,+99999,+99999","99,99,9,02,1,99,9,01219,1,99,9,99,9",,,"10180,1,99999,9",,,,,,"MET057METAR FACT 140000Z 19005KT 9999 FEW040 13/07 Q1018 NOSIG=",
"68816099999","2022-03-14T01:00:00","4","-33.964806","18.601667","46.02","CAPE TOWN INTERNATIONAL, SF","FM-15","99999","V020","999,9,V,0005,1","01524,1,C,N","009999,1,9,9","+0120,1","+0070,1","99999,9",,,,,"07,1,+01524,1,99,9",,,"9,AGL   ,+99999,+99999","99,99,9,07,1,99,9,01524,1,99,9,99,9",,,"10180,1,99999,9",,,,,,"MET057METAR FACT 140100Z VRB01KT 9999 BKN050 12/07 Q1018 NOSIG=",
"68816099999","2022-03-14T01:56:00","4","-33.964806","18.601667","46.02","CAPE TOWN INTERNATIONAL, SF","FM-16","99999","V020","220,1,N,0026,1","99999,9,9,N","009999,1,9,9","+0140,1","+0070,1","99999,9",,,,,"04,1,+01219,1,99,9",,,"9,AGL   ,+99999,+99999","99,99,9,04,1,99,9,01219,1,99,9,99,9",,,"10170,1,99999,9",,,,,,"MET057SPECI FACT 140156Z 22005KT 9999 SCT040 14/07 Q1017 NOSIG=",
"68816099999","2022-03-14T02:00:00","4","-33.964806","18.601667","46.02","CAPE TOWN INTERNATIONAL, SF","FM-15","99999","V020","220,1,N,0026,1","99999,9,9,N","009999,1,9,9","+0140,1","+0070,1","99999,9",,,,,"04,1,+01219,1,99,9",,,"9,AGL   ,+99999,+99999","99,99,9,04,1,99,9,01219,1,99,9,99,9",,,"10170,1,99999,9",,,,,,"MET057METAR FACT 140200Z 22005KT 9999 SCT040 14/07 Q1017 NOSIG=",
"68816099999","2022-03-14T03:00:00","4","-33.964806","18.601667","46.02","CAPE TOWN INTERNATIONAL, SF","FM-15","99999","V020","210,1,N,0031,1","99999,9,9,N","009999,1,9,9","+0150,1","+0080,1","99999,9",,,,,"04,1,+01219,1,99,9",,,"9,AGL   ,+99999,+99999","99,99,9,04,1,99,9,01219,1,99,9,99,9",,,"10170,1,99999,9",,,,,,"MET057METAR FACT 140300Z 21006KT 9999 SCT040 15/08 Q1017 NOSIG=",
"68816099999","2022-03-14T04:00:00","4","-33.964806","18.601667","46.02","CAPE TOWN INTERNATIONAL, SF","FM-15","99999","V020","190,1,N,0036,1","99999,9,9,N","009999,1,9,9","+0140,1","+0070,1","99999,9",,,,,"02,1,+01219,1,99,9",,,"9,AGL   ,+99999,+99999","99,99,9,02,1,99,9,01219,1,99,9,99,9",,,"10180,1,99999,9",,,,,,"MET057METAR FACT 140400Z 19007KT 9999 FEW040 14/07 Q1018 NOSIG=",
"68816099999","2022-03-14T05:00:00","4","-33.964806","18.601667","46.02","CAPE TOWN INTERNATIONAL, SF","FM-15","99999","V020","150,1,N,0015,1","99999,9,9,N","009999,1,9,9","+0120,1","+0080,1","99999,9",,,,,"02,1,+01219,1,99,9",,,"9,AGL   ,+99999,+99999","99,99,9,02,1,99,9,01219,1,99,9,99,9",,,"10180,1,99999,9",,,,,,"MET057METAR FACT 140500Z 15003KT 9999 FEW040 12/08 Q1018 NOSIG=",
"68816099999","2022-03-14T05:56:00","4","-33.964806","18.601667","46.02","CAPE TOWN INTERNATIONAL, SF","FM-16","99999","V020","270,1,V,0021,1","99999,9,9,N","009999,1,9,9","+0150,1","+0080,1","99999,9",,,,,"02,1,+01524,1,99,9",,,"9,AGL   ,+99999,+99999","99,99,9,02,1,99,9,01524,1,99,9,99,9",,,"10190,1,99999,9",,,,,,"MET065SPECI FACT 140556Z 27004KT 230V300 9999 FEW050 15/08 Q1019 NOSIG=",
"68816099999","2022-03-14T06:00:00","4","-33.964806","18.601667","46.02","CAPE TOWN INTERNATIONAL, SF","FM-12","99999","V020","280,1,N,0021,1","22000,1,9,N","020000,1,9,9","+0151,1","+0078,1","10200,1","24,0010,3,1",,,,"01,1,+01250,1,06,1",,,"9,AGL   ,+99999,+99999","01,99,1,01,1,99,9,01250,1,99,9,99,9","240,N,+0113,1",,"99999,9,10145,1","2,1,019,1,+999,9",,,,"4,99,0036,1,999","SYN09868816 12670 12804 10151 20078 30145 40200 52019 60014 81500 333 20113 91007 555 10197 20018 91020=",
"68816099999","2022-03-14T06:00:00","4","-33.964806","18.601667","46.02","CAPE TOWN INTERNATIONAL, SF","FM-15","99999","V020","270,1,V,0021,1","99999,9,9,N","009999,1,9,9","+0150,1","+0080,1","99999,9",,,,,"02,1,+01524,1,99,9",,,"9,AGL   ,+99999,+99999","99,99,9,02,1,99,9,01524,1,99,9,99,9",,,"10190,1,99999,9",,,,,,"MET065METAR FACT 140600Z 27004KT 230V300 9999 FEW050 15/08 Q1019 NOSIG=",
"68816099999","2022-03-14T07:00:00","4","-33.964806","18.601667","46.02","CAPE TOWN INTERNATIONAL, SF","FM-15","99999","V020","999,9,V,0010,1","01067,1,C,N","009999,1,9,9","+0160,1","+0080,1","99999,9",,,,,"07,1,+01067,1,99,9",,,"9,AGL   ,+99999,+99999","99,99,9,07,1,99,9,01067,1,99,9,99,9",,,"10200,1,99999,9",,,,,,"MET057METAR FACT 140700Z VRB02KT 9999 BKN035 16/08 Q1020 NOSIG=",
"68816099999","2022-03-14T08:00:00","4","-33.964806","18.601667","46.02","CAPE TOWN INTERNATIONAL, SF","FM-15","99999","V020","130,1,N,0031,1","99999,9,9,N","009999,1,9,9","+0170,1","+0080,1","99999,9",,,,,"02,1,+01067,1,99,9",,,"9,AGL   ,+99999,+99999","99,99,9,02,1,99,9,01067,1,99,9,99,9",,,"10210,1,99999,9",,,,,,"MET057METAR FACT 140800Z 13006KT 9999 FEW035 17/08 Q1021 NOSIG=",
"68816099999","2022-03-14T09:00:00","4","-33.964806","18.601667","46.02","CAPE TOWN INTERNATIONAL, SF","FM-15","99999","V020","160,1,V,0057,1","99999,9,9,N","009999,1,9,9","+0190,1","+0070,1","99999,9",,,,,"02,1,+01219,1,99,9",,,"9,AGL   ,+99999,+99999","99,99,9,02,1,99,9,01219,1,99,9,99,9",,,"10210,1,99999,9",,,,,,"MET065METAR FACT 140900Z 16011KT 120V210 9999 FEW040 19/07 Q1021 NOSIG=",
"68816099999","2022-03-14T10:00:00","4","-33.964806","18.601667","46.02","CAPE TOWN INTERNATIONAL, SF","FM-15","99999","V020","180,1,V,0062,1","99999,9,9,N","009999,1,9,9","+0190,1","+0070,1","99999,9",,,,,"02,1,+01219,1,99,9",,,"9,AGL   ,+99999,+99999","99,99,9,02,1,99,9,01219,1,99,9,99,9",,,"10210,1,99999,9",,,,,,"MET065METAR FACT 141000Z 18012KT 130V210 9999 FEW040 19/07 Q1021 NOSIG=",
"68816099999","2022-03-14T11:00:00","4","-33.964806","18.601667","46.02","CAPE TOWN INTERNATIONAL, SF","FM-15","99999","V020","190,1,N,0082,1","99999,9,9,N","009999,1,9,9","+0190,1","+0080,1","99999,9",,,,,"02,1,+01067,1,99,9",,,"9,AGL   ,+99999,+99999","99,99,9,02,1,99,9,01067,1,99,9,99,9",,,"10200,1,99999,9",,,,,,"MET057METAR FACT 141100Z 19016KT 9999 FEW035 19/08 Q1020 NOSIG=",
"68816099999","2022-03-14T12:00:00","4","-33.964806","18.601667","46.02","CAPE TOWN INTERNATIONAL, SF","FM-12","99999","V020","180,1,N,0077,1","22000,1,9,N","040000,1,9,9","+0202,1","+0072,1","10204,1",,,,,"03,1,+01750,1,06,1","99,9,+99999,9,00,1",,"9,AGL   ,+99999,+99999","03,99,1,03,1,99,9,01750,1,99,9,99,9","240,N,+0152,1",,"99999,9,10149,1","2,1,019,1,+999,9",,,,"4,99,0108,1,999","SYN08068816 32782 31815 10202 20072 30149 40204 52019 83504 333 20152 91021 555 91020=",
"68816099999","2022-03-14T12:00:00","4","-33.964806","18.601667","46.02","CAPE TOWN INTERNATIONAL, SF","FM-15","99999","V020","190,1,N,0082,1","99999,9,9,N","009999,1,9,9","+0200,1","+0070,1","99999,9",,,,,"02,1,+01067,1,99,9",,,"9,AGL   ,+99999,+99999","99,99,9,02,1,99,9,01067,1,99,9,99,9",,,"10200,1,99999,9",,,,,,"MET057METAR FACT 141200Z 19016KT 9999 FEW035 20/07 Q1020 NOSIG=",
"68816099999","2022-03-14T13:00:00","4","-33.964806","18.601667","46.02","CAPE TOWN INTERNATIONAL, SF","FM-15","99999","V020","180,1,N,0093,1","99999,9,9,N","009999,1,9,9","+0200,1","+0080,1","99999,9",,,,,"02,1,+01067,1,99,9",,,"9,AGL   ,+99999,+99999","99,99,9,02,1,99,9,01067,1,99,9,99,9",,,"10200,1,99999,9",,,,,,"MET057METAR FACT 141300Z 18018KT 9999 FEW035 20/08 Q1020 NOSIG=",
"68816099999","2022-03-14T14:00:00","4","-33.964806","18.601667","46.02","CAPE TOWN INTERNATIONAL, SF","FM-15","99999","V020","190,1,N,0098,1","99999,9,9,N","009999,1,9,9","+0190,1","+0080,1","99999,9",,,,,"02,1,+01067,1,99,9",,,"9,AGL   ,+99999,+99999","99,99,9,02,1,99,9,01067,1,99,9,99,9",,,"10200,1,99999,9",,,,,,"MET057METAR FACT 141400Z 19019KT 9999 FEW035 19/08 Q1020 NOSIG=",
"68816099999","2022-03-14T15:00:00","4","-33.964806","18.601667","46.02","CAPE TOWN INTERNATIONAL, SF","FM-15","99999","V020","190,1,N,0108,1","99999,9,9,N","009999,1,9,9","+0190,1","+0100,1","99999,9",,,,,"02,1,+01067,1,99,9",,,"9,AGL   ,+99999,+99999","99,99,9,02,1,99,9,01067,1,99,9,99,9",,,"10190,1,99999,9",,,,,,"MET057METAR FACT 141500Z 19021KT 9999 FEW035 19/10 Q1019 NOSIG=",
"68816099999","2022-03-14T16:00:00","4","-33.964806","18.601667","46.02","CAPE TOWN INTERNATIONAL, SF","FM-15","99999","V020","170,1,N,0098,1","99999,9,9,N","009999,1,9,9","+0180,1","+0100,1","99999,9",,,,,"02,1,+01219,1,99,9",,,"9,AGL   ,+99999,+99999","99,99,9,02,1,99,9,01219,1,99,9,99,9",,,"10200,1,99999,9",,,,,,"MET057METAR FACT 141600Z 17019KT 9999 FEW040 18/10 Q1020 NOSIG=",
"68816099999","2022-03-14T17:00:00","4","-33.964806","18.601667","46.02","CAPE TOWN INTERNATIONAL, SF","FM-15","99999","V020","170,1,N,0088,1","99999,9,9,N","009999,1,9,9","+0170,1","+0100,1","99999,9",,,,,"02,1,+01219,1,99,9",,,"9,AGL   ,+99999,+99999","99,99,9,02,1,99,9,01219,1,99,9,99,9",,,"10200,1,99999,9",,,,,,"MET057METAR FACT 141700Z 17017KT 9999 FEW040 17/10 Q1020 NOSIG=",
"68816099999","2022-03-14T18:00:00","4","-33.964806","18.601667","46.02","CAPE TOWN INTERNATIONAL, SF","FM-12","99999","V020","170,1,N,0077,1","22000,1,9,N","040000,1,9,9","+0161,1","+0109,1","10210,1",,,,,"01,1,+01750,1,06,1",,,"9,AGL   ,+99999,+99999","01,99,1,01,1,99,9,01750,1,99,9,99,9",,,"99999,9,10154,1","7,1,010,1,+999,9",,,,"4,99,0098,1,999","SYN08068816 32782 11715 10161 20109 30154 40210 57010 81500 333 91019 555 10209 91021=",
"68816099999","2022-03-14T18:00:00","4","-33.964806","18.601667","46.02","CAPE TOWN INTERNATIONAL, SF","FM-15","99999","V020","160,1,N,0067,1","99999,9,9,N","009999,1,9,9","+0160,1","+0110,1","99999,9",,,,,"02,1,+01219,1,99,9",,,"9,AGL   ,+99999,+99999","99,99,9,02,1,99,9,01219,1,99,9,99,9",,,"10200,1,99999,9",,,,,,"MET057METAR FACT 141800Z 16013KT 9999 FEW040 16/11 Q1020 NOSIG=",
"68816099999","2022-03-14T19:00:00","4","-33.964806","18.601667","46.02","CAPE TOWN INTERNATIONAL, SF","FM-15","99999","V020","170,1,N,0082,1","99999,9,9,Y","009900,5,9,9","+0160,1","+0110,1","99999,9",,,,,,,,,,,,"10210,1,99999,9",,,,,,"MET051METAR FACT 141900Z 17016KT CAVOK 16/11 Q1021 NOSIG=",
"68816099999","2022-03-14T20:00:00","4","-33.964806","18.601667","46.02","CAPE TOWN INTERNATIONAL, SF","FM-15","99999","V020","160,1,N,0057,1","99999,9,9,Y","009900,5,9,9","+0150,1","+0110,1","99999,9",,,,,,,,,,,,"10210,1,99999,9",,,,,,"MET051METAR FACT 142000Z 16011KT CAVOK 15/11 Q1021 NOSIG=",
"68816099999","2022-03-14T21:00:00","4","-33.964806","18.601667","46.02","CAPE TOWN INTERNATIONAL, SF","FM-12","99999","V020","160,1,N,0072,1","99999,9,9,N","040000,1,9,9","+0159,1","+0103,1","10210,1",,,,,,,,,,"240,M,+0209,1","240,N,+0159,1","99999,9,10154,1","9,9,002,1,+999,9",,,,"4,99,0093,1,999","SYN07068816 42982 01614 10159 20103 30154 40210 50002 333 10209 20159 91018=",
"68816099999","2022-03-14T21:00:00","4","-33.964806","18.601667","46.02","CAPE TOWN INTERNATIONAL, SF","FM-15","99999","V020","160,1,N,0067,1","99999,9,9,Y","009900,5,9,9","+0160,1","+0100,1","99999,9",,,,,,,,,,,,"10200,1,99999,9",,,,,,"MET051METAR FACT 142100Z 16013KT CAVOK 16/10 Q1020 NOSIG=",
"68816099999","2022-03-14T22:00:00","4","-33.964806","18.601667","46.02","CAPE TOWN INTERNATIONAL, SF","FM-15","99999","V020","160,1,N,0082,1","99999,9,9,Y","009900,5,9,9","+0160,1","+0090,1","99999,9",,,,,,,,,,,,"10200,1,99999,9",,,,,,"MET051METAR FACT 142200Z 16016KT CAVOK 16/09 Q1020 NOSIG=",
"68816099999","2022-03-14T23:00:00","4","-33.964806","18.601667","46.02","CAPE TOWN INTERNATIONAL, SF","FM-15","99999","V020","160,1,N,0072,1","99999,9,9,Y","009900,5,9,9","+0160,1","+0100,1","99999,9",,,,,,,,,,,,"10200,1,99999,9",,,,,,"MET051METAR FACT 142300Z 16014KT CAVOK 16/10 Q1020 NOSIG=",
"68816099999","2022-03-15T00:00:00","4","-33.964806","18.601667","46.02","CAPE TOWN INTERNATIONAL, SF","FM-12","99999","V020","160,1,N,0077,1","99999,9,9,N","040000,1,9,9","+0155,1","+0098,1","10195,1",,,,,,,,,,"120,M,+0209,1","120,N,+0155,1","99999,9,10139,1","7,1,009,1,+999,9",,,,"4,99,0113,1,999","SYN08068816 32982 01615 10155 20098 30139 40195 57009 333 10209 20155 91022 555 91019=",
"68816099999","2022-03-15T00:00:00","4","-33.964806","18.601667","46.02","CAPE TOWN INTERNATIONAL, SF","FM-15","99999","V020","160,1,N,0077,1","99999,9,9,Y","009900,5,9,9","+0160,1","+0100,1","99999,9",,,,,,,,,,,,"10190,1,99999,9",,,,,,"MET051METAR FACT 150000Z 16015KT CAVOK 16/10 Q1019 NOSIG=",
"68816099999","2022-03-15T01:00:00","4","-33.964806","18.601667","46.02","CAPE TOWN INTERNATIONAL, SF","FM-15","99999","V020","160,1,N,0082,1","99999,9,9,Y","009900,5,9,9","+0160,1","+0100,1","99999,9",,,,,,,,,,,,"10190,1,99999,9",,,,,,"MET051METAR FACT 150100Z 16016KT CAVOK 16/10 Q1019 NOSIG=",
"68816099999","2022-03-15T02:00:00","4","-33.964806","18.601667","46.02","CAPE TOWN INTERNATIONAL, SF","FM-15","99999","V020","160,1,N,0067,1","99999,9,9,Y","009900,5,9,9","+0150,1","+0100,1","99999,9",,,,,,,,,,,,"10180,1,99999,9",,,,,,"MET051METAR FACT 150200Z 16013KT CAVOK 15/10 Q1018 NOSIG=",
"68816099999","2022-03-15T03:00:00","4","-33.964806","18.601667","46.02","CAPE TOWN INTERNATIONAL, SF","FM-15","99999","V020","160,1,N,0057,1","99999,9,9,Y","009900,5,9,9","+0150,1","+0100,1","99999,9",,,,,,,,,,,,"10180,1,99999,9",,,,,,"MET051METAR FACT 150300Z 16011KT CAVOK 15/10 Q1018 NOSIG=",
"68816099999","2022-03-15T04:00:00","4","-33.964806","18.601667","46.02","CAPE TOWN INTERNATIONAL, SF","FM-15","99999","V020","160,1,N,0062,1","99999,9,9,Y","009900,5,9,9","+0150,1","+0100,1","99999,9",,,,,,,,,,,,"10180,1,99999,9",,,,,,"MET051METAR FACT 150400Z 16012KT CAVOK 15/10 Q1018 NOSIG=",
"68816099999","2022-03-15T05:00:00","4","-33.964806","18.601667","46.02","CAPE TOWN INTERNATIONAL, SF","FM-15","99999","V020","120,1,N,0015,1","99999,9,9,Y","009900,5,9,9","+0130,1","+0090,1","99999,9",,,,,,,,,,,,"10190,1,99999,9",,,,,,"MET051METAR FACT 150500Z 12003KT CAVOK 13/09 Q1019 NOSIG=",
"68816099999","2022-03-15T05:47:00","4","-33.964806","18.601667","46.02","CAPE TOWN INTERNATIONAL, SF","FM-16","99999","V020","230,1,N,0015,1","99999,9,9,Y","009900,5,9,9","+0150,1","+0090,1","99999,9",,,,,,,,,,,,"10190,1,99999,9",,,,,,"MET051SPECI FACT 150547Z 23003KT CAVOK 15/09 Q1019 NOSIG=",
"68816099999","2022-03-15T06:00:00","4","-33.964806","18.601667","46.02","CAPE TOWN INTERNATIONAL, SF","FM-12","99999","V020","200,1,N,0031,1","99999,9,9,N","045000,1,9,9","+0162,1","+0091,1","10191,1",,,,,,,,,,"240,N,+0125,1",,"99999,9,10136,1","7,1,007,1,+999,9",,,,"4,99,0026,1,999","SYN08068816 32983 02006 10162 20091 30136 40191 57007 333 20125 91005 555 10209 91019=",
"68816099999","2022-03-15T06:00:00","4","-33.964806","18.601667","46.02","CAPE TOWN INTERNATIONAL, SF","FM-15","99999","V020","230,1,N,0015,1","99999,9,9,Y","009900,5,9,9","+0150,1","+0090,1","99999,9",,,,,,,,,,,,"10190,1,99999,9",,,,,,"MET051METAR FACT 150600Z 23003KT CAVOK 15/09 Q1019 NOSIG=",
"68816099999","2022-03-15T06:27:00","4","-33.964806","18.601667","46.02","CAPE TOWN INTERNATIONAL, SF","FM-16","99999","V020","999,9,V,0010,1","99999,9,9,Y","009900,5,9,9","+0170,1","+0090,1","99999,9",,,,,,,,,,,,"10190,1,99999,9",,,,,,"MET051SPECI FACT 150627Z VRB02KT CAVOK 17/09 Q1019 NOSIG=",
"68816099999","2022-03-15T07:00:00","4","-33.964806","18.601667","46.02","CAPE TOWN INTERNATIONAL, SF","FM-15","99999","V020","999,9,V,0010,1","99999,9,9,Y","009900,5,9,9","+0190,1","+0080,1","99999,9",,,,,,,,,,,,"10190,1,99999,9",,,,,,"MET051METAR FACT 150700Z VRB02KT CAVOK 19/08 Q1019 NOSIG=",
"68816099999","2022-03-15T08:00:00","4","-33.964806","18.601667","46.02","CAPE TOWN INTERNATIONAL, SF","FM-15","99999","V020","999,9,V,0015,1","99999,9,9,Y","009900,5,9,9","+0210,1","+0070,1","99999,9",,,,,,,,,,,,"10190,1,99999,9",,,,,,"MET051METAR FACT 150800Z VRB03KT CAVOK 21/07 Q1019 NOSIG=",
"68816099999","2022-03-15T09:00:00","4","-33.964806","18.601667","46.02","CAPE TOWN INTERNATIONAL, SF","FM-15","99999","V020","999,9,V,0015,1","99999,9,9,Y","009900,5,9,9","+0230,1","+0050,1","99999,9",,,,,,,,,,,,"10180,1,99999,9",,,,,,"MET051METAR FACT 150900Z VRB03KT CAVOK 23/05 Q1018 NOSIG=",
"68816099999","2022-03-15T10:00:00","4","-33.964806","18.601667","46.02","CAPE TOWN INTERNATIONAL, SF","FM-15","99999","V020","999,9,V,0015,1","99999,9,9,Y","009900,5,9,9","+0240,1","+0060,1","99999,9",,,,,,,,,,,,"10180,1,99999,9",,,,,,"MET051METAR FACT 151000Z VRB03KT CAVOK 24/06 Q1018 NOSIG=",
"68816099999","2022-03-15T11:00:00","4","-33.964806","18.601667","46.02","CAPE TOWN INTERNATIONAL, SF","FM-15","99999","V020","210,1,V,0067,1","99999,9,9,Y","009900,5,9,9","+0240,1","+0090,1","99999,9",,,,,,,,,,,,"10180,1,99999,9",,,,,,"MET059METAR FACT 151100Z 21013KT 170V240 CAVOK 24/09 Q1018 NOSIG=",
"68816099999","2022-03-15T12:00:00","4","-33.964806","18.601667","46.02","CAPE TOWN INTERNATIONAL, SF","FM-12","99999","V020","190,1,N,0082,1","22000,1,9,N","030000,1,9,9","+0234,1","+0107,1","10178,1",,,,,"99,9,+99999,9,00,1",,,"9,AGL   ,+99999,+99999","02,99,1,00,1,99,9,99999,9,99,9,99,9","240,M,+0245,1","240,N,+0163,1","99999,9,10124,1","9,9,001,1,+999,9",,,,"4,99,0098,1,999","SYN08668816 32980 21916 10234 20107 30124 40178 50001 80002 333 10245 20163 91019 555 91017=","Q01    003SCCGA1"
"68816099999","2022-03-15T12:00:00","4","-33.964806","18.601667","46.02","CAPE TOWN INTERNATIONAL, SF","FM-15","99999","V020","190,1,N,0082,1","99999,9,9,Y","009900,5,9,9","+0230,1","+0110,1","99999,9",,,,,,,,,,,,"10180,1,99999,9",,,,,,"MET051METAR FACT 151200Z 19016KT CAVOK 23/11 Q1018 NOSIG=",
"68816099999","2022-03-15T13:00:00","4","-33.964806","18.601667","46.02","CAPE TOWN INTERNATIONAL, SF","FM-15","99999","V020","180,1,N,0093,1","99999,9,9,Y","009900,5,9,9","+0220,1","+0130,1","99999,9",,,,,,,,,,,,"10170,1,99999,9",,,,,,"MET051METAR FACT 151300Z 18018KT CAVOK 22/13 Q1017 NOSIG=",
"68816099999","2022-03-15T14:00:00","4","-33.964806","18.601667","46.02","CAPE TOWN INTERNATIONAL, SF","FM-15","99999","V020","180,1,N,0077,1","99999,9,9,Y","009900,5,9,9","+0220,1","+0140,1","99999,9",,,,,,,,,,,,"10170,1,99999,9",,,,,,"MET051METAR FACT 151400Z 18015KT CAVOK 22/14 Q1017 NOSIG=",
"68816099999","2022-03-15T15:00:00","4","-33.964806","18.601667","46.02","CAPE TOWN INTERNATIONAL, SF","FM-15","99999","V020","190,1,N,0077,1","00914,1,C,N","009999,1,9,9","+0210,1","+0140,1","99999,9",,,,,"07,1,+00914,1,99,9",,,"9,AGL   ,+99999,+99999","99,99,9,07,1,99,9,00914,1,99,9,99,9",,,"10170,1,99999,9",,,,,,"MET057METAR FACT 151500Z 19015KT 9999 BKN030 21/14 Q1017 NOSIG=",
"68816099999","2022-03-15T16:00:00","4","-33.964806","18.601667","46.02","CAPE TOWN INTERNATIONAL, SF","FM-15","99999","V020","190,1,N,0103,1","99999,9,9,N","009999,1,9,9","+0190,1","+0150,1","99999,9",,,,,"04,1,+00914,1,99,9",,,"9,AGL   ,+99999,+99999","99,99,9,04,1,99,9,00914,1,99,9,99,9",,,"10170,1,99999,9",,,,,,"MET057METAR FACT 151600Z 19020KT 9999 SCT030 19/15 Q1017 NOSIG=",
"68816099999","2022-03-15T17:00:00","4","-33.964806","18.601667","46.02","CAPE TOWN INTERNATIONAL, SF","FM-15","99999","V020","180,1,N,0093,1","99999,9,9,N","009999,1,9,9","+0180,1","+0150,1","99999,9",,,,,"02,1,+00762,1,99,9",,,"9,AGL   ,+99999,+99999","99,99,9,02,1,99,9,00762,1,99,9,99,9",,,"10170,1,99999,9",,,,,,"MET057METAR FACT 151700Z 18018KT 9999 FEW025 18/15 Q1017 NOSIG=",
"68816099999","2022-03-15T18:00:00","4","-33.964806","18.601667","46.02","CAPE TOWN INTERNATIONAL, SF","FM-15","99999","V020","190,1,N,0077,1","99999,9,9,N","009999,1,9,9","+0180,1","+0140,1","99999,9",,,,,"02,1,+00914,1,99,9",,,"9,AGL   ,+99999,+99999","99,99,9,02,1,99,9,00914,1,99,9,99,9",,,"10170,1,99999,9",,,,,,"MET057METAR FACT 151800Z 19015KT 9999 FEW030 18/14 Q1017 NOSIG=",
"68816099999","2022-03-15T19:00:00","4","-33.964806","18.601667","46.02","CAPE TOWN INTERNATIONAL, SF","FM-15","99999","V020","180,1,N,0062,1","99999,9,9,Y","009900,5,9,9","+0180,1","+0140,1","99999,9",,,,,,,,,,,,"10180,1,99999,9",,,,,,"MET051METAR FACT 151900Z 18012KT CAVOK 18/14 Q1018 NOSIG=",
"68816099999","2022-03-15T20:00:00","4","-33.964806","18.601667","46.02","CAPE TOWN INTERNATIONAL, SF","FM-15","99999","V020","190,1,N,0072,1","99999,9,9,Y","009900,5,9,9","+0190,1","+0140,1","99999,9",,,,,,,,,,,,"10180,1,99999,9",,,,,,"MET051METAR FACT 152000Z 19014KT CAVOK 19/14 Q1018 NOSIG=",
"68816099999","2022-03-15T21:00:00","4","-33.964806","18.601667","46.02","CAPE TOWN INTERNATIONAL, SF","FM-15","99999","V020","200,1,N,0062,1","99999,9,9,Y","009900,5,9,9","+0180,1","+0140,1","99999,9",,,,,,,,,,,,"10180,1,99999,9",,,,,,"MET051METAR FACT 152100Z 20012KT CAVOK 18/14 Q1018 NOSIG=",
"68816099999","2022-03-15T22:00:00","4","-33.964806","18.601667","46.02","CAPE TOWN INTERNATIONAL, SF","FM-15","99999","V020","200,1,N,0067,1","99999,9,9,Y","009900,5,9,9","+0170,1","+0140,1","99999,9",,,,,,,,,,,,"10180,1,99999,9",,,,,,"MET051METAR FACT 152200Z 20013KT CAVOK 17/14 Q1018 NOSIG=",
"68816099999","2022-03-15T23:00:00","4","-33.964806","18.601667","46.02","CAPE TOWN INTERNATIONAL, SF","FM-15","99999","V020","190,1,N,0062,1","99999,9,9,Y","009900,5,9,9","+0170,1","+0140,1","99999,9",,,,,,,,,,,,"10180,1,99999,9",,,,,,"MET051METAR FACT 152300Z 19012KT CAVOK 17/14 Q1018 NOSIG=",
"68816099999","2022-03-16T00:00:00","4","-33.964806","18.601667","46.02","CAPE TOWN INTERNATIONAL, SF","FM-12","99999","V020","160,1,N,0077,1","99999,9,9,N","050000,1,9,9","+0175,1","+0133,1","10177,1",,,,,,,,,,,,"99999,9,10122,1","9,9,001,1,+999,9",,,,"4,99,0062,1,999","SYN06868816 32984 01615 10175 20133 30122 40177 50001 333 91012 555 91017=",
"68816099999","2022-03-16T00:00:00","4","-33.964806","18.601667","46.02","CAPE TOWN INTERNATIONAL, SF","FM-15","99999","V020","170,1,N,0062,1","99999,9,9,Y","009900,5,9,9","+0170,1","+0140,1","99999,9",,,,,,,,,,,,"10170,1,99999,9",,,,,,"MET051METAR FACT 160000Z 17012KT CAVOK 17/14 Q1017 NOSIG=",
"68816099999","2022-03-16T01:00:00","4","-33.964806","18.601667","46.02","CAPE TOWN INTERNATIONAL, SF","FM-15","99999","V020","170,1,N,0067,1","99999,9,9,Y","009900,5,9,9","+0180,1","+0130,1","99999,9",,,,,,,,,,,,"10170,1,99999,9",,,,,,"MET051METAR FACT 160100Z 17013KT CAVOK 18/13 Q1017 NOSIG=",
"68816099999","2022-03-16T02:00:00","4","-33.964806","18.601667","46.02","CAPE TOWN INTERNATIONAL, SF","FM-15","99999","V020","190,1,N,0072,1","99999,9,9,Y","009900,5,9,9","+0180,1","+0130,1","99999,9",,,,,,,,,,,,"10160,1,99999,9",,,,,,"MET051METAR FACT 160200Z 19014KT CAVOK 18/13 Q1016 NOSIG=",
"68816099999","2022-03-16T03:00:00","4","-33.964806","18.601667","46.02","CAPE TOWN INTERNATIONAL, SF","FM-15","99999","V020","170,1,N,0077,1","99999,9,9,Y","009900,5,9,9","+0180,1","+0130,1","99999,9",,,,,,,,,,,,"10160,1,99999,9",,,,,,"MET051METAR FACT 160300Z 17015KT CAVOK 18/13 Q1016 NOSIG=",
"68816099999","2022-03-16T04:00:00","4","-33.964806","18.601667","46.02","CAPE TOWN INTERNATIONAL, SF","FM-15","99999","V020","160,1,N,0103,1","99999,9,9,Y","009900,5,9,9","+0180,1","+0130,1","99999,9",,,,,,,,,,,,"10160,1,99999,9",,,,,,"MET051METAR FACT 160400Z 16020KT CAVOK 18/13 Q1016 NOSIG=",
"68816099999","2022-03-16T04:23:00","4","-33.964806","18.601667","46.02","CAPE TOWN INTERNATIONAL, SF","FM-16","99999","V020","170,1,N,0082,1","99999,9,9,Y","009900,5,9,9","+0180,1","+0130,1","99999,9",,,,,,,,,,,,"10170,1,99999,9",,,,"0134,1",,"MET054SPECI FACT 160423Z 17016G26KT CAVOK 18/13 Q1017 NOSIG=",
"68816099999","2022-03-16T05:00:00","4","-33.964806","18.601667","46.02","CAPE TOWN INTERNATIONAL, SF","FM-15","99999","V020","160,1,N,0103,1","99999,9,9,Y","009900,5,9,9","+0180,1","+0130,1","99999,9",,,,,,,,,,,,"10170,1,99999,9",,,,"0154,1",,"MET054METAR FACT 160500Z 16020G30KT CAVOK 18/13 Q1017 NOSIG=",
"68816099999","2022-03-16T06:00:00","4","-33.964806","18.601667","46.02","CAPE TOWN INTERNATIONAL, SF","FM-12","99999","V020","160,1,N,0093,1","99999,9,9,N","040000,1,9,9","+0192,1","+0132,1","10181,1",,,,,"01,1,+99999,9,06,1",,,"9,AGL   ,+99999,+99999","99,99,9,01,1,99,9,99999,9,99,9,99,9","240,N,+0169,1",,"99999,9,10126,1","9,9,001,1,+999,9",,,,"4,99,0139,1,999","SYN08668816 32782 01618 10192 20132 30126 40181 50001 81500 333 20169 91027 555 10245 91018=",
"68816099999","2022-03-16T06:00:00","4","-33.964806","18.601667","46.02","CAPE TOWN INTERNATIONAL, SF","FM-15","99999","V020","160,1,N,0098,1","99999,9,9,N","009999,1,9,9","+0190,1","+0130,1","99999,9",,,,,"02,1,+00914,1,99,9",,,"9,AGL   ,+99999,+99999","99,99,9,02,1,99,9,00914,1,99,9,99,9",,,"10180,1,99999,9",,,,,,"MET057METAR FACT 160600Z 16019KT 9999 FEW030 19/13 Q1018 NOSIG=",
"68816099999","2022-03-16T07:00:00","4","-33.964806","18.601667","46.02","CAPE TOWN INTERNATIONAL, SF","FM-15","99999","V020","160,1,N,0113,1","99999,9,9,N","009999,1,9,9","+0210,1","+0130,1","99999,9",,,,,"02,1,+00914,1,99,9",,,"9,AGL   ,+99999,+99999","99,99,9,02,1,99,9,00914,1,99,9,99,9",,,"10180,1,99999,9",,,,,,"MET057METAR FACT 160700Z 16022KT 9999 FEW030 21/13 Q1018 NOSIG=",
"68816099999","2022-03-16T08:00:00","4","-33.964806","18.601667","46.02","CAPE TOWN INTERNATIONAL, SF","FM-15","99999","V020","150,1,N,0113,1","99999,9,9,N","009999,1,9,9","+0220,1","+0130,1","99999,9",,,,,"02,1,+00914,1,99,9",,,"9,AGL   ,+99999,+99999","99,99,9,02,1,99,9,00914,1,99,9,99,9",,,"10180,1,99999,9",,,,,,"MET057METAR FACT 160800Z 15022KT 9999 FEW030 22/13 Q1018 NOSIG=",
"68816099999","2022-03-16T09:00:00","4","-33.964806","18.601667","46.02","CAPE TOWN INTERNATIONAL, SF","FM-15","99999","V020","160,1,N,0108,1","99999,9,9,N","009999,1,9,9","+0240,1","+0130,1","99999,9",,,,,"02,1,+00914,1,99,9",,,"9,AGL   ,+99999,+99999","99,99,9,02,1,99,9,00914,1,99,9,99,9",,,"10180,1,99999,9",,,,,,"MET057METAR FACT 160900Z 16021KT 9999 FEW030 24/13 Q1018 NOSIG=",
"68816099999","2022-03-16T10:00:00","4","-33.964806","18.601667","46.02","CAPE TOWN INTERNATIONAL, SF","FM-15","99999","V020","170,1,N,0093,1","99999,9,9,N","009999,1,9,9","+0250,1","+0130,1","99999,9",,,,,"02,1,+00914,1,99,9",,,"9,AGL   ,+99999,+99999","99,99,9,02,1,99,9,00914,1,99,9,99,9",,,"10170,1,99999,9",,,,,,"MET057METAR FACT 161000Z 17018KT 9999 FEW030 25/13 Q1017 NOSIG=",
"68816099999","2022-03-16T11:00:00","4","-33.964806","18.601667","46.02","CAPE TOWN INTERNATIONAL, SF","FM-15","99999","V020","180,1,N,0093,1","99999,9,9,Y","009900,5,9,9","+0260,1","+0130,1","99999,9",,,,,,,,,,,,"10170,1,99999,9",,,,,,"MET051METAR FACT 161100Z 18018KT CAVOK 26/13 Q1017 NOSIG=",
"68816099999","2022-03-16T12:00:00","4","-33.964806","18.601667","46.02","CAPE TOWN INTERNATIONAL, SF","FM-12","99999","V020","180,1,N,0103,1","22000,1,9,N","030000,1,9,9","+0243,1","+0140,1","10169,1",,,,,"01,1,+00800,1,06,1",,,"9,AGL   ,+99999,+99999","01,99,1,01,1,99,9,00800,1,99,9,99,9","240,M,+0264,1","240,N,+0194,1","99999,9,10115,1","9,9,001,1,+999,9",,,,"4,99,0129,1,999","SYN08668816 32580 11820 10243 20140 30115 40169 50001 81500 333 10264 20194 91025 555 91016=",
"68816099999","2022-03-16T12:00:00","4","-33.964806","18.601667","46.02","CAPE TOWN INTERNATIONAL, SF","FM-15","99999","V020","180,1,N,0103,1","99999,9,9,N","009999,1,9,9","+0250,1","+0140,1","99999,9",,,,,"02,1,+00914,1,99,9",,,"9,AGL   ,+99999,+99999","99,99,9,02,1,99,9,00914,1,99,9,99,9",,,"10170,1,99999,9",,,,,,"MET057METAR FACT 161200Z 18020KT 9999 FEW030 25/14 Q1017 NOSIG=",
"68816099999","2022-03-16T13:00:00","4","-33.964806","18.601667","46.02","CAPE TOWN INTERNATIONAL, SF","FM-15","99999","V020","180,1,N,0108,1","99999,9,9,N","009999,1,9,9","+0240,1","+0140,1","99999,9",,,,,"02,1,+00914,1,99,9",,,"9,AGL   ,+99999,+99999","99,99,9,02,1,99,9,00914,1,99,9,99,9",,,"10160,1,99999,9",,,,,,"MET057METAR FACT 161300Z 18021KT 9999 FEW030 24/14 Q1016 NOSIG=",
"68816099999","2022-03-16T14:00:00","4","-33.964806","18.601667","46.02","CAPE TOWN INTERNATIONAL, SF","FM-15","99999","V020","160,1,N,0113,1","99999,9,9,N","009999,1,9,9","+0240,1","+0140,1","99999,9",,,,,"02,1,+00914,1,99,9",,,"9,AGL   ,+99999,+99999","99,99,9,02,1,99,9,00914,1,99,9,99,9",,,"10150,1,99999,9",,,,,,"MET057METAR FACT 161400Z 16022KT 9999 FEW030 24/14 Q1015 NOSIG=",
"68816099999","2022-03-16T15:00:00","4","-33.964806","18.601667","46.02","CAPE TOWN INTERNATIONAL, SF","FM-15","99999","V020","170,1,N,0088,1","99999,9,9,Y","009900,5,9,9","+0230,1","+0140,1","99999,9",,,,,,,,,,,,"10150,1,99999,9",,,,,,"MET051METAR FACT 161500Z 17017KT CAVOK 23/14 Q1015 NOSIG=",
"68816099999","2022-03-16T16:00:00","4","-33.964806","18.601667","46.02","CAPE TOWN INTERNATIONAL, SF","FM-15","99999","V020","190,1,N,0077,1","99999,9,9,Y","009900,5,9,9","+0230,1","+0140,1","99999,9",,,,,,,,,,,,"10150,1,99999,9",,,,,,"MET051METAR FACT 161600Z 19015KT CAVOK 23/14 Q1015 NOSIG=",
"68816099999","2022-03-16T17:00:00","4","-33.964806","18.601667","46.02","CAPE TOWN INTERNATIONAL, SF","FM-15","99999","V020","180,1,N,0072,1","99999,9,9,Y","009900,5,9,9","+0210,1","+0140,1","99999,9",,,,,,,,,,,,"10150,1,99999,9",,,,,,"MET051METAR FACT 161700Z 18014KT CAVOK 21/14 Q1015 NOSIG=",
"68816099999","2022-03-16T18:00:00","4","-33.964806","18.601667","46.02","CAPE TOWN INTERNATIONAL, SF","FM-12","99999","V020","240,1,N,0051,1","22000,1,9,N","030000,1,9,9","+0193,1","+0143,1","10161,1",,,,,,,,"9,AGL   ,+99999,+99999","01,99,1,99,9,99,9,99999,9,99,9,99,9","120,M,+0264,1","120,N,+0193,1","99999,9,10107,1","9,9,001,1,+999,9",,,,"4,99,0062,1,999","SYN08068816 32980 12410 10193 20143 30107 40161 50001 333 10264 20193 91012 555 91016=",
"68816099999","2022-03-16T18:00:00","4","-33.964806","18.601667","46.02","CAPE TOWN INTERNATIONAL, SF","FM-15","99999","V020","240,1,V,0051,1","99999,9,9,Y","009900,5,9,9","+0200,1","+0140,1","99999,9",,,,,,,,,,,,"10160,1,99999,9",,,,,,"MET059METAR FACT 161800Z 24010KT 200V260 CAVOK 20/14 Q1016 NOSIG=",
"68816099999","2022-03-16T19:00:00","4","-33.964806","18.601667","46.02","CAPE TOWN INTERNATIONAL, SF","FM-15","99999","V020","190,1,N,0067,1","99999,9,9,Y","009900,5,9,9","+0210,1","+0130,1","99999,9",,,,,,,,,,,,"10160,1,99999,9",,,,,,"MET051METAR FACT 161900Z 19013KT CAVOK 21/13 Q1016 NOSIG=",
"68816099999","2022-03-16T20:00:00","4","-33.964806","18.601667","46.02","CAPE TOWN INTERNATIONAL, SF","FM-15","99999","V020","170,1,N,0072,1","99999,9,9,Y","009900,5,9,9","+0200,1","+0140,1","99999,9",,,,,,,,,,,,"10160,1,99999,9",,,,,,"MET051METAR FACT 162000Z 17014KT CAVOK 20/14 Q1016 NOSIG=",
"68816099999","2022-03-16T21:00:00","4","-33.964806","18.601667","46.02","CAPE TOWN INTERNATIONAL, SF","FM-15","99999","V020","160,1,N,0041,1","99999,9,9,Y","009900,5,9,9","+0190,1","+0140,1","99999,9",,,,,,,,,,,,"10160,1,99999,9",,,,,,"MET051METAR FACT 162100Z 16008KT CAVOK 19/14 Q1016 NOSIG=",
"68816099999","2022-03-16T22:00:00","4","-33.964806","18.601667","46.02","CAPE TOWN INTERNATIONAL, SF","FM-15","99999","V020","150,1,N,0041,1","99999,9,9,Y","009900,5,9,9","+0190,1","+0140,1","99999,9",,,,,,,,,,,,"10160,1,99999,9",,,,,,"MET051METAR FACT 162200Z 15008KT CAVOK 19/14 Q1016 NOSIG=",
"68816099999","2022-03-16T23:00:00","4","-33.964806","18.601667","46.02","CAPE TOWN INTERNATIONAL, SF","FM-15","99999","V020","190,1,N,0031,1","99999,9,9,Y","009900,5,9,9","+0190,1","+0130,1","99999,9",,,,,,,,,,,,"10160,1,99999,9",,,,,,"MET051METAR FACT 162300Z 19006KT CAVOK 19/13 Q1016 NOSIG=",
"68816099999","2022-03-17T00:00:00","4","-33.964806","18.601667","46.02","CAPE TOWN INTERNATIONAL, SF","FM-12","99999","V020","190,1,N,0041,1","99999,9,9,N","030000,1,9,9","+0184,1","+0136,1","10161,1",,,,,,,,,,"120,M,+0264,1",,"99999,9,10107,1","9,9,001,1,+999,9",,,,"4,99,0051,1,999","SYN07468816 32980 01908 10184 20136 30107 40161 50001 333 10264 91010 555 91016=",
"68816099999","2022-03-17T00:00:00","4","-33.964806","18.601667","46.02","CAPE TOWN INTERNATIONAL, SF","FM-15","99999","V020","190,1,N,0041,1","99999,9,9,Y","009900,5,9,9","+0180,1","+0140,1","99999,9",,,,,,,,,,,,"10160,1,99999,9",,,,,,"MET051METAR FACT 170000Z 19008KT CAVOK 18/14 Q1016 NOSIG=",
"68816099999","2022-03-17T01:00:00","4","-33.964806","18.601667","46.02","CAPE TOWN INTERNATIONAL, SF","FM-15","99999","V020","180,1,V,0031,1","99999,9,9,Y","009900,5,9,9","+0160,1","+0130,1","99999,9",,,,,,,,,,,,"10150,1,99999,9",,,,,,"MET059METAR FACT 170100Z 18006KT 120V190 CAVOK 16/13 Q1015 NOSIG=",
"68816099999","2022-03-17T02:00:00","4","-33.964806","18.601667","46.02","CAPE TOWN INTERNATIONAL, SF","FM-15","99999","V020","240,1,N,0036,1","99999,9,9,Y","009900,5,9,9","+0170,1","+0130,1","99999,9",,,,,,,,,,,,"10150,1,99999,9",,,,,,"MET051METAR FACT 170200Z 24007KT CAVOK 17/13 Q1015 NOSIG=",
"68816099999","2022-03-17T03:00:00","4","-33.964806","18.601667","46.02","CAPE TOWN INTERNATIONAL, SF","FM-15","99999","V020","230,1,N,0031,1","99999,9,9,Y","009900,5,9,9","+0170,1","+0130,1","99999,9",,,,,,,,,,,,"10150,1,99999,9",,,,,,"MET051METAR FACT 170300Z 23006KT CAVOK 17/13 Q1015 NOSIG=",
"68816099999","2022-03-17T04:00:00","4","-33.964806","18.601667","46.02","CAPE TOWN INTERNATIONAL, SF","FM-15","99999","V020","999,9,V,0015,1","99999,9,9,Y","009900,5,9,9","+0160,1","+0130,1","99999,9",,,,,,,,,,,,"10150,1,99999,9",,,,,,"MET051METAR FACT 170400Z VRB03KT CAVOK 16/13 Q1015 NOSIG=",
"68816099999","2022-03-17T05:00:00","4","-33.964806","18.601667","46.02","CAPE TOWN INTERNATIONAL, SF","FM-15","99999","V020","999,9,V,0010,1","99999,9,9,Y","009900,5,9,9","+0170,1","+0130,1","99999,9",,,,,,,,,,,,"10150,1,99999,9",,,,,,"MET051METAR FACT 170500Z VRB02KT CAVOK 17/13 Q1015 NOSIG=",
"68816099999","2022-03-17T06:00:00","4","-33.964806","18.601667","46.02","CAPE TOWN INTERNATIONAL, SF","FM-12","99999","V020","240,1,N,0015,1","99999,9,9,N","030000,1,9,9","+0191,1","+0129,1","10160,1",,,,,,,,,,"240,N,+0147,1",,"99999,9,10106,1","2,1,006,1,+999,9",,,,"4,99,0026,1,999","SYN08068816 32980 02403 10191 20129 30106 40160 52006 333 20147 91005 555 10264 91016=",
"68816099999","2022-03-17T06:00:00","4","-33.964806","18.601667","46.02","CAPE TOWN INTERNATIONAL, SF","FM-15","99999","V020","999,9,V,0010,1","99999,9,9,Y","009900,5,9,9","+0190,1","+0130,1","99999,9",,,,,,,,,,,,"10160,1,99999,9",,,,,,"MET051METAR FACT 170600Z VRB02KT CAVOK 19/13 Q1016 NOSIG=",
"68816099999","2022-03-17T06:59:00","4","-33.964806","18.601667","46.02","CAPE TOWN INTERNATIONAL, SF","FM-16","99999","V020","999,9,V,0015,1","99999,9,9,Y","009900,5,9,9","+0220,1","+0130,1","99999,9",,,,,,,,,,,,"10160,1,99999,9",,,,,,"MET051SPECI FACT 170659Z VRB03KT CAVOK 22/13 Q1016 NOSIG=",
"68816099999","2022-03-17T07:00:00","4","-33.964806","18.601667","46.02","CAPE TOWN INTERNATIONAL, SF","FM-15","99999","V020","999,9,V,0015,1","99999,9,9,Y","009900,5,9,9","+0220,1","+0130,1","99999,9",,,,,,,,,,,,"10160,1,99999,9",,,,,,"MET051METAR FACT 170700Z VRB03KT CAVOK 22/13 Q1016 NOSIG=",
"68816099999","2022-03-17T07:27:00","4","-33.964806","18.601667","46.02","CAPE TOWN INTERNATIONAL, SF","FM-16","99999","V020","999,9,V,0010,1","99999,9,9,Y","009900,5,9,9","+0250,1","+0120,1","99999,9",,,,,,,,,,,,"10160,1,99999,9",,,,,,"MET051SPECI FACT 170727Z VRB02KT CAVOK 25/12 Q1016 NOSIG=",
"68816099999","2022-03-17T08:00:00","4","-33.964806","18.601667","46.02","CAPE TOWN INTERNATIONAL, SF","FM-15","99999","V020","999,9,V,0010,1","99999,9,9,Y","009900,5,9,9","+0260,1","+0120,1","99999,9",,,,,,,,,,,,"10160,1,99999,9",,,,,,"MET051METAR FACT 170800Z VRB02KT CAVOK 26/12 Q1016 NOSIG=",
"68816099999","2022-03-17T08:28:00","4","-33.964806","18.601667","46.02","CAPE TOWN INTERNATIONAL, SF","FM-16","99999","V020","999,9,V,0015,1","99999,9,9,Y","009900,5,9,9","+0280,1","+0120,1","99999,9",,,,,,,,,,,,"10160,1,99999,9",,,,,,"MET051SPECI FACT 170828Z VRB03KT CAVOK 28/12 Q1016 NOSIG=",
"68816099999","2022-03-17T09:00:00","4","-33.964806","18.601667","46.02","CAPE TOWN INTERNATIONAL, SF","FM-15","99999","V020","999,9,V,0015,1","99999,9,9,Y","009900,5,9,9","+0290,1","+0110,1","99999,9",,,,,,,,,,,,"10160,1,99999,9",,,,,,"MET055METAR COR FACT 170900Z VRB03KT CAVOK 29/11 Q1016 NOSIG=",
"68816099999","2022-03-17T10:00:00","4","-33.964806","18.601667","46.02","CAPE TOWN INTERNATIONAL, SF","FM-15","99999","V020","140,1,V,0026,1","99999,9,9,Y","009900,5,9,9","+0300,1","+0110,1","99999,9",,,,,,,,,,,,"10150,1,99999,9",,,,,,"MET059METAR FACT 171000Z 14005KT 090V230 CAVOK 30/11 Q1015 NOSIG=",
"68816099999","2022-03-17T11:00:00","4","-33.964806","18.601667","46.02","CAPE TOWN INTERNATIONAL, SF","FM-15","99999","V020","190,1,N,0057,1","99999,9,9,Y","009900,5,9,9","+0290,1","+0090,1","99999,9",,,,,,,,,,,,"10150,1,99999,9",,,,,,"MET051METAR FACT 171100Z 19011KT CAVOK 29/09 Q1015 NOSIG=",
"68816099999","2022-03-17T12:00:00","4","-33.964806","18.601667","46.02","CAPE TOWN INTERNATIONAL, SF","FM-12","99999","V020","170,1,N,0057,1","22000,1,9,N","030000,1,9,9","+0299,1","+0094,1","10144,1",,,,,"99,9,+99999,9,00,1",,,"9,AGL   ,+99999,+99999","02,99,1,00,1,99,9,99999,9,99,9,99,9","240,M,+0310,1","240,N,+0186,1","99999,9,10091,1","7,1,004,1,+999,9",,,,"4,99,0072,1,999","SYN08668816 32980 21711 10299 20094 30091 40144 57004 80002 333 10310 20186 91014 555 91014=","Q01    003SCCGA1"
"68816099999","2022-03-17T12:00:00","4","-33.964806","18.601667","46.02","CAPE TOWN INTERNATIONAL, SF","FM-15","99999","V020","170,1,N,0057,1","99999,9,9,Y","009900,5,9,9","+0300,1","+0090,1","99999,9",,,,,,,,,,,,"10140,1,99999,9",,,,,,"MET051METAR FACT 171200Z 17011KT CAVOK 30/09 Q1014 NOSIG=",
"68816099999","2022-03-17T13:00:00","4","-33.964806","18.601667","46.02","CAPE TOWN INTERNATIONAL, SF","FM-15","99999","V020","180,1,V,0046,1","99999,9,9,Y","009900,5,9,9","+0300,1","+0090,1","99999,9",,,,,,,,,,,,"10140,1,99999,9",,,,,,"MET059METAR FACT 171300Z 18009KT 150V210 CAVOK 30/09 Q1014 NOSIG=",
"68816099999","2022-03-17T14:00:00","4","-33.964806","18.601667","46.02","CAPE TOWN INTERNATIONAL, SF","FM-15","99999","V020","180,1,N,0051,1","99999,9,9,Y","009900,5,9,9","+0300,1","+0090,1","99999,9",,,,,,,,,,,,"10140,1,99999,9",,,,,,"MET051METAR FACT 171400Z 18010KT CAVOK 30/09 Q1014 NOSIG=",
"68816099999","2022-03-17T15:00:00","4","-33.964806","18.601667","46.02","CAPE TOWN INTERNATIONAL, SF","FM-15","99999","V020","160,1,N,0057,1","99999,9,9,Y","009900,5,9,9","+0290,1","+0090,1","99999,9",,,,,,,,,,,,"10140,1,99999,9",,,,,,"MET051METAR FACT 171500Z 16011KT CAVOK 29/09 Q1014 NOSIG=",
"68816099999","2022-03-17T16:00:00","4","-33.964806","18.601667","46.02","CAPE TOWN INTERNATIONAL, SF","FM-15","99999","V020","180,1,N,0051,1","99999,9,9,Y","009900,5,9,9","+0280,1","+0090,1","99999,9",,,,,,,,,,,,"10140,1,99999,9",,,,,,"MET051METAR FACT 171600Z 18010KT CAVOK 28/09 Q1014 NOSIG=",
"68816099999","2022-03-17T17:00:00","4","-33.964806","18.601667","46.02","CAPE TOWN INTERNATIONAL, SF","FM-15","99999","V020","200,1,N,0051,1","99999,9,9,Y","009900,5,9,9","+0250,1","+0110,1","99999,9",,,,,,,,,,,,"10150,1,99999,9",,,,,,"MET051METAR FACT 171700Z 20010KT CAVOK 25/11 Q1015 NOSIG=",
"68816099999","2022-03-17T18:00:00","4","-33.964806","18.601667","46.02","CAPE TOWN INTERNATIONAL, SF","FM-12","99999","V020","180,1,N,0031,1","22000,1,9,N","030000,1,9,9","+0200,1","+0152,1","10159,1",,,,,"99,9,+99999,9,00,1",,,"9,AGL   ,+99999,+99999","02,99,1,00,1,99,9,99999,9,99,9,99,9","120,M,+0310,1","120,N,+0200,1","99999,9,10105,1","7,1,004,1,+999,9",,,,"4,99,0041,1,999","SYN08668816 32980 21806 10200 20152 30105 40159 57004 80002 333 10310 20200 91008 555 91015=","Q01    003SCCGA1"
"68816099999","2022-03-17T18:00:00","4","-33.964806","18.601667","46.02","CAPE TOWN INTERNATIONAL, SF","FM-15","99999","V020","180,1,N,0031,1","99999,9,9,Y","009900,5,9,9","+0200,1","+0150,1","99999,9",,,,,,,,,,,,"10160,1,99999,9",,,,,,"MET051METAR FACT 171800Z 18006KT CAVOK 20/15 Q1016 NOSIG=",
"68816099999","2022-03-17T19:00:00","4","-33.964806","18.601667","46.02","CAPE TOWN INTERNATIONAL, SF","FM-15","99999","V020","210,1,N,0026,1","99999,9,9,Y","009900,5,9,9","+0200,1","+0160,1","99999,9",,,,,,,,,,,,"10160,1,99999,9",,,,,,"MET051METAR FACT 171900Z 21005KT CAVOK 20/16 Q1016 NOSIG=",
"68816099999","2022-03-17T20:00:00","4","-33.964806","18.601667","46.02","CAPE TOWN INTERNATIONAL, SF","FM-15","99999","V020","180,1,N,0021,1","99999,9,9,Y","009900,5,9,9","+0170,1","+0150,1","99999,9",,,,,,,,,,,,"10160,1,99999,9",,,,,,"MET051METAR FACT 172000Z 18004KT CAVOK 17/15 Q1016 NOSIG=",
"68816099999","2022-03-17T21:00:00","4","-33.964806","18.601667","46.02","CAPE TOWN INTERNATIONAL, SF","FM-15","99999","V020","150,1,N,0015,1","99999,9,9,Y","009900,5,9,9","+0180,1","+0150,1","99999,9",,,,,,,,,,,,"10160,1,99999,9",,,,,,"MET051METAR FACT 172100Z 15003KT CAVOK 18/15 Q1016 NOSIG=",
"68816099999","2022-03-17T22:00:00","4","-33.964806","18.601667","46.02","CAPE TOWN INTERNATIONAL, SF","FM-15","99999","V020","160,1,N,0021,1","99999,9,9,Y","009900,5,9,9","+0170,1","+0130,1","99999,9",,,,,,,,,,,,"10160,1,99999,9",,,,,,"MET055METAR COR FACT 172200Z 16004KT CAVOK 17/13 Q1016 NOSIG=",
"68816099999","2022-03-17T23:00:00","4","-33.964806","18.601667","46.02","CAPE TOWN INTERNATIONAL, SF","FM-15","99999","V020","999,9,V,0010,1","99999,9,9,Y","009900,5,9,9","+0160,1","+0140,1","99999,9",,,,,,,,,,,,"10150,1,99999,9",,,,,,"MET051METAR FACT 172300Z VRB02KT CAVOK 16/14 Q1015 NOSIG=",
"68816099999","2022-03-18T00:00:00","4","-33.964806","18.601667","46.02","CAPE TOWN INTERNATIONAL, SF","FM-12","99999","V020","110,1,N,0015,1","99999,9,9,N","030000,1,9,9","+0151,1","+0132,1","10154,1",,,,,,,,,,"120,M,+0310,1","120,N,+0151,1","99999,9,10098,1","7,1,009,1,+999,9",,,,"4,99,0026,1,999","SYN08068816 32980 01103 10151 20132 30098 40154 57009 333 10310 20151 91005 555 91015=",
"68816099999","2022-03-18T00:00:00","4","-33.964806","18.601667","46.02","CAPE TOWN INTERNATIONAL, SF","FM-15","99999","V020","110,1,N,0015,1","99999,9,9,Y","009900,5,9,9","+0160,1","+0140,1","99999,9",,,,,,,,,,,,"10150,1,99999,9",,,,,,"MET051METAR FACT 180000Z 11003KT CAVOK 16/14 Q1015 NOSIG=",
"68816099999","2022-03-18T01:00:00","4","-33.964806","18.601667","46.02","CAPE TOWN INTERNATIONAL, SF","FM-15","99999","V020","090,1,N,0005,1","99999,9,9,Y","009900,5,9,9","+0150,1","+0130,1","99999,9",,,,,,,,,,,,"10140,1,99999,9",,,,,,"MET051METAR FACT 180100Z 09001KT CAVOK 15/13 Q1014 NOSIG=",
"68816099999","2022-03-18T02:00:00","4","-33.964806","18.601667","46.02","CAPE TOWN INTERNATIONAL, SF","FM-15","99999","V020","160,1,N,0010,1","99999,9,9,Y","009900,5,9,9","+0160,1","+0130,1","99999,9",,,,,,,,,,,,"10140,1,99999,9",,,,,,"MET051METAR FACT 180200Z 16002KT CAVOK 16/13 Q1014 NOSIG=",
"68816099999","2022-03-18T03:00:00","4","-33.964806","18.601667","46.02","CAPE TOWN INTERNATIONAL, SF","FM-15","99999","V020","999,9,V,0015,1","99999,9,9,Y","009900,5,9,9","+0160,1","+0130,1","99999,9",,,,,,,,,,,,"10140,1,99999,9",,,,,,"MET051METAR FACT 180300Z VRB03KT CAVOK 16/13 Q1014 NOSIG=",
"68816099999","2022-03-18T04:00:00","4","-33.964806","18.601667","46.02","CAPE TOWN INTERNATIONAL, SF","FM-15","99999","V020","190,1,N,0021,1","99999,9,9,Y","009900,5,9,9","+0160,1","+0140,1","99999,9",,,,,,,,,,,,"10150,1,99999,9",,,,,,"MET051METAR FACT 180400Z 19004KT CAVOK 16/14 Q1015 NOSIG=",
"68816099999","2022-03-18T05:00:00","4","-33.964806","18.601667","46.02","CAPE TOWN INTERNATIONAL, SF","FM-15","99999","V020","210,1,N,0036,1","99999,9,9,Y","009900,5,9,9","+0170,1","+0150,1","99999,9",,,,,,,,,,,,"10150,1,99999,9",,,,,,"MET051METAR FACT 180500Z 21007KT CAVOK 17/15 Q1015 NOSIG=",
"68816099999","2022-03-18T06:00:00","4","-33.964806","18.601667","46.02","CAPE TOWN INTERNATIONAL, SF","FM-12","99999","V020","200,1,N,0036,1","99999,9,9,N","030000,1,9,9","+0183,1","+0153,1","10162,1",,,,,,,,,,"240,N,+0138,1",,"99999,9,10107,1","5,1,000,1,+999,9",,,,"4,99,0051,1,999","SYN08068816 32980 02007 10183 20153 30107 40162 55000 333 20138 91010 555 10310 91016=",
"68816099999","2022-03-18T06:00:00","4","-33.964806","18.601667","46.02","CAPE TOWN INTERNATIONAL, SF","FM-15","99999","V020","200,1,N,0041,1","99999,9,9,Y","009900,5,9,9","+0180,1","+0150,1","99999,9",,,,,,,,,,,,"10160,1,99999,9",,,,,,"MET051METAR FACT 180600Z 20008KT CAVOK 18/15 Q1016 NOSIG=",
"68816099999","2022-03-18T07:00:00","4","-33.964806","18.601667","46.02","CAPE TOWN INTERNATIONAL, SF","FM-15","99999","V020","190,1,N,0057,1","99999,9,9,Y","009900,5,9,9","+0200,1","+0160,1","99999,9",,,,,,,,,,,,"10160,1,99999,9",,,,,,"MET051METAR FACT 180700Z 19011KT CAVOK 20/16 Q1016 NOSIG=",
"68816099999","2022-03-18T08:00:00","4","-33.964806","18.601667","46.02","CAPE TOWN INTERNATIONAL, SF","FM-15","99999","V020","210,1,N,0062,1","99999,9,9,Y","009900,5,9,9","+0210,1","+0160,1","99999,9",,,,,,,,,,,,"10160,1,99999,9",,,,,,"MET051METAR FACT 180800Z 21012KT CAVOK 21/16 Q1016 NOSIG=",
"68816099999","2022-03-18T09:00:00","4","-33.964806","18.601667","46.02","CAPE TOWN INTERNATIONAL, SF","FM-12","99999","V020","220,1,N,0062,1","99999,9,9,N","030000,1,9,9","+0214,1","+0162,1","10170,1",,,,,,,,,,,,"99999,9,10115,1","2,1,004,1,+999,9",,,,"4,99,0077,1,999","SYN05868816 43980 02212 10214 20162 30115 40170 52004 333 91015=",
"68816099999","2022-03-18T09:00:00","4","-33.964806","18.601667","46.02","CAPE TOWN INTERNATIONAL, SF","FM-15","99999","V020","220,1,N,0062,1","99999,9,9,Y","009900,5,9,9","+0210,1","+0160,1","99999,9",,,,,,,,,,,,"10170,1,99999,9",,,,,,"MET051METAR FACT 180900Z 22012KT CAVOK 21/16 Q1017 NOSIG=",
"68816099999","2022-03-18T10:00:00","4","-33.964806","18.601667","46.02","CAPE TOWN INTERNATIONAL, SF","FM-15","99999","V020","210,1,N,0062,1","99999,9,9,Y","009900,5,9,9","+0230,1","+0170,1","99999,9",,,,,,,,,,,,"10160,1,99999,9",,,,,,"MET055METAR COR FACT 181000Z 21012KT CAVOK 23/17 Q1016 NOSIG=",
"68816099999","2022-03-18T11:00:00","4","-33.964806","18.601667","46.02","CAPE TOWN INTERNATIONAL, SF","FM-15","99999","V020","210,1,N,0057,1","99999,9,9,Y","009900,5,9,9","+0240,1","+0170,1","99999,9",,,,,,,,,,,,"10160,1,99999,9",,,,,,"MET051METAR FACT 181100Z 21011KT CAVOK 24/17 Q1016 NOSIG=",
"68816099999","2022-03-18T12:00:00","4","-33.964806","18.601667","46.02","CAPE TOWN INTERNATIONAL, SF","FM-12","99999","V020","190,1,N,0103,1","99999,9,9,N","020000,1,9,9","+0236,1","+0172,1","10164,1",,,,,,,,,,"240,N,+0183,1",,"99999,9,10110,1","2,1,004,1,+999,9",,,,"4,99,0103,1,999","SYN07468816 32970 01920 10236 20172 30110 40164 52004 333 20183 91020 555 91016=",
"68816099999","2022-03-18T12:00:00","4","-33.964806","18.601667","46.02","CAPE TOWN INTERNATIONAL, SF","FM-15","99999","V020","190,1,N,0098,1","99999,9,9,Y","009900,5,9,9","+0230,1","+0170,1","99999,9",,,,,,,,,,,,"10160,1,99999,9",,,,,,"MET051METAR FACT 181200Z 19019KT CAVOK 23/17 Q1016 NOSIG=",
"68816099999","2022-03-18T13:00:00","4","-33.964806","18.601667","46.02","CAPE TOWN INTERNATIONAL, SF","FM-15","99999","V020","190,1,N,0098,1","99999,9,9,Y","009900,5,9,9","+0230,1","+0170,1","99999,9",,,,,,,,,,,,"10160,1,99999,9",,,,,,"MET051METAR FACT 181300Z 19019KT CAVOK 23/17 Q1016 NOSIG=",
"68816099999","2022-03-18T14:00:00","4","-33.964806","18.601667","46.02","CAPE TOWN INTERNATIONAL, SF","FM-15","99999","V020","200,1,N,0098,1","99999,9,9,N","009999,1,9,9","+0220,1","+0180,1","99999,9",,,,,"02,1,+00305,1,99,9",,,"9,AGL   ,+99999,+99999","99,99,9,02,1,99,9,00305,1,99,9,99,9",,,"10160,1,99999,9",,,,,,"MET057METAR FACT 181400Z 20019KT 9999 FEW010 22/18 Q1016 NOSIG=",
"68816099999","2022-03-18T15:00:00","4","-33.964806","18.601667","46.02","CAPE TOWN INTERNATIONAL, SF","FM-15","99999","V020","200,1,N,0093,1","99999,9,9,N","009999,1,9,9","+0220,1","+0170,1","99999,9",,,,,"02,1,+00305,1,99,9",,,"9,AGL   ,+99999,+99999","99,99,9,02,1,99,9,00305,1,99,9,99,9",,,"10160,1,99999,9",,,,,,"MET057METAR FACT 181500Z 20018KT 9999 FEW010 22/17 Q1016 NOSIG=",
"68816099999","2022-03-18T16:00:00","4","-33.964806","18.601667","46.02","CAPE TOWN INTERNATIONAL, SF","FM-15","99999","V020","210,1,N,0088,1","99999,9,9,N","009999,1,9,9","+0210,1","+0170,1","99999,9",,,,,"02,1,+00305,1,99,9",,,"9,AGL   ,+99999,+99999","99,99,9,02,1,99,9,00305,1,99,9,99,9",,,"10160,1,99999,9",,,,,,"MET057METAR FACT 181600Z 21017KT 9999 FEW010 21/17 Q1016 NOSIG=",
"68816099999","2022-03-18T17:00:00","4","-33.964806","18.601667","46.02","CAPE TOWN INTERNATIONAL, SF","FM-15","99999","V020","220,1,N,0077,1","99999,9,9,N","009999,1,9,9","+0200,1","+0170,1","99999,9",,,,,"02,1,+00305,1,99,9",,,"9,AGL   ,+99999,+99999","99,99,9,02,1,99,9,00305,1,99,9,99,9",,,"10160,1,99999,9",,,,,,"MET057METAR FACT 181700Z 22015KT 9999 FEW010 20/17 Q1016 NOSIG=",
"68816099999","2022-03-18T18:00:00","4","-33.964806","18.601667","46.02","CAPE TOWN INTERNATIONAL, SF","FM-12","99999","V020","230,1,N,0062,1","99999,9,9,N","040000,1,9,9","+0194,1","+0173,1","10161,1",,,,,,,,,,"120,M,+0245,1","120,N,+0138,1","99999,9,10106,1","2,1,004,1,+999,9",,,,"4,99,0077,1,999","SYN08068816 32982 02312 10194 20173 30106 40161 52004 333 10245 20138 91015 555 91016=",
"68816099999","2022-03-18T18:00:00","4","-33.964806","18.601667","46.02","CAPE TOWN INTERNATIONAL, SF","FM-15","99999","V020","220,1,N,0062,1","99999,9,9,Y","009900,5,9,9","+0190,1","+0170,1","99999,9",,,,,,,,,,,,"10160,1,99999,9",,,,,,"MET051METAR FACT 181800Z 22012KT CAVOK 19/17 Q1016 NOSIG=",
"68816099999","2022-03-18T19:00:00","4","-33.964806","18.601667","46.02","CAPE TOWN INTERNATIONAL, SF","FM-15","99999","V020","230,1,N,0067,1","99999,9,9,Y","009900,5,9,9","+0190,1","+0170,1","99999,9",,,,,,,,,,,,"10160,1,99999,9",,,,,,"MET051METAR FACT 181900Z 23013KT CAVOK 19/17 Q1016 NOSIG=",
"68816099999","2022-03-18T20:00:00","4","-33.964806","18.601667","46.02","CAPE TOWN INTERNATIONAL, SF","FM-15","99999","V020","230,1,N,0072,1","99999,9,9,Y","009900,5,9,9","+0190,1","+0170,1","99999,9",,,,,,,,,,,,"10160,1,99999,9",,,,,,"MET051METAR FACT 182000Z 23014KT CAVOK 19/17 Q1016 NOSIG=",
"68816099999","2022-03-18T21:00:00","4","-33.964806","18.601667","46.02","CAPE TOWN INTERNATIONAL, SF","FM-15","99999","V020","230,1,N,0062,1","99999,9,9,Y","009900,5,9,9","+0190,1","+0160,1","99999,9",,,,,,,,,,,,"10160,1,99999,9",,,,,,"MET051METAR FACT 182100Z 23012KT CAVOK 19/16 Q1016 NOSIG=",
"68816099999","2022-03-18T22:00:00","4","-33.964806","18.601667","46.02","CAPE TOWN INTERNATIONAL, SF","FM-15","99999","V020","220,1,N,0062,1","99999,9,9,Y","009900,5,9,9","+0180,1","+0160,1","99999,9",,,,,,,,,,,,"10160,1,99999,9",,,,,,"MET051METAR FACT 182200Z 22012KT CAVOK 18/16 Q1016 NOSIG=",
"68816099999","2022-03-18T23:00:00","4","-33.964806","18.601667","46.02","CAPE TOWN INTERNATIONAL, SF","FM-15","99999","V020","220,1,N,0067,1","99999,9,9,Y","009900,5,9,9","+0180,1","+0160,1","99999,9",,,,,,,,,,,,"10160,1,99999,9",,,,,,"MET051METAR FACT 182300Z 22013KT CAVOK 18/16 Q1016 NOSIG=",
"68816099999","2022-03-19T00:00:00","4","-33.964806","18.601667","46.02","CAPE TOWN INTERNATIONAL, SF","FM-12","99999","V020","220,1,N,0062,1","99999,9,9,N","020000,1,9,9","+0174,1","+0157,1","10162,1",,,,,,,,,,"120,M,+0192,1","120,N,+0174,1","99999,9,10107,1","2,1,004,1,+999,9",,,,"4,99,0077,1,999","SYN08068816 32970 02212 10174 20157 30107 40162 52004 333 10192 20174 91015 555 91016=",
"68816099999","2022-03-19T00:00:00","4","-33.964806","18.601667","46.02","CAPE TOWN INTERNATIONAL, SF","FM-15","99999","V020","220,1,N,0062,1","99999,9,9,Y","009900,5,9,9","+0170,1","+0160,1","99999,9",,,,,,,,,,,,"10160,1,99999,9",,,,,,"MET051METAR FACT 190000Z 22012KT CAVOK 17/16 Q1016 NOSIG=",
"68816099999","2022-03-19T01:00:00","4","-33.964806","18.601667","46.02","CAPE TOWN INTERNATIONAL, SF","FM-15","99999","V020","220,1,N,0062,1","99999,9,9,Y","009900,5,9,9","+0180,1","+0160,1","99999,9",,,,,,,,,,,,"10150,1,99999,9",,,,,,"MET051METAR FACT 190100Z 22012KT CAVOK 18/16 Q1015 NOSIG=",
"68816099999","2022-03-19T02:00:00","4","-33.964806","18.601667","46.02","CAPE TOWN INTERNATIONAL, SF","FM-15","99999","V020","230,1,N,0036,1","99999,9,9,Y","009900,5,9,9","+0180,1","+0160,1","99999,9",,,,,,,,,,,,"10160,1,99999,9",,,,,,"MET051METAR FACT 190200Z 23007KT CAVOK 18/16 Q1016 NOSIG=",
"68816099999","2022-03-19T03:00:00","4","-33.964806","18.601667","46.02","CAPE TOWN INTERNATIONAL, SF","FM-15","99999","V020","230,1,N,0051,1","99999,9,9,Y","009900,5,9,9","+0180,1","+0160,1","99999,9",,,,,,,,,,,,"10150,1,99999,9",,,,,,"MET051METAR FACT 190300Z 23010KT CAVOK 18/16 Q1015 NOSIG=",
"68816099999","2022-03-19T04:00:00","4","-33.964806","18.601667","46.02","CAPE TOWN INTERNATIONAL, SF","FM-15","99999","V020","210,1,N,0036,1","99999,9,9,Y","009900,5,9,9","+0180,1","+0150,1","99999,9",,,,,,,,,,,,"10160,1,99999,9",,,,,,"MET051METAR FACT 190400Z 21007KT CAVOK 18/15 Q1016 NOSIG=",
"68816099999","2022-03-19T05:00:00","4","-33.964806","18.601667","46.02","CAPE TOWN INTERNATIONAL, SF","FM-15","99999","V020","230,1,N,0051,1","99999,9,9,Y","009900,5,9,9","+0180,1","+0150,1","99999,9",,,,,,,,,,,,"10170,1,99999,9",,,,,,"MET051METAR FACT 190500Z 23010KT CAVOK 18/15 Q1017 NOSIG=",
"68816099999","2022-03-19T05:58:00","4","-33.964806","18.601667","46.02","CAPE TOWN INTERNATIONAL, SF","FM-16","99999","V020","200,1,N,0036,1","99999,9,9,Y","009900,5,9,9","+0200,1","+0150,1","99999,9",,,,,,,,,,,,"10170,1,99999,9",,,,,,"MET051SPECI FACT 190558Z 20007KT CAVOK 20/15 Q1017 NOSIG=",
"68816099999","2022-03-19T06:00:00","4","-33.964806","18.601667","46.02","CAPE TOWN INTERNATIONAL, SF","FM-12","99999","V020","180,1,N,0036,1","22000,1,9,N","030000,1,9,9","+0205,1","+0149,1","10173,1",,,,,"01,1,+99999,9,01,1",,,"9,AGL   ,+99999,+99999","01,99,1,01,1,99,9,99999,9,99,9,99,9","240,N,+0174,1",,"99999,9,10118,1","2,1,015,1,+999,9",,,,"4,99,0041,1,999","SYN08668816 32980 11807 10205 20149 30118 40173 52015 81009 333 20174 91008 555 10245 91017=",
"68816099999","2022-03-19T06:00:00","4","-33.964806","18.601667","46.02","CAPE TOWN INTERNATIONAL, SF","FM-15","99999","V020","200,1,N,0036,1","99999,9,9,Y","009900,5,9,9","+0200,1","+0150,1","99999,9",,,,,,,,,,,,"10170,1,99999,9",,,,,,"MET051METAR FACT 190600Z 20007KT CAVOK 20/15 Q1017 NOSIG=",
"68816099999","2022-03-19T07:00:00","4","-33.964806","18.601667","46.02","CAPE TOWN INTERNATIONAL, SF","FM-15","99999","V020","150,1,N,0021,1","99999,9,9,Y","009900,5,9,9","+0200,1","+0160,1","99999,9",,,,,,,,,,,,"10170,1,99999,9",,,,,,"MET051METAR FACT 190700Z 15004KT CAVOK 20/16 Q1017 NOSIG=",
"68816099999","2022-03-19T07:14:00","4","-33.964806","18.601667","46.02","CAPE TOWN INTERNATIONAL, SF","FM-16","99999","V020","140,1,N,0031,1","99999,9,9,Y","009900,5,9,9","+0230,1","+0160,1","99999,9",,,,,,,,,,,,"10180,1,99999,9",,,,,,"MET051SPECI FACT 190714Z 14006KT CAVOK 23/16 Q1018 NOSIG=",
"68816099999","2022-03-19T07:55:00","4","-33.964806","18.601667","46.02","CAPE TOWN INTERNATIONAL, SF","FM-16","99999","V020","140,1,N,0046,1","99999,9,9,Y","009900,5,9,9","+0250,1","+0160,1","99999,9",,,,,,,,,,,,"10180,1,99999,9",,,,,,"MET051SPECI FACT 190755Z 14009KT CAVOK 25/16 Q1018 NOSIG=",
"68816099999","2022-03-19T08:00:00","4","-33.964806","18.601667","46.02","CAPE TOWN INTERNATIONAL, SF","FM-15","99999","V020","140,1,N,0046,1","99999,9,9,Y","009900,5,9,9","+0250,1","+0160,1","99999,9",,,,,,,,,,,,"10180,1,99999,9",,,,,,"MET051METAR FACT 190800Z 14009KT CAVOK 25/16 Q1018 NOSIG=",
"68816099999","2022-03-19T08:56:00","4","-33.964806","18.601667","46.02","CAPE TOWN INTERNATIONAL, SF","FM-16","99999","V020","150,1,N,0051,1","99999,9,9,Y","009900,5,9,9","+0280,1","+0150,1","99999,9",,,,,,,,,,,,"10180,1,99999,9",,,,,,"MET051SPECI FACT 190856Z 15010KT CAVOK 28/15 Q1018 NOSIG=",
"68816099999","2022-03-19T09:00:00","4","-33.964806","18.601667","46.02","CAPE TOWN INTERNATIONAL, SF","FM-15","99999","V020","150,1,N,0051,1","99999,9,9,Y","009900,5,9,9","+0280,1","+0150,1","99999,9",,,,,,,,,,,,"10180,1,99999,9",,,,,,"MET051METAR FACT 190900Z 15010KT CAVOK 28/15 Q1018 NOSIG=",
"68816099999","2022-03-19T10:00:00","4","-33.964806","18.601667","46.02","CAPE TOWN INTERNATIONAL, SF","FM-15","99999","V020","180,1,N,0041,1","99999,9,9,Y","009900,5,9,9","+0290,1","+0140,1","99999,9",,,,,,,,,,,,"10180,1,99999,9",,,,,,"MET051METAR FACT 191000Z 18008KT CAVOK 29/14 Q1018 NOSIG=",
"68816099999","2022-03-19T11:00:00","4","-33.964806","18.601667","46.02","CAPE TOWN INTERNATIONAL, SF","FM-15","99999","V020","210,1,N,0051,1","99999,9,9,Y","009900,5,9,9","+0280,1","+0150,1","99999,9",,,,,,,,,,,,"10170,1,99999,9",,,,,,"MET051METAR FACT 191100Z 21010KT CAVOK 28/15 Q1017 NOSIG=",
"68816099999","2022-03-19T12:00:00","4","-33.964806","18.601667","46.02","CAPE TOWN INTERNATIONAL, SF","FM-12","99999","V020","220,1,N,0051,1","99999,9,9,N","030000,1,9,9","+0283,1","+0170,1","10168,1",,,,,,,,,,"240,M,+0297,1","240,N,+0207,1","99999,9,10115,1","7,1,008,1,+999,9",,,,"4,99,0072,1,999","SYN08068816 32980 02210 10283 20170 30115 40168 57008 333 10297 20207 91014 555 91016=",
"68816099999","2022-03-19T12:00:00","4","-33.964806","18.601667","46.02","CAPE TOWN INTERNATIONAL, SF","FM-15","99999","V020","220,1,N,0051,1","99999,9,9,Y","009900,5,9,9","+0280,1","+0170,1","99999,9",,,,,,,,,,,,"10170,1,99999,9",,,,,,"MET051METAR FACT 191200Z 22010KT CAVOK 28/17 Q1017 NOSIG=",
"68816099999","2022-03-19T13:00:00","4","-33.964806","18.601667","46.02","CAPE TOWN INTERNATIONAL, SF","FM-15","99999","V020","240,1,N,0057,1","99999,9,9,Y","009900,5,9,9","+0270,1","+0170,1","99999,9",,,,,,,,,,,,"10160,1,99999,9",,,,,,"MET051METAR FACT 191300Z 24011KT CAVOK 27/17 Q1016 NOSIG=",
"68816099999","2022-03-19T14:00:00","4","-33.964806","18.601667","46.02","CAPE TOWN INTERNATIONAL, SF","FM-15","99999","V020","220,1,N,0072,1","99999,9,9,Y","009900,5,9,9","+0260,1","+0180,1","99999,9",,,,,,,,,,,,"10160,1,99999,9",,,,,,"MET051METAR FACT 191400Z 22014KT CAVOK 26/18 Q1016 NOSIG=",
"68816099999","2022-03-19T15:00:00","4","-33.964806","18.601667","46.02","CAPE TOWN INTERNATIONAL, SF","FM-15","99999","V020","220,1,N,0082,1","99999,9,9,Y","009900,5,9,9","+0250,1","+0180,1","99999,9",,,,,,,,,,,,"10160,1,99999,9",,,,,,"MET051METAR FACT 191500Z 22016KT CAVOK 25/18 Q1016 NOSIG=",
"68816099999","2022-03-19T16:00:00","4","-33.964806","18.601667","46.02","CAPE TOWN INTERNATIONAL, SF","FM-15","99999","V020","220,1,N,0072,1","99999,9,9,N","009999,1,9,9","+0240,1","+0180,1","99999,9",,,,,"02,1,+00610,1,99,9",,,"9,AGL   ,+99999,+99999","99,99,9,02,1,99,9,00610,1,99,9,99,9",,,"10160,1,99999,9",,,,,,"MET057METAR FACT 191600Z 22014KT 9999 FEW020 24/18 Q1016 NOSIG=",
"68816099999","2022-03-19T17:00:00","4","-33.964806","18.601667","46.02","CAPE TOWN INTERNATIONAL, SF","FM-15","99999","V020","240,1,N,0077,1","99999,9,9,N","009999,1,9,9","+0220,1","+0180,1","99999,9",,,,,"02,1,+00610,1,99,9",,,"9,AGL   ,+99999,+99999","99,99,9,02,1,99,9,00610,1,99,9,99,9",,,"10160,1,99999,9",,,,,,"MET057METAR FACT 191700Z 24015KT 9999 FEW020 22/18 Q1016 NOSIG=",
"68816099999","2022-03-19T18:00:00","4","-33.964806","18.601667","46.02","CAPE TOWN INTERNATIONAL, SF","FM-12","99999","V020","240,1,N,0067,1","22000,1,9,N","020000,1,9,9","+0204,1","+0176,1","10169,1",,,,,"01,1,+00800,1,06,1",,,"9,AGL   ,+99999,+99999","01,99,1,01,1,99,9,00800,1,99,9,99,9","120,M,+0297,1","120,N,+0204,1","99999,9,10115,1","2,1,005,1,+999,9",,,,"4,99,0082,1,999","SYN08668816 32570 12413 10204 20176 30115 40169 52005 81500 333 10297 20204 91016 555 91016=",
"68816099999","2022-03-19T18:00:00","4","-33.964806","18.601667","46.02","CAPE TOWN INTERNATIONAL, SF","FM-15","99999","V020","240,1,N,0067,1","99999,9,9,N","009999,1,9,9","+0210,1","+0180,1","99999,9",,,,,"02,1,+00610,1,99,9",,,"9,AGL   ,+99999,+99999","99,99,9,02,1,99,9,00610,1,99,9,99,9",,,"10170,1,99999,9",,,,,,"MET057METAR FACT 191800Z 24013KT 9999 FEW020 21/18 Q1017 NOSIG=",
"68816099999","2022-03-19T19:00:00","4","-33.964806","18.601667","46.02","CAPE TOWN INTERNATIONAL, SF","FM-15","99999","V020","230,1,V,0046,1","99999,9,9,N","009999,1,9,9","+0210,1","+0180,1","99999,9",,,,,"02,1,+00610,1,99,9",,,"9,AGL   ,+99999,+99999","99,99,9,02,1,99,9,00610,1,99,9,99,9",,,"10170,1,99999,9",,,,,,"MET065METAR FACT 191900Z 23009KT 160V260 9999 FEW020 21/18 Q1017 NOSIG=",
"68816099999","2022-03-19T20:00:00","4","-33.964806","18.601667","46.02","CAPE TOWN INTERNATIONAL, SF","FM-15","99999","V020","230,1,V,0036,1","99999,9,9,Y","009900,5,9,9","+0220,1","+0180,1","99999,9",,,,,,,,,,,,"10170,1,99999,9",,,,,,"MET059METAR FACT 192000Z 23007KT 200V260 CAVOK 22/18 Q1017 NOSIG=",
"68816099999","2022-03-19T21:00:00","4","-33.964806","18.601667","46.02","CAPE TOWN INTERNATIONAL, SF","FM-15","99999","V020","190,1,N,0057,1","99999,9,9,Y","009900,5,9,9","+0230,1","+0190,1","99999,9",,,,,,,,,,,,"10170,1,99999,9",,,,,,"MET051METAR FACT 192100Z 19011KT CAVOK 23/19 Q1017 NOSIG=",
"68816099999","2022-03-19T22:00:00","4","-33.964806","18.601667","46.02","CAPE TOWN INTERNATIONAL, SF","FM-15","99999","V020","210,1,N,0062,1","99999,9,9,Y","009900,5,9,9","+0210,1","+0170,1","99999,9",,,,,,,,,,,,"10170,1,99999,9",,,,,,"MET051METAR FACT 192200Z 21012KT CAVOK 21/17 Q1017 NOSIG=",
"68816099999","2022-03-19T23:00:00","4","-33.964806","18.601667","46.02","CAPE TOWN INTERNATIONAL, SF","FM-15","99999","V020","220,1,N,0062,1","99999,9,9,Y","009900,5,9,9","+0200,1","+0170,1","99999,9",,,,,,,,,,,,"10170,1,99999,9",,,,,,"MET051METAR FACT 192300Z 22012KT CAVOK 20/17 Q1017 NOSIG=",
"68816099999","2022-03-20T00:00:00","4","-33.964806","18.601667","46.02","CAPE TOWN INTERNATIONAL, SF","FM-12","99999","V020","230,1,N,0057,1","99999,9,9,N","020000,1,9,9","+0191,1","+0167,1","10176,1",,,,,,,,,,"120,M,+0297,1","120,N,+0191,1","99999,9,10122,1","2,1,003,1,+999,9",,,,"4,99,0062,1,999","SYN08068816 32970 02311 10191 20167 30122 40176 52003 333 10297 20191 91012 555 91017=",
"68816099999","2022-03-20T00:00:00","4","-33.964806","18.601667","46.02","CAPE TOWN INTERNATIONAL, SF","FM-15","99999","V020","220,1,N,0046,1","99999,9,9,Y","009900,5,9,9","+0200,1","+0170,1","99999,9",,,,,,,,,,,,"10170,1,99999,9",,,,,,"MET051METAR FACT 200000Z 22009KT CAVOK 20/17 Q1017 NOSIG=",
"68816099999","2022-03-20T01:00:00","4","-33.964806","18.601667","46.02","CAPE TOWN INTERNATIONAL, SF","FM-15","99999","V020","230,1,N,0057,1","99999,9,9,Y","009900,5,9,9","+0190,1","+0160,1","99999,9",,,,,,,,,,,,"10170,1,99999,9",,,,,,"MET051METAR FACT 200100Z 23011KT CAVOK 19/16 Q1017 NOSIG=",
"68816099999","2022-03-20T02:00:00","4","-33.964806","18.601667","46.02","CAPE TOWN INTERNATIONAL, SF","FM-15","99999","V020","230,1,N,0057,1","99999,9,9,Y","009900,5,9,9","+0180,1","+0170,1","99999,9",,,,,,,,,,,,"10160,1,99999,9",,,,,,"MET051METAR FACT 200200Z 23011KT CAVOK 18/17 Q1016 NOSIG=",
"68816099999","2022-03-20T03:00:00","4","-33.964806","18.601667","46.02","CAPE TOWN INTERNATIONAL, SF","FM-15","99999","V020","230,1,N,0051,1","99999,9,9,Y","009900,5,9,9","+0180,1","+0160,1","99999,9",,,,,,,,,,,,"10160,1,99999,9",,,,,,"MET051METAR FACT 200300Z 23010KT CAVOK 18/16 Q1016 NOSIG=",
"68816099999","2022-03-20T03:24:00","4","-33.964806","18.601667","46.02","CAPE TOWN INTERNATIONAL, SF","FM-16","99999","V020","180,1,N,0062,1","99999,9,9,Y","009900,5,9,9","+0200,1","+0180,1","99999,9",,,,,,,,,,,,"10160,1,99999,9",,,,,,"MET051SPECI FACT 200324Z 18012KT CAVOK 20/18 Q1016 NOSIG=",
"68816099999","2022-03-20T04:00:00","4","-33.964806","18.601667","46.02","CAPE TOWN INTERNATIONAL, SF","FM-15","99999","V020","230,1,V,0057,1","99999,9,9,Y","009900,5,9,9","+0190,1","+0160,1","99999,9",,,,,,,,,,,,"10170,1,99999,9",,,,,,"MET059METAR FACT 200400Z 23011KT 190V250 CAVOK 19/16 Q1017 NOSIG=",
"68816099999","2022-03-20T05:00:00","4","-33.964806","18.601667","46.02","CAPE TOWN INTERNATIONAL, SF","FM-15","99999","V020","210,1,N,0057,1","99999,9,9,Y","009900,5,9,9","+0190,1","+0170,1","99999,9",,,,,,,,,,,,"10170,1,99999,9",,,,,,"MET051METAR FACT 200500Z 21011KT CAVOK 19/17 Q1017 NOSIG=",
"68816099999","2022-03-20T05:47:00","4","-33.964806","18.601667","46.02","CAPE TOWN INTERNATIONAL, SF","FM-16","99999","V020","160,1,N,0072,1","99999,9,9,Y","009900,5,9,9","+0220,1","+0180,1","99999,9",,,,,,,,,,,,"10170,1,99999,9",,,,,,"MET051SPECI FACT 200547Z 16014KT CAVOK 22/18 Q1017 NOSIG=",
"68816099999","2022-03-20T06:00:00","4","-33.964806","18.601667","46.02","CAPE TOWN INTERNATIONAL, SF","FM-12","99999","V020","200,1,N,0067,1","99999,9,9,N","024000,1,9,9","+0218,1","+0170,1","10175,1",,,,,,,,,,"240,N,+0176,1",,"99999,9,10121,1","7,1,011,1,+999,9",,,,"4,99,0077,1,999","SYN08068816 32974 02013 10218 20170 30121 40175 57011 333 20176 91015 555 10297 91017=",
"68816099999","2022-03-20T06:00:00","4","-33.964806","18.601667","46.02","CAPE TOWN INTERNATIONAL, SF","FM-15","99999","V020","170,1,V,0077,1","99999,9,9,Y","009900,5,9,9","+0220,1","+0170,1","99999,9",,,,,,,,,,,,"10170,1,99999,9",,,,,,"MET059METAR FACT 200600Z 17015KT 140V200 CAVOK 22/17 Q1017 NOSIG=",
"68816099999","2022-03-20T07:00:00","4","-33.964806","18.601667","46.02","CAPE TOWN INTERNATIONAL, SF","FM-15","99999","V020","230,1,N,0051,1","99999,9,9,Y","009900,5,9,9","+0210,1","+0170,1","99999,9",,,,,,,,,,,,"10170,1,99999,9",,,,,,"MET051METAR FACT 200700Z 23010KT CAVOK 21/17 Q1017 NOSIG=",
"68816099999","2022-03-20T07:23:00","4","-33.964806","18.601667","46.02","CAPE TOWN INTERNATIONAL, SF","FM-16","99999","V020","180,1,V,0062,1","99999,9,9,Y","009900,5,9,9","+0240,1","+0170,1","99999,9",,,,,,,,,,,,"10170,1,99999,9",,,,,,"MET059SPECI FACT 200723Z 18012KT 150V230 CAVOK 24/17 Q1017 NOSIG=",
"68816099999","2022-03-20T08:00:00","4","-33.964806","18.601667","46.02","CAPE TOWN INTERNATIONAL, SF","FM-15","99999","V020","200,1,V,0051,1","99999,9,9,Y","009900,5,9,9","+0250,1","+0170,1","99999,9",,,,,,,,,,,,"10180,1,99999,9",,,,,,"MET059METAR FACT 200800Z 20010KT 170V230 CAVOK 25/17 Q1018 NOSIG=",
"68816099999","2022-03-20T09:00:00","4","-33.964806","18.601667","46.02","CAPE TOWN INTERNATIONAL, SF","FM-15","99999","V020","220,1,N,0051,1","99999,9,9,Y","009900,5,9,9","+0260,1","+0170,1","99999,9",,,,,,,,,,,,"10180,1,99999,9",,,,,,"MET051METAR FACT 200900Z 22010KT CAVOK 26/17 Q1018 NOSIG=",
"68816099999","2022-03-20T09:27:00","4","-33.964806","18.601667","46.02","CAPE TOWN INTERNATIONAL, SF","FM-16","99999","V020","190,1,N,0062,1","99999,9,9,Y","009900,5,9,9","+0280,1","+0170,1","99999,9",,,,,,,,,,,,"10170,1,99999,9",,,,,,"MET051SPECI FACT 200927Z 19012KT CAVOK 28/17 Q1017 NOSIG=",
"68816099999","2022-03-20T10:00:00","4","-33.964806","18.601667","46.02","CAPE TOWN INTERNATIONAL, SF","FM-15","99999","V020","220,1,N,0057,1","99999,9,9,Y","009900,5,9,9","+0270,1","+0170,1","99999,9",,,,,,,,,,,,"10170,1,99999,9",,,,,,"MET051METAR FACT 201000Z 22011KT CAVOK 27/17 Q1017 NOSIG=",
"68816099999","2022-03-20T11:00:00","4","-33.964806","18.601667","46.02","CAPE TOWN INTERNATIONAL, SF","FM-15","99999","V020","220,1,N,0062,1","99999,9,9,Y","009900,5,9,9","+0260,1","+0170,1","99999,9",,,,,,,,,,,,"10170,1,99999,9",,,,,,"MET051METAR FACT 201100Z 22012KT CAVOK 26/17 Q1017 NOSIG=",
"68816099999","2022-03-20T12:00:00","4","-33.964806","18.601667","46.02","CAPE TOWN INTERNATIONAL, SF","FM-12","99999","V020","220,1,N,0067,1","99999,9,9,N","040000,1,9,9","+0267,1","+0176,1","10165,1",,,,,,,,,,"240,M,+0282,1","240,N,+0218,1","99999,9,10112,1","7,1,008,1,+999,9",,,,"4,99,0088,1,999","SYN08068816 32982 02213 10267 20176 30112 40165 57008 333 10282 20218 91017 555 91016=",
"68816099999","2022-03-20T12:00:00","4","-33.964806","18.601667","46.02","CAPE TOWN INTERNATIONAL, SF","FM-15","99999","V020","220,1,N,0062,1","99999,9,9,Y","009900,5,9,9","+0260,1","+0170,1","99999,9",,,,,,,,,,,,"10160,1,99999,9",,,,,,"MET051METAR FACT 201200Z 22012KT CAVOK 26/17 Q1016 NOSIG=",
"68816099999","2022-03-20T13:00:00","4","-33.964806","18.601667","46.02","CAPE TOWN INTERNATIONAL, SF","FM-15","99999","V020","220,1,N,0072,1","99999,9,9,Y","009900,5,9,9","+0260,1","+0170,1","99999,9",,,,,,,,,,,,"10160,1,99999,9",,,,,,"MET051METAR FACT 201300Z 22014KT CAVOK 26/17 Q1016 NOSIG=",
"68816099999","2022-03-20T14:00:00","4","-33.964806","18.601667","46.02","CAPE TOWN INTERNATIONAL, SF","FM-15","99999","V020","230,1,N,0067,1","99999,9,9,Y","009900,5,9,9","+0240,1","+0170,1","99999,9",,,,,,,,,,,,"10150,1,99999,9",,,,,,"MET051METAR FACT 201400Z 23013KT CAVOK 24/17 Q1015 NOSIG=",
"68816099999","2022-03-20T15:00:00","4","-33.964806","18.601667","46.02","CAPE TOWN INTERNATIONAL, SF","FM-15","99999","V020","220,1,N,0067,1","99999,9,9,Y","009900,5,9,9","+0240,1","+0170,1","99999,9",,,,,,,,,,,,"10150,1,99999,9",,,,,,"MET051METAR FACT 201500Z 22013KT CAVOK 24/17 Q1015 NOSIG=",
"68816099999","2022-03-20T16:00:00","4","-33.964806","18.601667","46.02","CAPE TOWN INTERNATIONAL, SF","FM-15","99999","V020","230,1,N,0077,1","99999,9,9,Y","009900,5,9,9","+0210,1","+0160,1","99999,9",,,,,,,,,,,,"10150,1,99999,9",,,,,,"MET051METAR FACT 201600Z 23015KT CAVOK 21/16 Q1015 NOSIG=",
"68816099999","2022-03-20T17:00:00","4","-33.964806","18.601667","46.02","CAPE TOWN INTERNATIONAL, SF","FM-15","99999","V020","230,1,N,0072,1","99999,9,9,Y","009900,5,9,9","+0200,1","+0160,1","99999,9",,,,,,,,,,,,"10150,1,99999,9",,,,,,"MET051METAR FACT 201700Z 23014KT CAVOK 20/16 Q1015 NOSIG=",
"68816099999","2022-03-20T18:00:00","4","-33.964806","18.601667","46.02","CAPE TOWN INTERNATIONAL, SF","FM-12","99999","V020","230,1,N,0077,1","99999,9,9,N","030000,1,9,9","+0187,1","+0160,1","10158,1",,,,,,,,,,"120,M,+0282,1",,"99999,9,10102,1","2,1,004,1,+999,9",,,,"4,99,0098,1,999","SYN07468816 32980 02315 10187 20160 30102 40158 52004 333 10282 91019 555 91015=",
"68816099999","2022-03-20T18:00:00","4","-33.964806","18.601667","46.02","CAPE TOWN INTERNATIONAL, SF","FM-15","99999","V020","230,1,N,0077,1","99999,9,9,Y","009900,5,9,9","+0190,1","+0160,1","99999,9",,,,,,,,,,,,"10150,1,99999,9",,,,,,"MET051METAR FACT 201800Z 23015KT CAVOK 19/16 Q1015 NOSIG=",
"68816099999","2022-03-20T19:00:00","4","-33.964806","18.601667","46.02","CAPE TOWN INTERNATIONAL, SF","FM-15","99999","V020","230,1,N,0077,1","99999,9,9,Y","009900,5,9,9","+0180,1","+0160,1","99999,9",,,,,,,,,,,,"10150,1,99999,9",,,,,,"MET051METAR FACT 201900Z 23015KT CAVOK 18/16 Q1015 NOSIG=",
"68816099999","2022-03-20T20:00:00","4","-33.964806","18.601667","46.02","CAPE TOWN INTERNATIONAL, SF","FM-15","99999","V020","230,1,N,0062,1","99999,9,9,Y","009900,5,9,9","+0190,1","+0160,1","99999,9",,,,,,,,,,,,"10160,1,99999,9",,,,,,"MET051METAR FACT 202000Z 23012KT CAVOK 19/16 Q1016 NOSIG=",
"68816099999","2022-03-20T21:00:00","4","-33.964806","18.601667","46.02","CAPE TOWN INTERNATIONAL, SF","FM-15","99999","V020","230,1,N,0057,1","99999,9,9,Y","009900,5,9,9","+0180,1","+0160,1","99999,9",,,,,,,,,,,,"10160,1,99999,9",,,,,,"MET051METAR FACT 202100Z 23011KT CAVOK 18/16 Q1016 NOSIG=",
"68816099999","2022-03-20T22:00:00","4","-33.964806","18.601667","46.02","CAPE TOWN INTERNATIONAL, SF","FM-15","99999","V020","230,1,N,0051,1","99999,9,9,Y","009900,5,9,9","+0180,1","+0160,1","99999,9",,,,,,,,,,,,"10160,1,99999,9",,,,,,"MET051METAR FACT 202200Z 23010KT CAVOK 18/16 Q1016 NOSIG=",
"68816099999","2022-03-20T23:00:00","4","-33.964806","18.601667","46.02","CAPE TOWN INTERNATIONAL, SF","FM-15","99999","V020","220,1,N,0046,1","99999,9,9,Y","009900,5,9,9","+0170,1","+0160,1","99999,9",,,,,,,,,,,,"10160,1,99999,9",,,,,,"MET051METAR FACT 202300Z 22009KT CAVOK 17/16 Q1016 NOSIG=",
"68816099999","2022-03-21T00:00:00","4","-33.964806","18.601667","46.02","CAPE TOWN INTERNATIONAL, SF","FM-12","99999","V020","230,1,N,0046,1","99999,9,9,N","020000,1,9,9","+0171,1","+0156,1","10162,1",,,,,,,,,,,,"99999,9,10108,1","2,1,004,1,+999,9",,,,"4,99,0051,1,999","SYN06868816 32970 02309 10171 20156 30108 40162 52004 333 91010 555 91016=",
"68816099999","2022-03-21T00:00:00","4","-33.964806","18.601667","46.02","CAPE TOWN INTERNATIONAL, SF","FM-15","99999","V020","230,1,N,0041,1","99999,9,9,Y","009900,5,9,9","+0170,1","+0160,1","99999,9",,,,,,,,,,,,"10160,1,99999,9",,,,,,"MET051METAR FACT 210000Z 23008KT CAVOK 17/16 Q1016 NOSIG=",
"68816099999","2022-03-21T01:00:00","4","-33.964806","18.601667","46.02","CAPE TOWN INTERNATIONAL, SF","FM-15","99999","V020","230,1,N,0057,1","99999,9,9,Y","009900,5,9,9","+0180,1","+0160,1","99999,9",,,,,,,,,,,,"10150,1,99999,9",,,,,,"MET051METAR FACT 210100Z 23011KT CAVOK 18/16 Q1015 NOSIG=",
"68816099999","2022-03-21T02:00:00","4","-33.964806","18.601667","46.02","CAPE TOWN INTERNATIONAL, SF","FM-15","99999","V020","220,1,N,0057,1","99999,9,9,Y","009900,5,9,9","+0180,1","+0160,1","99999,9",,,,,,,,,,,,"10150,1,99999,9",,,,,,"MET051METAR FACT 210200Z 22011KT CAVOK 18/16 Q1015 NOSIG=",
"68816099999","2022-03-21T03:00:00","4","-33.964806","18.601667","46.02","CAPE TOWN INTERNATIONAL, SF","FM-15","99999","V020","210,1,N,0041,1","99999,9,9,Y","009900,5,9,9","+0180,1","+0160,1","99999,9",,,,,,,,,,,,"10150,1,99999,9",,,,,,"MET051METAR FACT 210300Z 21008KT CAVOK 18/16 Q1015 NOSIG=",
"68816099999","2022-03-21T04:00:00","4","-33.964806","18.601667","46.02","CAPE TOWN INTERNATIONAL, SF","FM-15","99999","V020","230,1,N,0046,1","99999,9,9,Y","009900,5,9,9","+0170,1","+0150,1","99999,9",,,,,,,,,,,,"10150,1,99999,9",,,,,,"MET051METAR FACT 210400Z 23009KT CAVOK 17/15 Q1015 NOSIG=",
"68816099999","2022-03-21T05:00:00","4","-33.964806","18.601667","46.02","CAPE TOWN INTERNATIONAL, SF","FM-15","99999","V020","230,1,N,0051,1","99999,9,9,Y","009900,5,9,9","+0170,1","+0160,1","99999,9",,,,,,,,,,,,"10150,1,99999,9",,,,,,"MET051METAR FACT 210500Z 23010KT CAVOK 17/16 Q1015 NOSIG=",
"68816099999","2022-03-21T06:00:00","4","-33.964806","18.601667","46.02","CAPE TOWN INTERNATIONAL, SF","FM-12","99999","V020","230,1,N,0036,1","99999,9,9,N","020000,1,9,9","+0181,1","+0160,1","10156,1",,,,,,,,,,"240,N,+0168,1",,"99999,9,10101,1","2,1,005,1,+999,9",,,,"4,99,0051,1,999","SYN08068816 32970 02307 10181 20160 30101 40156 52005 333 20168 91010 555 10283 91015=",
"68816099999","2022-03-21T06:00:00","4","-33.964806","18.601667","46.02","CAPE TOWN INTERNATIONAL, SF","FM-15","99999","V020","220,1,N,0041,1","99999,9,9,Y","009900,5,9,9","+0180,1","+0160,1","99999,9",,,,,,,,,,,,"10150,1,99999,9",,,,,,"MET051METAR FACT 210600Z 22008KT CAVOK 18/16 Q1015 NOSIG=",
"68816099999","2022-03-21T06:56:00","4","-33.964806","18.601667","46.02","CAPE TOWN INTERNATIONAL, SF","FM-16","99999","V020","210,1,N,0031,1","99999,9,9,Y","009900,5,9,9","+0220,1","+0170,1","99999,9",,,,,,,,,,,,"10150,1,99999,9",,,,,,"MET051SPECI FACT 210656Z 21006KT CAVOK 22/17 Q1015 NOSIG=",
"68816099999","2022-03-21T07:00:00","4","-33.964806","18.601667","46.02","CAPE TOWN INTERNATIONAL, SF","FM-15","99999","V020","210,1,N,0031,1","99999,9,9,Y","009900,5,9,9","+0220,1","+0170,1","99999,9",,,,,,,,,,,,"10150,1,99999,9",,,,,,"MET051METAR FACT 210700Z 21006KT CAVOK 22/17 Q1015 NOSIG=",
"68816099999","2022-03-21T08:00:00","4","-33.964806","18.601667","46.02","CAPE TOWN INTERNATIONAL, SF","FM-15","99999","V020","190,1,V,0026,1","99999,9,9,Y","009900,5,9,9","+0240,1","+0170,1","99999,9",,,,,,,,,,,,"10150,1,99999,9",,,,,,"MET059METAR FACT 210800Z 19005KT 160V230 CAVOK 24/17 Q1015 NOSIG=",
"68816099999","2022-03-21T08:28:00","4","-33.964806","18.601667","46.02","CAPE TOWN INTERNATIONAL, SF","FM-16","99999","V020","200,1,V,0026,1","99999,9,9,Y","009900,5,9,9","+0260,1","+0170,1","99999,9",,,,,,,,,,,,"10150,1,99999,9",,,,,,"MET059SPECI FACT 210828Z 20005KT 150V240 CAVOK 26/17 Q1015 NOSIG=",
"68816099999","2022-03-21T09:00:00","4","-33.964806","18.601667","46.02","CAPE TOWN INTERNATIONAL, SF","FM-15","99999","V020","200,1,V,0036,1","99999,9,9,Y","009900,5,9,9","+0260,1","+0180,1","99999,9",,,,,,,,,,,,"10150,1,99999,9",,,,,,"MET059METAR FACT 210900Z 20007KT 180V240 CAVOK 26/18 Q1015 NOSIG=",
"68816099999","2022-03-21T10:00:00","4","-33.964806","18.601667","46.02","CAPE TOWN INTERNATIONAL, SF","FM-15","99999","V020","210,1,N,0051,1","99999,9,9,Y","009900,5,9,9","+0270,1","+0170,1","99999,9",,,,,,,,,,,,"10150,1,99999,9",,,,,,"MET051METAR FACT 211000Z 21010KT CAVOK 27/17 Q1015 NOSIG=",
"68816099999","2022-03-21T11:00:00","4","-33.964806","18.601667","46.02","CAPE TOWN INTERNATIONAL, SF","FM-15","99999","V020","200,1,N,0062,1","99999,9,9,Y","009900,5,9,9","+0250,1","+0160,1","99999,9",,,,,,,,,,,,"10150,1,99999,9",,,,,,"MET051METAR FACT 211100Z 20012KT CAVOK 25/16 Q1015 NOSIG=",
"68816099999","2022-03-21T12:00:00","4","-33.964806","18.601667","46.02","CAPE TOWN INTERNATIONAL, SF","FM-12","99999","V020","210,1,N,0082,1","99999,9,9,N","030000,1,9,9","+0234,1","+0164,1","10150,1",,,,,,,,,,"240,N,+0164,1",,"99999,9,10097,1","2,1,005,1,+999,9",,,,"4,99,0103,1,999","SYN07468816 32980 02116 10234 20164 30097 40150 52005 333 20164 91020 555 91015=",
"68816099999","2022-03-21T12:00:00","4","-33.964806","18.601667","46.02","CAPE TOWN INTERNATIONAL, SF","FM-15","99999","V020","210,1,N,0082,1","99999,9,9,Y","009900,5,9,9","+0240,1","+0160,1","99999,9",,,,,,,,,,,,"10150,1,99999,9",,,,,,"MET051METAR FACT 211200Z 21016KT CAVOK 24/16 Q1015 NOSIG=",
"68816099999","2022-03-21T13:00:00","4","-33.964806","18.601667","46.02","CAPE TOWN INTERNATIONAL, SF","FM-15","99999","V020","190,1,N,0077,1","99999,9,9,Y","009900,5,9,9","+0230,1","+0170,1","99999,9",,,,,,,,,,,,"10150,1,99999,9",,,,,,"MET051METAR FACT 211300Z 19015KT CAVOK 23/17 Q1015 NOSIG=",
"68816099999","2022-03-21T14:00:00","4","-33.964806","18.601667","46.02","CAPE TOWN INTERNATIONAL, SF","FM-15","99999","V020","210,1,N,0088,1","99999,9,9,Y","009900,5,9,9","+0230,1","+0170,1","99999,9",,,,,,,,,,,,"10150,1,99999,9",,,,,,"MET051METAR FACT 211400Z 21017KT CAVOK 23/17 Q1015 NOSIG=",
"68816099999","2022-03-21T15:00:00","4","-33.964806","18.601667","46.02","CAPE TOWN INTERNATIONAL, SF","FM-15","99999","V020","210,1,N,0082,1","99999,9,9,Y","009900,5,9,9","+0220,1","+0160,1","99999,9",,,,,,,,,,,,"10140,1,99999,9",,,,,,"MET051METAR FACT 211500Z 21016KT CAVOK 22/16 Q1014 NOSIG=",
"68816099999","2022-03-21T16:00:00","4","-33.964806","18.601667","46.02","CAPE TOWN INTERNATIONAL, SF","FM-15","99999","V020","210,1,N,0088,1","99999,9,9,Y","009900,5,9,9","+0210,1","+0160,1","99999,9",,,,,,,,,,,,"10140,1,99999,9",,,,,,"MET051METAR FACT 211600Z 21017KT CAVOK 21/16 Q1014 NOSIG=",
"68816099999","2022-03-21T17:00:00","4","-33.964806","18.601667","46.02","CAPE TOWN INTERNATIONAL, SF","FM-15","99999","V020","200,1,N,0093,1","99999,9,9,N","009999,1,9,9","+0200,1","+0160,1","99999,9",,,,,"02,1,+00518,1,99,9",,,"9,AGL   ,+99999,+99999","99,99,9,02,1,99,9,00518,1,99,9,99,9",,,"10140,1,99999,9",,,,,,"MET057METAR FACT 211700Z 20018KT 9999 FEW017 20/16 Q1014 NOSIG=",
"68816099999","2022-03-21T18:00:00","4","-33.964806","18.601667","46.02","CAPE TOWN INTERNATIONAL, SF","FM-12","99999","V020","200,1,N,0072,1","22000,1,9,N","030000,1,9,9","+0206,1","+0163,1","10149,1",,,,,"01,1,+00450,1,07,1",,,"9,AGL   ,+99999,+99999","01,99,1,01,1,99,9,00450,1,99,9,99,9","120,M,+0274,1",,"99999,9,10095,1","3,1,003,1,+999,9",,,,"4,99,0103,1,999","SYN08068816 32480 12014 10206 20163 30095 40149 53003 81600 333 10274 91020 555 91014=",
"68816099999","2022-03-21T18:00:00","4","-33.964806","18.601667","46.02","CAPE TOWN INTERNATIONAL, SF","FM-15","99999","V020","200,1,N,0077,1","99999,9,9,N","009999,1,9,9","+0200,1","+0160,1","99999,9",,,,,"02,1,+00457,1,99,9",,,"9,AGL   ,+99999,+99999","99,99,9,02,1,99,9,00457,1,99,9,99,9",,,"10150,1,99999,9",,,,,,"MET057METAR FACT 211800Z 20015KT 9999 FEW015 20/16 Q1015 NOSIG=",
"68816099999","2022-03-21T19:00:00","4","-33.964806","18.601667","46.02","CAPE TOWN INTERNATIONAL, SF","FM-15","99999","V020","220,1,N,0077,1","99999,9,9,Y","009900,5,9,9","+0190,1","+0160,1","99999,9",,,,,,,,,,,,"10150,1,99999,9",,,,,,"MET051METAR FACT 211900Z 22015KT CAVOK 19/16 Q1015 NOSIG=",
"68816099999","2022-03-21T20:00:00","4","-33.964806","18.601667","46.02","CAPE TOWN INTERNATIONAL, SF","FM-15","99999","V020","210,1,N,0082,1","99999,9,9,Y","009900,5,9,9","+0200,1","+0160,1","99999,9",,,,,,,,,,,,"10150,1,99999,9",,,,,,"MET051METAR FACT 212000Z 21016KT CAVOK 20/16 Q1015 NOSIG=",
"68816099999","2022-03-21T20:59:00","4","-33.964806","18.601667","46.02","CAPE TOWN INTERNATIONAL, SF","FM-16","99999","V020","170,1,N,0088,1","99999,9,9,Y","009900,5,9,9","+0220,1","+0170,1","99999,9",,,,,,,,,,,,"10150,1,99999,9",,,,,,"MET051SPECI FACT 212059Z 17017KT CAVOK 22/17 Q1015 NOSIG=",
"68816099999","2022-03-21T21:00:00","4","-33.964806","18.601667","46.02","CAPE TOWN INTERNATIONAL, SF","FM-15","99999","V020","170,1,N,0088,1","99999,9,9,Y","009900,5,9,9","+0220,1","+0170,1","99999,9",,,,,,,,,,,,"10150,1,99999,9",,,,,,"MET051METAR FACT 212100Z 17017KT CAVOK 22/17 Q1015 NOSIG=",
"68816099999","2022-03-21T22:00:00","4","-33.964806","18.601667","46.02","CAPE TOWN INTERNATIONAL, SF","FM-15","99999","V020","170,1,N,0072,1","99999,9,9,Y","009900,5,9,9","+0210,1","+0170,1","99999,9",,,,,,,,,,,,"10140,1,99999,9",,,,,,"MET051METAR FACT 212200Z 17014KT CAVOK 21/17 Q1014 NOSIG=",
"68816099999","2022-03-21T23:00:00","4","-33.964806","18.601667","46.02","CAPE TOWN INTERNATIONAL, SF","FM-15","99999","V020","210,1,N,0067,1","99999,9,9,Y","009900,5,9,9","+0190,1","+0160,1","99999,9",,,,,,,,,,,,"10140,1,99999,9",,,,,,"MET051METAR FACT 212300Z 21013KT CAVOK 19/16 Q1014 NOSIG=",
"68816099999","2022-03-22T00:00:00","4","-33.964806","18.601667","46.02","CAPE TOWN INTERNATIONAL, SF","FM-12","99999","V020","240,1,N,0067,1","99999,9,9,N","030000,1,9,9","+0175,1","+0154,1","10144,1",,,,,,,,,,"120,M,+0274,1","120,N,+0175,1","99999,9,10089,1","7,1,004,1,+999,9",,,,"4,99,0093,1,999","SYN08068816 32980 02413 10175 20154 30089 40144 57004 333 10274 20175 91018 555 91014=",
"68816099999","2022-03-22T00:00:00","4","-33.964806","18.601667","46.02","CAPE TOWN INTERNATIONAL, SF","FM-15","99999","V020","230,1,N,0062,1","99999,9,9,Y","009900,5,9,9","+0170,1","+0150,1","99999,9",,,,,,,,,,,,"10140,1,99999,9",,,,,,"MET051METAR FACT 220000Z 23012KT CAVOK 17/15 Q1014 NOSIG=",
"68816099999","2022-03-22T01:00:00","4","-33.964806","18.601667","46.02","CAPE TOWN INTERNATIONAL, SF","FM-15","99999","V020","230,1,N,0057,1","99999,9,9,Y","009900,5,9,9","+0170,1","+0150,1","99999,9",,,,,,,,,,,,"10140,1,99999,9",,,,,,"MET051METAR FACT 220100Z 23011KT CAVOK 17/15 Q1014 NOSIG=",
"68816099999","2022-03-22T02:00:00","4","-33.964806","18.601667","46.02","CAPE TOWN INTERNATIONAL, SF","FM-15","99999","V020","240,1,N,0067,1","99999,9,9,Y","009900,5,9,9","+0170,1","+0160,1","99999,9",,,,,,,,,,,,"10140,1,99999,9",,,,,,"MET051METAR FACT 220200Z 24013KT CAVOK 17/16 Q1014 NOSIG=",
"68816099999","2022-03-22T02:58:00","4","-33.964806","18.601667","46.02","CAPE TOWN INTERNATIONAL, SF","FM-16","99999","V020","230,1,N,0077,1","99999,9,9,Y","009900,5,9,9","+0190,1","+0160,1","99999,9",,,,,,,,,,,,"10140,1,99999,9",,,,,,"MET051SPECI FACT 220258Z 23015KT CAVOK 19/16 Q1014 NOSIG=",
"68816099999","2022-03-22T03:00:00","4","-33.964806","18.601667","46.02","CAPE TOWN INTERNATIONAL, SF","FM-15","99999","V020","230,1,N,0077,1","99999,9,9,Y","009900,5,9,9","+0190,1","+0160,1","99999,9",,,,,,,,,,,,"10140,1,99999,9",,,,,,"MET051METAR FACT 220300Z 23015KT CAVOK 19/16 Q1014 NOSIG=",
"68816099999","2022-03-22T03:55:00","4","-33.964806","18.601667","46.02","CAPE TOWN INTERNATIONAL, SF","FM-16","99999","V020","210,1,N,0067,1","99999,9,9,Y","009900,5,9,9","+0200,1","+0160,1","99999,9",,,,,,,,,,,,"10140,1,99999,9",,,,,,"MET051SPECI FACT 220355Z 21013KT CAVOK 20/16 Q1014 NOSIG=",
"68816099999","2022-03-22T04:00:00","4","-33.964806","18.601667","46.02","CAPE TOWN INTERNATIONAL, SF","FM-15","99999","V020","210,1,N,0067,1","99999,9,9,Y","009900,5,9,9","+0200,1","+0160,1","99999,9",,,,,,,,,,,,"10140,1,99999,9",,,,,,"MET051METAR FACT 220400Z 21013KT CAVOK 20/16 Q1014 NOSIG=",
"68816099999","2022-03-22T05:00:00","4","-33.964806","18.601667","46.02","CAPE TOWN INTERNATIONAL, SF","FM-15","99999","V020","180,1,V,0077,1","99999,9,9,Y","009900,5,9,9","+0210,1","+0170,1","99999,9",,,,,,,,,,,,"10140,1,99999,9",,,,,,"MET059METAR FACT 220500Z 18015KT 150V230 CAVOK 21/17 Q1014 NOSIG=",
"68816099999","2022-03-22T06:00:00","4","-33.964806","18.601667","46.02","CAPE TOWN INTERNATIONAL, SF","FM-12","99999","V020","230,1,N,0057,1","22000,1,9,N","030000,1,9,9","+0183,1","+0157,1","10156,1",,,,,"04,1,+99999,9,03,1",,,"9,AGL   ,+99999,+99999","04,99,1,04,1,99,9,99999,9,99,9,99,9","240,N,+0165,1",,"99999,9,10101,1","6,1,001,1,+999,9",,,,"4,99,0103,1,999","SYN08668816 32980 42311 10183 20157 30101 40156 56001 84070 333 20165 91020 555 10274 91015=",
"68816099999","2022-03-22T06:00:00","4","-33.964806","18.601667","46.02","CAPE TOWN INTERNATIONAL, SF","FM-15","99999","V020","220,1,N,0057,1","99999,9,9,Y","009900,5,9,9","+0190,1","+0160,1","99999,9",,,,,,,,,,,,"10150,1,99999,9",,,,,,"MET051METAR FACT 220600Z 22011KT CAVOK 19/16 Q1015 NOSIG=",
"68816099999","2022-03-22T06:15:00","4","-33.964806","18.601667","46.02","CAPE TOWN INTERNATIONAL, SF","FM-16","99999","V020","190,1,N,0082,1","99999,9,9,Y","009900,5,9,9","+0210,1","+0170,1","99999,9",,,,,,,,,,,,"10150,1,99999,9",,,,,,"MET051SPECI FACT 220615Z 19016KT CAVOK 21/17 Q1015 NOSIG=",
"68816099999","2022-03-22T06:24:00","4","-33.964806","18.601667","46.02","CAPE TOWN INTERNATIONAL, SF","FM-16","99999","V020","180,1,V,0093,1","99999,9,9,Y","009900,5,9,9","+0230,1","+0170,1","99999,9",,,,,,,,,,,,"10150,1,99999,9",,,,"0144,1",,"MET062SPECI FACT 220624Z 18018G28KT 160V220 CAVOK 23/17 Q1015 NOSIG=",
"68816099999","2022-03-22T07:00:00","4","-33.964806","18.601667","46.02","CAPE TOWN INTERNATIONAL, SF","FM-15","99999","V020","190,1,N,0082,1","99999,9,9,N","009999,1,9,9","+0230,1","+0160,1","99999,9",,,,,"02,1,+00305,1,99,9",,,"9,AGL   ,+99999,+99999","99,99,9,02,1,99,9,00305,1,99,9,99,9",,,"10150,1,99999,9",,,,,,"MET057METAR FACT 220700Z 19016KT 9999 FEW010 23/16 Q1015 NOSIG=",
"68816099999","2022-03-22T08:00:00","4","-33.964806","18.601667","46.02","CAPE TOWN INTERNATIONAL, SF","FM-15","99999","V020","200,1,N,0072,1","99999,9,9,N","009999,1,9,9","+0230,1","+0160,1","99999,9",,,,,"02,1,+00305,1,99,9",,,"9,AGL   ,+99999,+99999","99,99,9,02,1,99,9,00305,1,99,9,99,9",,,"10160,1,99999,9",,,,,,"MET057METAR FACT 220800Z 20014KT 9999 FEW010 23/16 Q1016 NOSIG=",
"68816099999","2022-03-22T09:00:00","4","-33.964806","18.601667","46.02","CAPE TOWN INTERNATIONAL, SF","FM-15","99999","V020","170,1,N,0103,1","99999,9,9,Y","009900,5,9,9","+0260,1","+0160,1","99999,9",,,,,,,,,,,,"10150,1,99999,9",,,,,,"MET051METAR FACT 220900Z 17020KT CAVOK 26/16 Q1015 NOSIG=",
"68816099999","2022-03-22T09:00:00","4","-33.964806","18.601667","46.02","CAPE TOWN INTERNATIONAL, SF","FM-16","99999","V020","170,1,N,0103,1","99999,9,9,Y","009900,5,9,9","+0260,1","+0160,1","99999,9",,,,,,,,,,,,"10150,1,99999,9",,,,,,"MET051SPECI FACT 220900Z 17020KT CAVOK 26/16 Q1015 NOSIG=",
"68816099999","2022-03-22T09:57:00","4","-33.964806","18.601667","46.02","CAPE TOWN INTERNATIONAL, SF","FM-16","99999","V020","210,1,N,0077,1","99999,9,9,Y","009900,5,9,9","+0270,1","+0160,1","99999,9",,,,,,,,,,,,"10150,1,99999,9",,,,,,"MET051SPECI FACT 220957Z 21015KT CAVOK 27/16 Q1015 NOSIG=",
"68816099999","2022-03-22T10:00:00","4","-33.964806","18.601667","46.02","CAPE TOWN INTERNATIONAL, SF","FM-15","99999","V020","210,1,N,0077,1","99999,9,9,Y","009900,5,9,9","+0270,1","+0160,1","99999,9",,,,,,,,,,,,"10150,1,99999,9",,,,,,"MET051METAR FACT 221000Z 21015KT CAVOK 27/16 Q1015 NOSIG=",
"68816099999","2022-03-22T11:00:00","4","-33.964806","18.601667","46.02","CAPE TOWN INTERNATIONAL, SF","FM-15","99999","V020","200,1,N,0077,1","99999,9,9,Y","009900,5,9,9","+0280,1","+0170,1","99999,9",,,,,,,,,,,,"10140,1,99999,9",,,,,,"MET051METAR FACT 221100Z 20015KT CAVOK 28/17 Q1014 NOSIG=",
"68816099999","2022-03-22T12:00:00","4","-33.964806","18.601667","46.02","CAPE TOWN INTERNATIONAL, SF","FM-12","99999","V020","230,1,N,0072,1","22000,1,9,N","022000,1,9,9","+0258,1","+0165,1","10134,1",,,,,"02,1,+01250,1,06,1",,,"9,AGL   ,+99999,+99999","02,99,1,02,1,99,9,01250,1,99,9,99,9","240,N,+0181,1",,"99999,9,10081,1","9,9,000,1,+999,9",,,,"4,99,0077,1,999","SYN08068816 32672 22314 10258 20165 30081 40134 50000 82500 333 20181 91015 555 91013=",
"68816099999","2022-03-22T12:00:00","4","-33.964806","18.601667","46.02","CAPE TOWN INTERNATIONAL, SF","FM-15","99999","V020","220,1,N,0072,1","99999,9,9,N","009999,1,9,9","+0270,1","+0170,1","99999,9",,,,,"02,1,+01372,1,99,9",,,"9,AGL   ,+99999,+99999","99,99,9,02,1,99,9,01372,1,99,9,99,9",,,"10130,1,99999,9",,,,,,"MET057METAR FACT 221200Z 22014KT 9999 FEW045 27/17 Q1013 NOSIG=",
"68816099999","2022-03-22T13:00:00","4","-33.964806","18.601667","46.02","CAPE TOWN INTERNATIONAL, SF","FM-15","99999","V020","210,1,N,0072,1","99999,9,9,Y","009900,5,9,9","+0260,1","+0170,1","99999,9",,,,,,,,,,,,"10120,1,99999,9",,,,,,"MET051METAR FACT 221300Z 21014KT CAVOK 26/17 Q1012 NOSIG=",
"68816099999","2022-03-22T13:27:00","4","-33.964806","18.601667","46.02","CAPE TOWN INTERNATIONAL, SF","FM-16","99999","V020","210,1,N,0072,1","99999,9,9,Y","009900,5,9,9","+0280,1","+0170,1","99999,9",,,,,,,,,,,,"10120,1,99999,9",,,,,,"MET051SPECI FACT 221327Z 21014KT CAVOK 28/17 Q1012 NOSIG=",
"68816099999","2022-03-22T14:00:00","4","-33.964806","18.601667","46.02","CAPE TOWN INTERNATIONAL, SF","FM-15","99999","V020","230,1,N,0072,1","99999,9,9,Y","009900,5,9,9","+0270,1","+0170,1","99999,9",,,,,,,,,,,,"10110,1,99999,9",,,,,,"MET051METAR FACT 221400Z 23014KT CAVOK 27/17 Q1011 NOSIG=",
"68816099999","2022-03-22T15:00:00","4","-33.964806","18.601667","46.02","CAPE TOWN INTERNATIONAL, SF","FM-15","99999","V020","230,1,N,0072,1","99999,9,9,Y","009900,5,9,9","+0240,1","+0160,1","99999,9",,,,,,,,,,,,"10110,1,99999,9",,,,,,"MET051METAR FACT 221500Z 23014KT CAVOK 24/16 Q1011 NOSIG=",
"68816099999","2022-03-22T16:00:00","4","-33.964806","18.601667","46.02","CAPE TOWN INTERNATIONAL, SF","FM-15","99999","V020","240,1,N,0082,1","99999,9,9,Y","009900,5,9,9","+0210,1","+0160,1","99999,9",,,,,,,,,,,,"10110,1,99999,9",,,,,,"MET051METAR FACT 221600Z 24016KT CAVOK 21/16 Q1011 NOSIG=",
"68816099999","2022-03-22T17:00:00","4","-33.964806","18.601667","46.02","CAPE TOWN INTERNATIONAL, SF","FM-15","99999","V020","240,1,N,0077,1","99999,9,9,Y","009900,5,9,9","+0200,1","+0160,1","99999,9",,,,,,,,,,,,"10110,1,99999,9",,,,,,"MET051METAR FACT 221700Z 24015KT CAVOK 20/16 Q1011 NOSIG=",
"68816099999","2022-03-22T18:00:00","4","-33.964806","18.601667","46.02","CAPE TOWN INTERNATIONAL, SF","FM-12","99999","V020","240,1,N,0051,1","22000,1,9,N","020000,1,9,9","+0187,1","+0154,1","10120,1",,,,,"99,9,+99999,9,00,1",,,"9,AGL   ,+99999,+99999","02,99,1,00,1,99,9,99999,9,99,9,99,9","120,M,+0300,1","120,N,+0165,1","99999,9,10066,1","9,9,000,1,+999,9",,,,"4,99,0067,1,999","SYN07668816 32970 22410 10187 20154 30066 40120 50000 80002 333 10300 20165 91013=","Q01    003SCCGA1"
"68816099999","2022-03-22T18:00:00","4","-33.964806","18.601667","46.02","CAPE TOWN INTERNATIONAL, SF","FM-15","99999","V020","220,1,N,0067,1","99999,9,9,Y","009900,5,9,9","+0190,1","+0160,1","99999,9",,,,,,,,,,,,"10110,1,99999,9",,,,,,"MET051METAR FACT 221800Z 22013KT CAVOK 19/16 Q1011 NOSIG=",
"68816099999","2022-03-22T19:00:00","4","-33.964806","18.601667","46.02","CAPE TOWN INTERNATIONAL, SF","FM-15","99999","V020","260,1,N,0036,1","99999,9,9,Y","009900,5,9,9","+0190,1","+0160,1","99999,9",,,,,,,,,,,,"10130,1,99999,9",,,,,,"MET051METAR FACT 221900Z 26007KT CAVOK 19/16 Q1013 NOSIG=",
"68816099999","2022-03-22T20:00:00","4","-33.964806","18.601667","46.02","CAPE TOWN INTERNATIONAL, SF","FM-15","99999","V020","190,1,V,0031,1","99999,9,9,Y","009900,5,9,9","+0190,1","+0160,1","99999,9",,,,,,,,,,,,"10130,1,99999,9",,,,,,"MET059METAR FACT 222000Z 19006KT 130V220 CAVOK 19/16 Q1013 NOSIG=",
"68816099999","2022-03-22T21:00:00","4","-33.964806","18.601667","46.02","CAPE TOWN INTERNATIONAL, SF","FM-15","99999","V020","160,1,N,0036,1","99999,9,9,Y","009900,5,9,9","+0180,1","+0150,1","99999,9",,,,,,,,,,,,"10130,1,99999,9",,,,,,"MET051METAR FACT 222100Z 16007KT CAVOK 18/15 Q1013 NOSIG=",
"68816099999","2022-03-22T22:00:00","4","-33.964806","18.601667","46.02","CAPE TOWN INTERNATIONAL, SF","FM-15","99999","V020","220,1,N,0041,1","99999,9,9,Y","009900,5,9,9","+0190,1","+0150,1","99999,9",,,,,,,,,,,,"10130,1,99999,9",,,,,,"MET051METAR FACT 222200Z 22008KT CAVOK 19/15 Q1013 NOSIG=",
"68816099999","2022-03-22T23:00:00","4","-33.964806","18.601667","46.02","CAPE TOWN INTERNATIONAL, SF","FM-15","99999","V020","230,1,N,0057,1","99999,9,9,Y","009900,5,9,9","+0180,1","+0160,1","99999,9",,,,,,,,,,,,"10130,1,99999,9",,,,,,"MET051METAR FACT 222300Z 23011KT CAVOK 18/16 Q1013 NOSIG=",
"68816099999","2022-03-23T00:00:00","4","-33.964806","18.601667","46.02","CAPE TOWN INTERNATIONAL, SF","FM-12","99999","V020","230,1,N,0077,1","22000,1,9,N","030000,1,9,9","+0180,1","+0156,1","10128,1",,,,,"99,9,+99999,9,02,1",,,"9,AGL   ,+99999,+99999","04,99,1,00,1,99,9,99999,9,99,9,99,9","120,M,+0300,1",,"99999,9,10074,1","9,9,000,1,+999,9",,,,"4,99,0051,1,999","SYN08068816 32980 42315 10180 20156 30074 40128 50000 80008 333 10300 91010 555 91012=","Q01    003SCCGA1"
"68816099999","2022-03-23T00:00:00","4","-33.964806","18.601667","46.02","CAPE TOWN INTERNATIONAL, SF","FM-15","99999","V020","230,1,N,0067,1","99999,9,9,Y","009900,5,9,9","+0180,1","+0160,1","99999,9",,,,,,,,,,,,"10120,1,99999,9",,,,,,"MET051METAR FACT 230000Z 23013KT CAVOK 18/16 Q1012 NOSIG=",
"68816099999","2022-03-23T01:00:00","4","-33.964806","18.601667","46.02","CAPE TOWN INTERNATIONAL, SF","FM-15","99999","V020","210,1,N,0057,1","99999,9,9,Y","009900,5,9,9","+0190,1","+0160,1","99999,9",,,,,,,,,,,,"10120,1,99999,9",,,,,,"MET051METAR FACT 230100Z 21011KT CAVOK 19/16 Q1012 NOSIG=",
"68816099999","2022-03-23T01:57:00","4","-33.964806","18.601667","46.02","CAPE TOWN INTERNATIONAL, SF","FM-16","99999","V020","200,1,N,0046,1","99999,9,9,Y","009900,5,9,9","+0220,1","+0180,1","99999,9",,,,,,,,,,,,"10120,1,99999,9",,,,,,"MET051SPECI FACT 230157Z 20009KT CAVOK 22/18 Q1012 NOSIG=",
"68816099999","2022-03-23T02:00:00","4","-33.964806","18.601667","46.02","CAPE TOWN INTERNATIONAL, SF","FM-15","99999","V020","200,1,N,0046,1","99999,9,9,Y","009900,5,9,9","+0220,1","+0180,1","99999,9",,,,,,,,,,,,"10120,1,99999,9",,,,,,"MET051METAR FACT 230200Z 20009KT CAVOK 22/18 Q1012 NOSIG=",
"68816099999","2022-03-23T02:28:00","4","-33.964806","18.601667","46.02","CAPE TOWN INTERNATIONAL, SF","FM-16","99999","V020","230,1,N,0046,1","99999,9,9,N","009999,1,9,9","+0200,1","+0170,1","99999,9",,,,,"02,1,+01829,1,09,1",,,"9,AGL   ,+99999,+99999","99,99,9,02,1,99,9,01829,1,99,9,99,9",,,"10120,1,99999,9",,"17,1",,,,"MET062SPECI FACT 230228Z 23009KT 9999 TS FEW060CB 20/17 Q1012 NOSIG=",
"68816099999","2022-03-23T02:29:00","4","-33.964806","18.601667","46.02","CAPE TOWN INTERNATIONAL, SF","FM-16","99999","V020","230,1,N,0046,1","99999,9,9,N","009999,1,9,9","+0200,1","+0170,1","99999,9",,,,,"02,1,+01829,1,09,1",,,"9,AGL   ,+99999,+99999","99,99,9,02,1,99,9,01829,1,99,9,99,9",,,"10120,1,99999,9",,"17,1",,,,"MET062SPECI FACT 230229Z 23009KT 9999 TS FEW060CB 20/17 Q1012 NOSIG=",
"68816099999","2022-03-23T03:00:00","4","-33.964806","18.601667","46.02","CAPE TOWN INTERNATIONAL, SF","FM-15","99999","V020","220,1,N,0057,1","99999,9,9,N","009999,1,9,9","+0190,1","+0160,1","99999,9",,,,,"02,1,+01829,1,09,1",,,"9,AGL   ,+99999,+99999","99,99,9,02,1,99,9,01829,1,99,9,99,9",,,"10120,1,99999,9",,"17,1",,,,"MET062METAR FACT 230300Z 22011KT 9999 TS FEW060CB 19/16 Q1012 NOSIG=",
"68816099999","2022-03-23T03:00:00","4","-33.964806","18.601667","46.02","CAPE TOWN INTERNATIONAL, SF","FM-16","99999","V020","220,1,N,0057,1","99999,9,9,N","009999,1,9,9","+0190,1","+0160,1","99999,9",,,,,"02,1,+01829,1,09,1",,,"9,AGL   ,+99999,+99999","99,99,9,02,1,99,9,01829,1,99,9,99,9",,,"10120,1,99999,9",,"17,1",,,,"MET062SPECI FACT 230300Z 22011KT 9999 TS FEW060CB 19/16 Q1012 NOSIG=",
"68816099999","2022-03-23T03:27:00","4","-33.964806","18.601667","46.02","CAPE TOWN INTERNATIONAL, SF","FM-16","99999","V020","210,1,N,0046,1","99999,9,9,N","009999,1,9,9","+0190,1","+0160,1","99999,9",,,,,"02,1,+01829,1,09,1",,,"9,AGL   ,+99999,+99999","99,99,9,02,1,99,9,01829,1,99,9,99,9",,,"10120,1,99999,9",,"17,1",,,,"MET062SPECI FACT 230327Z 21009KT 9999 TS FEW060CB 19/16 Q1012 NOSIG=",
"68816099999","2022-03-23T03:42:00","4","-33.964806","18.601667","46.02","CAPE TOWN INTERNATIONAL, SF","FM-16","99999","V020","210,1,N,0041,1","99999,9,9,N","009999,1,9,9","+0200,1","+0170,1","99999,9",,,,,"02,1,+01829,1,08,1",,,"9,AGL   ,+99999,+99999","99,99,9,02,1,99,9,01829,1,99,9,99,9",,,"10120,1,99999,9",,,,,,"MET065SPECI FACT 230342Z 21008KT 9999 FEW060TCU 20/17 Q1012 RETS NOSIG=",
"68816099999","2022-03-23T04:00:00","4","-33.964806","18.601667","46.02","CAPE TOWN INTERNATIONAL, SF","FM-15","99999","V020","220,1,N,0046,1","99999,9,9,N","009999,1,9,9","+0190,1","+0160,1","99999,9",,,,,"02,1,+01829,1,08,1",,,"9,AGL   ,+99999,+99999","99,99,9,02,1,99,9,01829,1,99,9,99,9",,,"10120,1,99999,9",,,,,,"MET060METAR FACT 230400Z 22009KT 9999 FEW060TCU 19/16 Q1012 NOSIG=",
"68816099999","2022-03-23T05:00:00","4","-33.964806","18.601667","46.02","CAPE TOWN INTERNATIONAL, SF","FM-15","99999","V020","240,1,V,0021,1","02438,1,C,N","009999,1,9,9","+0190,1","+0170,1","99999,9",,,,,"02,1,+02134,1,08,1","04,1,+02438,1,99,9",,"9,AGL   ,+99999,+99999","99,99,9,02,1,99,9,02134,1,99,9,99,9",,,"10120,1,99999,9",,,,,,"MET075METAR FACT 230500Z 24004KT 210V280 9999 FEW070TCU SCT080 19/17 Q1012 NOSIG=",
"68816099999","2022-03-23T06:00:00","4","-33.964806","18.601667","46.02","CAPE TOWN INTERNATIONAL, SF","FM-12","99999","V020","160,1,N,0036,1","99999,9,9,N","030000,1,9,9","+0206,1","+0176,1","10127,1","24,0000,9,1","9,1,02,1","6,1,02,1",,"01,1,+02250,1,08,1","99,9,+99999,9,03,1","99,9,+99999,9,00,1","9,AGL   ,+99999,+99999","06,99,1,01,1,99,9,02250,1,99,9,99,9","240,N,+0176,1",,"99999,9,10073,1","3,1,003,1,+999,9","03,1",,,"4,99,0051,1,999","SYN10468816 11880 61607 10206 20176 30073 40127 53003 69904 70396 81292 333 20176 91010 555 10300 20000 91012=","Q01  00002PRCP24"
"68816099999","2022-03-23T06:00:00","4","-33.964806","18.601667","46.02","CAPE TOWN INTERNATIONAL, SF","FM-15","99999","V020","160,1,V,0036,1","99999,9,9,N","009999,1,9,9","+0200,1","+0180,1","99999,9",,,,,"02,1,+02134,1,08,1",,,"9,AGL   ,+99999,+99999","99,99,9,02,1,99,9,02134,1,99,9,99,9",,,"10120,1,99999,9",,,,,,"MET068METAR FACT 230600Z 16007KT 150V210 9999 FEW070TCU 20/18 Q1012 NOSIG=",
"68816099999","2022-03-23T07:00:00","4","-33.964806","18.601667","46.02","CAPE TOWN INTERNATIONAL, SF","FM-15","99999","V020","210,1,N,0036,1","99999,9,9,Y","009900,5,9,9","+0200,1","+0160,1","99999,9",,,,,,,,,,,,"10130,1,99999,9",,,,,,"MET051METAR FACT 230700Z 21007KT CAVOK 20/16 Q1013 NOSIG=",
"68816099999","2022-03-23T08:00:00","4","-33.964806","18.601667","46.02","CAPE TOWN INTERNATIONAL, SF","FM-15","99999","V020","999,9,V,0010,1","99999,9,9,Y","009900,5,9,9","+0210,1","+0170,1","99999,9",,,,,,,,,,,,"10130,1,99999,9",,,,,,"MET051METAR FACT 230800Z VRB02KT CAVOK 21/17 Q1013 NOSIG=",
"68816099999","2022-03-23T09:00:00","4","-33.964806","18.601667","46.02","CAPE TOWN INTERNATIONAL, SF","FM-15","99999","V020","220,1,V,0046,1","99999,9,9,Y","009900,5,9,9","+0230,1","+0170,1","99999,9",,,,,,,,,,,,"10130,1,99999,9",,,,,,"MET059METAR FACT 230900Z 22009KT 150V250 CAVOK 23/17 Q1013 NOSIG=",
"68816099999","2022-03-23T10:00:00","4","-33.964806","18.601667","46.02","CAPE TOWN INTERNATIONAL, SF","FM-15","99999","V020","210,1,N,0046,1","99999,9,9,Y","009900,5,9,9","+0260,1","+0170,1","99999,9",,,,,,,,,,,,"10120,1,99999,9",,,,,,"MET051METAR FACT 231000Z 21009KT CAVOK 26/17 Q1012 NOSIG=",
"68816099999","2022-03-23T10:06:00","4","-33.964806","18.601667","46.02","CAPE TOWN INTERNATIONAL, SF","FM-16","99999","V020","210,1,N,0046,1","99999,9,9,Y","009900,5,9,9","+0260,1","+0170,1","99999,9",,,,,,,,,,,,"10120,1,99999,9",,,,,,"MET051SPECI FACT 231006Z 21009KT CAVOK 26/17 Q1012 NOSIG=",
"68816099999","2022-03-23T10:59:00","4","-33.964806","18.601667","46.02","CAPE TOWN INTERNATIONAL, SF","FM-16","99999","V020","200,1,V,0041,1","99999,9,9,Y","009900,5,9,9","+0280,1","+0170,1","99999,9",,,,,,,,,,,,"10110,1,99999,9",,,,,,"MET059SPECI FACT 231059Z 20008KT 170V230 CAVOK 28/17 Q1011 NOSIG=",
"68816099999","2022-03-23T11:00:00","4","-33.964806","18.601667","46.02","CAPE TOWN INTERNATIONAL, SF","FM-15","99999","V020","200,1,V,0041,1","99999,9,9,Y","009900,5,9,9","+0280,1","+0170,1","99999,9",,,,,,,,,,,,"10110,1,99999,9",,,,,,"MET059METAR FACT 231100Z 20008KT 170V230 CAVOK 28/17 Q1011 NOSIG=",
"68816099999","2022-03-23T12:00:00","4","-33.964806","18.601667","46.02","CAPE TOWN INTERNATIONAL, SF","FM-12","99999","V020","210,1,N,0036,1","22000,1,9,N","030000,1,9,9","+0233,1","+0171,1","10128,1",,,,,"01,1,+02250,1,08,1","99,9,+99999,9,00,1",,"9,AGL   ,+99999,+99999","02,99,1,01,1,99,9,02250,1,99,9,99,9","240,M,+0291,1","240,N,+0197,1","99999,9,10075,1","7,1,015,1,+999,9",,,,"4,99,0067,1,999","SYN08668816 32880 22107 10233 20171 30075 40128 57015 81202 333 10291 20197 91013 555 91012=",
"68816099999","2022-03-23T12:00:00","4","-33.964806","18.601667","46.02","CAPE TOWN INTERNATIONAL, SF","FM-15","99999","V020","200,1,N,0051,1","99999,9,9,N","009999,1,9,9","+0280,1","+0170,1","99999,9",,,,,"02,1,+02134,1,08,1",,,"9,AGL   ,+99999,+99999","99,99,9,02,1,99,9,02134,1,99,9,99,9",,,"10110,1,99999,9",,,,,,"MET064METAR COR FACT 231200Z 20010KT 9999 FEW070TCU 28/17 Q1011 NOSIG=",
"68816099999","2022-03-23T13:00:00","4","-33.964806","18.601667","46.02","CAPE TOWN INTERNATIONAL, SF","FM-15","99999","V020","200,1,N,0072,1","99999,9,9,Y","009900,5,9,9","+0250,1","+0170,1","99999,9",,,,,,,,,,,,"10110,1,99999,9",,,,,,"MET051METAR FACT 231300Z 20014KT CAVOK 25/17 Q1011 NOSIG=",
"68816099999","2022-03-23T14:00:00","4","-33.964806","18.601667","46.02","CAPE TOWN INTERNATIONAL, SF","FM-15","99999","V020","190,1,N,0088,1","99999,9,9,N","009999,1,9,9","+0230,1","+0170,1","99999,9",,,,,"02,1,+00762,1,99,9",,,"9,AGL   ,+99999,+99999","99,99,9,02,1,99,9,00762,1,99,9,99,9",,,"10110,1,99999,9",,,,,,"MET057METAR FACT 231400Z 19017KT 9999 FEW025 23/17 Q1011 NOSIG=",
"68816099999","2022-03-23T15:00:00","4","-33.964806","18.601667","46.02","CAPE TOWN INTERNATIONAL, SF","FM-15","99999","V020","180,1,N,0098,1","99999,9,9,N","009999,1,9,9","+0220,1","+0180,1","99999,9",,,,,"02,1,+00762,1,99,9",,,"9,AGL   ,+99999,+99999","99,99,9,02,1,99,9,00762,1,99,9,99,9",,,"10110,1,99999,9",,,,,,"MET057METAR FACT 231500Z 18019KT 9999 FEW025 22/18 Q1011 NOSIG=",
"68816099999","2022-03-23T18:00:00","4","-33.964806","18.601667","46.02","CAPE TOWN INTERNATIONAL, SF","FM-12","99999","V020","170,1,N,0077,1","99999,9,9,N","030000,1,9,9","+0203,1","+0159,1","10134,1",,,,,"01,1,+01250,1,06,1","99,9,+99999,9,02,1",,"9,AGL   ,+99999,+99999","05,99,1,01,1,99,9,01250,1,99,9,99,9","120,M,+0290,1","120,N,+0197,1","99999,9,10079,1","2,1,015,1,+999,9",,,,"4,99,0093,1,999","SYN08668816 32680 51715 10203 20159 30079 40134 52015 81508 333 10290 20197 91018 555 91013=",
"68816099999","2022-03-23T18:00:00","4","-33.964806","18.601667","46.02","CAPE TOWN INTERNATIONAL, SF","FM-15","99999","V020","170,1,N,0088,1","99999,9,9,N","009999,1,9,9","+0200,1","+0160,1","99999,9",,,,,"02,1,+01067,1,99,9",,,"9,AGL   ,+99999,+99999","99,99,9,02,1,99,9,01067,1,99,9,99,9",,,"10130,1,99999,9",,,,,,"MET057METAR FACT 231800Z 17017KT 9999 FEW035 20/16 Q1013 NOSIG=",
"68816099999","2022-03-23T19:00:00","4","-33.964806","18.601667","46.02","CAPE TOWN INTERNATIONAL, SF","FM-15","99999","V020","190,1,N,0067,1","99999,9,9,Y","009900,5,9,9","+0200,1","+0150,1","99999,9",,,,,,,,,,,,"10140,1,99999,9",,,,,,"MET051METAR FACT 231900Z 19013KT CAVOK 20/15 Q1014 NOSIG=",
"68816099999","2022-03-23T20:00:00","4","-33.964806","18.601667","46.02","CAPE TOWN INTERNATIONAL, SF","FM-15","99999","V020","180,1,N,0062,1","99999,9,9,Y","009900,5,9,9","+0190,1","+0150,1","99999,9",,,,,,,,,,,,"10140,1,99999,9",,,,,,"MET051METAR FACT 232000Z 18012KT CAVOK 19/15 Q1014 NOSIG=",
"68816099999","2022-03-23T21:00:00","4","-33.964806","18.601667","46.02","CAPE TOWN INTERNATIONAL, SF","FM-15","99999","V020","180,1,N,0077,1","99999,9,9,Y","009900,5,9,9","+0190,1","+0160,1","99999,9",,,,,,,,,,,,"10140,1,99999,9",,,,,,"MET051METAR FACT 232100Z 18015KT CAVOK 19/16 Q1014 NOSIG=",
"68816099999","2022-03-23T22:00:00","4","-33.964806","18.601667","46.02","CAPE TOWN INTERNATIONAL, SF","FM-15","99999","V020","180,1,N,0082,1","99999,9,9,Y","009900,5,9,9","+0200,1","+0170,1","99999,9",,,,,,,,,,,,"10140,1,99999,9",,,,,,"MET051METAR FACT 232200Z 18016KT CAVOK 20/17 Q1014 NOSIG=",
"68816099999","2022-03-23T23:00:00","4","-33.964806","18.601667","46.02","CAPE TOWN INTERNATIONAL, SF","FM-15","99999","V020","190,1,N,0082,1","99999,9,9,Y","009900,5,9,9","+0200,1","+0170,1","99999,9",,,,,,,,,,,,"10140,1,99999,9",,,,,,"MET051METAR FACT 232300Z 19016KT CAVOK 20/17 Q1014 NOSIG=",
"68816099999","2022-03-24T00:00:00","4","-33.964806","18.601667","46.02","CAPE TOWN INTERNATIONAL, SF","FM-12","99999","V020","190,1,N,0077,1","22000,1,9,N","025000,1,9,9","+0188,1","+0174,1","10140,1",,,,,"03,1,+00150,1,07,1",,,"9,AGL   ,+99999,+99999","03,99,1,03,1,99,9,00150,1,99,9,99,9","120,M,+0290,1",,"99999,9,10085,1","3,1,002,1,+999,9",,,,"4,99,0113,1,999","SYN08068816 32275 31915 10188 20174 30085 40140 53002 83600 333 10290 91022 555 91014=",
"68816099999","2022-03-24T00:00:00","4","-33.964806","18.601667","46.02","CAPE TOWN INTERNATIONAL, SF","FM-15","99999","V020","180,1,N,0088,1","99999,9,9,N","009999,1,9,9","+0190,1","+0180,1","99999,9",,,,,"04,1,+00183,1,99,9",,,"9,AGL   ,+99999,+99999","99,99,9,04,1,99,9,00183,1,99,9,99,9",,,"10140,1,99999,9",,,,,,"MET064METAR FACT 240000Z 18017KT 9999 SCT006 19/18 Q1014 TEMPO BKN006=",
"68816099999","2022-03-24T01:00:00","4","-33.964806","18.601667","46.02","CAPE TOWN INTERNATIONAL, SF","FM-15","99999","V020","180,1,N,0082,1","99999,9,9,N","009999,1,9,9","+0190,1","+0170,1","99999,9",,,,,"02,1,+00213,1,99,9",,,"9,AGL   ,+99999,+99999","99,99,9,02,1,99,9,00213,1,99,9,99,9",,,"10130,1,99999,9",,,,,,"MET057METAR FACT 240100Z 18016KT 9999 FEW007 19/17 Q1013 NOSIG=",
"68816099999","2022-03-24T02:00:00","4","-33.964806","18.601667","46.02","CAPE TOWN INTERNATIONAL, SF","FM-15","99999","V020","200,1,N,0062,1","99999,9,9,N","009999,1,9,9","+0190,1","+0170,1","99999,9",,,,,"04,1,+00732,1,99,9",,,"9,AGL   ,+99999,+99999","99,99,9,04,1,99,9,00732,1,99,9,99,9",,,"10130,1,99999,9",,,,,,"MET057METAR FACT 240200Z 20012KT 9999 SCT024 19/17 Q1013 NOSIG=",
"68816099999","2022-03-24T03:00:00","4","-33.964806","18.601667","46.02","CAPE TOWN INTERNATIONAL, SF","FM-15","99999","V020","190,1,N,0067,1","99999,9,9,N","009999,1,9,9","+0190,1","+0170,1","99999,9",,,,,"04,1,+00853,1,99,9",,,"9,AGL   ,+99999,+99999","99,99,9,04,1,99,9,00853,1,99,9,99,9",,,"10130,1,99999,9",,,,,,"MET057METAR FACT 240300Z 19013KT 9999 SCT028 19/17 Q1013 NOSIG=",
"68816099999","2022-03-24T04:00:00","4","-33.964806","18.601667","46.02","CAPE TOWN INTERNATIONAL, SF","FM-15","99999","V020","190,1,N,0062,1","00914,1,C,N","009999,1,9,9","+0190,1","+0160,1","99999,9",,,,,"07,1,+00914,1,99,9",,,"9,AGL   ,+99999,+99999","99,99,9,07,1,99,9,00914,1,99,9,99,9",,,"10140,1,99999,9",,,,,,"MET057METAR FACT 240400Z 19012KT 9999 BKN030 19/16 Q1014 NOSIG=",
"68816099999","2022-03-24T05:00:00","4","-33.964806","18.601667","46.02","CAPE TOWN INTERNATIONAL, SF","FM-15","99999","V020","190,1,N,0057,1","00914,1,C,N","009999,1,9,9","+0190,1","+0160,1","99999,9",,,,,"07,1,+00914,1,99,9",,,"9,AGL   ,+99999,+99999","99,99,9,07,1,99,9,00914,1,99,9,99,9",,,"10140,1,99999,9",,,,,,"MET057METAR FACT 240500Z 19011KT 9999 BKN030 19/16 Q1014 NOSIG=",
"68816099999","2022-03-24T06:00:00","4","-33.964806","18.601667","46.02","CAPE TOWN INTERNATIONAL, SF","FM-12","99999","V020","190,1,N,0057,1","99999,9,9,N","035000,1,9,9","+0195,1","+0149,1","10150,1",,,,,"07,1,+01250,1,06,1",,,"9,AGL   ,+99999,+99999","07,99,1,07,1,99,9,01250,1,99,9,99,9","240,N,+0185,1",,"99999,9,10095,1","5,1,003,1,+999,9",,,,"4,99,0051,1,999","SYN08668816 32681 71911 10195 20149 30095 40150 55003 875// 333 20185 91010 555 10290 91014=",
"68816099999","2022-03-24T06:00:00","4","-33.964806","18.601667","46.02","CAPE TOWN INTERNATIONAL, SF","FM-15","99999","V020","190,1,N,0057,1","00914,1,C,N","009999,1,9,9","+0190,1","+0150,1","99999,9",,,,,"07,1,+00914,1,99,9",,,"9,AGL   ,+99999,+99999","99,99,9,07,1,99,9,00914,1,99,9,99,9",,,"10140,1,99999,9",,,,,,"MET057METAR FACT 240600Z 19011KT 9999 BKN030 19/15 Q1014 NOSIG=",
"68816099999","2022-03-24T07:00:00","4","-33.964806","18.601667","46.02","CAPE TOWN INTERNATIONAL, SF","FM-15","99999","V020","180,1,N,0057,1","00914,1,C,N","009999,1,9,9","+0200,1","+0150,1","99999,9",,,,,"07,1,+00914,1,99,9",,,"9,AGL   ,+99999,+99999","99,99,9,07,1,99,9,00914,1,99,9,99,9",,,"10150,1,99999,9",,,,,,"MET057METAR FACT 240700Z 18011KT 9999 BKN030 20/15 Q1015 NOSIG=",
"68816099999","2022-03-24T08:00:00","4","-33.964806","18.601667","46.02","CAPE TOWN INTERNATIONAL, SF","FM-15","99999","V020","190,1,N,0067,1","01067,1,C,N","009999,1,9,9","+0220,1","+0140,1","99999,9",,,,,"07,1,+01067,1,99,9",,,"9,AGL   ,+99999,+99999","99,99,9,07,1,99,9,01067,1,99,9,99,9",,,"10150,1,99999,9",,,,,,"MET057METAR FACT 240800Z 19013KT 9999 BKN035 22/14 Q1015 NOSIG=",
"68816099999","2022-03-24T09:00:00","4","-33.964806","18.601667","46.02","CAPE TOWN INTERNATIONAL, SF","FM-15","99999","V020","190,1,N,0062,1","99999,9,9,N","009999,1,9,9","+0230,1","+0140,1","99999,9",,,,,"02,1,+01219,1,99,9",,,"9,AGL   ,+99999,+99999","99,99,9,02,1,99,9,01219,1,99,9,99,9",,,"10150,1,99999,9",,,,,,"MET057METAR FACT 240900Z 19012KT 9999 FEW040 23/14 Q1015 NOSIG=",
"68816099999","2022-03-24T10:00:00","4","-33.964806","18.601667","46.02","CAPE TOWN INTERNATIONAL, SF","FM-15","99999","V020","200,1,V,0046,1","99999,9,9,N","009999,1,9,9","+0240,1","+0120,1","99999,9",,,,,"02,1,+01219,1,99,9",,,"9,AGL   ,+99999,+99999","99,99,9,02,1,99,9,01219,1,99,9,99,9",,,"10150,1,99999,9",,,,,,"MET070METAR FACT 241000Z 20009KT 160V240 9999 FEW040 24/12 Q101522/20 Q1010=",
"68816099999","2022-03-24T11:00:00","4","-33.964806","18.601667","46.02","CAPE TOWN INTERNATIONAL, SF","FM-15","99999","V020","200,1,V,0046,1","99999,9,9,N","009999,1,9,9","+0240,1","+0120,1","99999,9",,,,,"02,1,+01219,1,99,9",,,"9,AGL   ,+99999,+99999","99,99,9,02,1,99,9,01219,1,99,9,99,9",,,"10140,1,99999,9",,,,,,"MET065METAR FACT 241100Z 20009KT 170V250 9999 FEW040 24/12 Q1014 NOSIG=",
"68816099999","2022-03-24T12:00:00","4","-33.964806","18.601667","46.02","CAPE TOWN INTERNATIONAL, SF","FM-12","99999","V020","190,1,N,0051,1","22000,1,9,N","030000,1,9,9","+0243,1","+0140,1","10141,1",,,,,"01,1,+99999,9,06,1",,,"9,AGL   ,+99999,+99999","01,99,1,01,1,99,9,99999,9,99,9,99,9","240,M,+0250,1","240,N,+0194,1","99999,9,10088,1","7,1,010,1,+999,9",,,,"4,99,0051,1,999","SYN08668816 32980 11910 10243 20140 30088 40141 57010 81500 333 10250 20194 91010 555 91014=",
"68816099999","2022-03-24T12:00:00","4","-33.964806","18.601667","46.02","CAPE TOWN INTERNATIONAL, SF","FM-15","99999","V020","190,1,V,0057,1","99999,9,9,N","009999,1,9,9","+0240,1","+0140,1","99999,9",,,,,"02,1,+01219,1,99,9",,,"9,AGL   ,+99999,+99999","99,99,9,02,1,99,9,01219,1,99,9,99,9",,,"10140,1,99999,9",,,,,,"MET065METAR FACT 241200Z 19011KT 150V220 9999 FEW040 24/14 Q1014 NOSIG=",
"68816099999","2022-03-24T13:00:00","4","-33.964806","18.601667","46.02","CAPE TOWN INTERNATIONAL, SF","FM-15","99999","V020","180,1,N,0072,1","99999,9,9,N","009999,1,9,9","+0240,1","+0150,1","99999,9",,,,,"04,1,+01219,1,99,9",,,"9,AGL   ,+99999,+99999","99,99,9,04,1,99,9,01219,1,99,9,99,9",,,"10140,1,99999,9",,,,,,"MET057METAR FACT 241300Z 18014KT 9999 SCT040 24/15 Q1014 NOSIG=",
"68816099999","2022-03-24T14:00:00","4","-33.964806","18.601667","46.02","CAPE TOWN INTERNATIONAL, SF","FM-15","99999","V020","180,1,V,0051,1","99999,9,9,N","009999,1,9,9","+0240,1","+0150,1","99999,9",,,,,"02,1,+01280,1,99,9",,,"9,AGL   ,+99999,+99999","99,99,9,02,1,99,9,01280,1,99,9,99,9",,,"10130,1,99999,9",,,,,,"MET065METAR FACT 241400Z 18010KT 140V210 9999 FEW042 24/15 Q1013 NOSIG=",
"68816099999","2022-03-24T15:00:00","4","-33.964806","18.601667","46.02","CAPE TOWN INTERNATIONAL, SF","FM-15","99999","V020","170,1,N,0093,1","99999,9,9,N","009999,1,9,9","+0220,1","+0160,1","99999,9",,,,,"02,1,+00914,1,99,9",,,"9,AGL   ,+99999,+99999","99,99,9,02,1,99,9,00914,1,99,9,99,9",,,"10140,1,99999,9",,,,,,"MET057METAR FACT 241500Z 17018KT 9999 FEW030 22/16 Q1014 NOSIG=",
"68816099999","2022-03-24T16:00:00","4","-33.964806","18.601667","46.02","CAPE TOWN INTERNATIONAL, SF","FM-15","99999","V020","160,1,N,0098,1","99999,9,9,N","009999,1,9,9","+0190,1","+0150,1","99999,9",,,,,"02,1,+00914,1,99,9",,,"9,AGL   ,+99999,+99999","99,99,9,02,1,99,9,00914,1,99,9,99,9",,,"10140,1,99999,9",,,,,,"MET057METAR FACT 241600Z 16019KT 9999 FEW030 19/15 Q1014 NOSIG=",
"68816099999","2022-03-24T17:00:00","4","-33.964806","18.601667","46.02","CAPE TOWN INTERNATIONAL, SF","FM-15","99999","V020","160,1,N,0077,1","99999,9,9,N","009999,1,9,9","+0170,1","+0140,1","99999,9",,,,,"02,1,+00914,1,99,9",,,"9,AGL   ,+99999,+99999","99,99,9,02,1,99,9,00914,1,99,9,99,9",,,"10150,1,99999,9",,,,,,"MET057METAR FACT 241700Z 16015KT 9999 FEW030 17/14 Q1015 NOSIG=",
"68816099999","2022-03-24T18:00:00","4","-33.964806","18.601667","46.02","CAPE TOWN INTERNATIONAL, SF","FM-12","99999","V020","180,1,N,0082,1","22000,1,9,N","030000,1,9,9","+0167,1","+0138,1","10151,1",,,,,"01,1,+00800,1,06,1",,,"9,AGL   ,+99999,+99999","01,99,1,01,1,99,9,00800,1,99,9,99,9","120,M,+0251,1","120,N,+0167,1","99999,9,10096,1","2,1,012,1,+999,9",,,,"4,99,0098,1,999","SYN08668816 32580 11816 10167 20138 30096 40151 52012 81500 333 10251 20167 91019 555 91015=",
"68816099999","2022-03-24T18:00:00","4","-33.964806","18.601667","46.02","CAPE TOWN INTERNATIONAL, SF","FM-15","99999","V020","170,1,N,0082,1","99999,9,9,N","009999,1,9,9","+0170,1","+0140,1","99999,9",,,,,"02,1,+00914,1,99,9",,,"9,AGL   ,+99999,+99999","99,99,9,02,1,99,9,00914,1,99,9,99,9",,,"10150,1,99999,9",,,,,,"MET057METAR FACT 241800Z 17016KT 9999 FEW030 17/14 Q1015 NOSIG=",
"68816099999","2022-03-24T19:00:00","4","-33.964806","18.601667","46.02","CAPE TOWN INTERNATIONAL, SF","FM-15","99999","V020","180,1,N,0082,1","99999,9,9,N","009999,1,9,9","+0170,1","+0140,1","99999,9",,,,,"02,1,+00914,1,99,9",,,"9,AGL   ,+99999,+99999","99,99,9,02,1,99,9,00914,1,99,9,99,9",,,"10150,1,99999,9",,,,,,"MET057METAR FACT 241900Z 18016KT 9999 FEW030 17/14 Q1015 NOSIG=",
"68816099999","2022-03-24T20:00:00","4","-33.964806","18.601667","46.02","CAPE TOWN INTERNATIONAL, SF","FM-15","99999","V020","170,1,N,0088,1","99999,9,9,N","009999,1,9,9","+0170,1","+0130,1","99999,9",,,,,"02,1,+00914,1,99,9",,,"9,AGL   ,+99999,+99999","99,99,9,02,1,99,9,00914,1,99,9,99,9",,,"10150,1,99999,9",,,,,,"MET057METAR FACT 242000Z 17017KT 9999 FEW030 17/13 Q1015 NOSIG=",
"68816099999","2022-03-24T21:00:00","4","-33.964806","18.601667","46.02","CAPE TOWN INTERNATIONAL, SF","FM-15","99999","V020","170,1,N,0077,1","99999,9,9,N","009999,1,9,9","+0170,1","+0130,1","99999,9",,,,,"02,1,+00914,1,99,9",,,"9,AGL   ,+99999,+99999","99,99,9,02,1,99,9,00914,1,99,9,99,9",,,"10160,1,99999,9",,,,,,"MET057METAR FACT 242100Z 17015KT 9999 FEW030 17/13 Q1016 NOSIG=",
"68816099999","2022-03-24T22:00:00","4","-33.964806","18.601667","46.02","CAPE TOWN INTERNATIONAL, SF","FM-15","99999","V020","160,1,N,0082,1","99999,9,9,N","009999,1,9,9","+0170,1","+0130,1","99999,9",,,,,"02,1,+00914,1,99,9",,,"9,AGL   ,+99999,+99999","99,99,9,02,1,99,9,00914,1,99,9,99,9",,,"10160,1,99999,9",,,,,,"MET057METAR FACT 242200Z 16016KT 9999 FEW030 17/13 Q1016 NOSIG=",
"68816099999","2022-03-24T23:00:00","4","-33.964806","18.601667","46.02","CAPE TOWN INTERNATIONAL, SF","FM-15","99999","V020","160,1,N,0098,1","01524,1,9,N","009999,1,9,9","+0170,1","+0130,1","99999,9",,,,,"02,1,+00914,1,99,9","07,1,+01524,1,99,9",,"9,AGL   ,+99999,+99999","99,99,9,02,1,99,9,00914,1,99,9,99,9",,,"10160,1,99999,9",,,,,,"MET064METAR FACT 242300Z 16019KT 9999 FEW030 BKN050 17/13 Q1016 NOSIG=",
"68816099999","2022-03-25T00:00:00","4","-33.964806","18.601667","46.02","CAPE TOWN INTERNATIONAL, SF","FM-12","99999","V020","160,1,N,0098,1","99999,9,9,N","040000,1,9,9","+0171,1","+0116,1","10161,1",,,,,"06,1,+00800,1,06,1",,,"9,AGL   ,+99999,+99999","06,99,1,06,1,99,9,00800,1,99,9,99,9",,,"99999,9,10106,1","2,1,012,1,+999,9",,,,"4,99,0103,1,999","SYN07468816 32582 61619 10171 20116 30106 40161 52012 86500 333 91020 555 91016=",
"68816099999","2022-03-25T00:00:00","4","-33.964806","18.601667","46.02","CAPE TOWN INTERNATIONAL, SF","FM-15","99999","V020","150,1,N,0098,1","01524,1,9,N","009999,1,9,9","+0170,1","+0120,1","99999,9",,,,,"02,1,+00914,1,99,9","07,1,+01524,1,99,9",,"9,AGL   ,+99999,+99999","99,99,9,02,1,99,9,00914,1,99,9,99,9",,,"10160,1,99999,9",,,,,,"MET064METAR FACT 250000Z 15019KT 9999 FEW030 BKN050 17/12 Q1016 NOSIG=",
"68816099999","2022-03-25T01:00:00","4","-33.964806","18.601667","46.02","CAPE TOWN INTERNATIONAL, SF","FM-15","99999","V020","150,1,N,0088,1","99999,9,9,Y","009900,5,9,9","+0170,1","+0110,1","99999,9",,,,,,,,,,,,"10150,1,99999,9",,,,,,"MET051METAR FACT 250100Z 15017KT CAVOK 17/11 Q1015 NOSIG=",
"68816099999","2022-03-25T02:00:00","4","-33.964806","18.601667","46.02","CAPE TOWN INTERNATIONAL, SF","FM-15","99999","V020","160,1,N,0088,1","99999,9,9,Y","009900,5,9,9","+0170,1","+0110,1","99999,9",,,,,,,,,,,,"10150,1,99999,9",,,,,,"MET051METAR FACT 250200Z 16017KT CAVOK 17/11 Q1015 NOSIG=",
"68816099999","2022-03-25T03:00:00","4","-33.964806","18.601667","46.02","CAPE TOWN INTERNATIONAL, SF","FM-15","99999","V020","170,1,N,0093,1","99999,9,9,Y","009900,5,9,9","+0170,1","+0100,1","99999,9",,,,,,,,,,,,"10150,1,99999,9",,,,,,"MET051METAR FACT 250300Z 17018KT CAVOK 17/10 Q1015 NOSIG=",
"68816099999","2022-03-25T04:00:00","4","-33.964806","18.601667","46.02","CAPE TOWN INTERNATIONAL, SF","FM-15","99999","V020","160,1,N,0098,1","99999,9,9,Y","009900,5,9,9","+0170,1","+0100,1","99999,9",,,,,,,,,,,,"10150,1,99999,9",,,,,,"MET051METAR FACT 250400Z 16019KT CAVOK 17/10 Q1015 NOSIG=",
"68816099999","2022-03-25T05:00:00","4","-33.964806","18.601667","46.02","CAPE TOWN INTERNATIONAL, SF","FM-15","99999","V020","160,1,N,0098,1","99999,9,9,N","009999,1,9,9","+0160,1","+0110,1","99999,9",,,,,"02,1,+01067,1,99,9",,,"9,AGL   ,+99999,+99999","99,99,9,02,1,99,9,01067,1,99,9,99,9",,,"10150,1,99999,9",,,,,,"MET057METAR FACT 250500Z 16019KT 9999 FEW035 16/11 Q1015 NOSIG=",
"68816099999","2022-03-25T06:00:00","4","-33.964806","18.601667","46.02","CAPE TOWN INTERNATIONAL, SF","FM-12","99999","V020","160,1,N,0093,1","22000,1,9,N","030000,1,9,9","+0173,1","+0114,1","10158,1",,,,,"02,1,+00800,1,06,1",,,"9,AGL   ,+99999,+99999","02,99,1,02,1,99,9,00800,1,99,9,99,9","240,N,+0164,1",,"99999,9,10103,1","2,1,002,1,+999,9",,,,"4,99,0124,1,999","SYN08668816 32580 21618 10173 20114 30103 40158 52002 82500 333 20164 91024 555 10251 91015=",
"68816099999","2022-03-25T06:00:00","4","-33.964806","18.601667","46.02","CAPE TOWN INTERNATIONAL, SF","FM-15","99999","V020","160,1,N,0093,1","99999,9,9,N","009999,1,9,9","+0170,1","+0110,1","99999,9",,,,,"02,1,+01067,1,99,9",,,"9,AGL   ,+99999,+99999","99,99,9,02,1,99,9,01067,1,99,9,99,9",,,"10150,1,99999,9",,,,,,"MET057METAR FACT 250600Z 16018KT 9999 FEW035 17/11 Q1015 NOSIG=",
"68816099999","2022-03-25T07:00:00","4","-33.964806","18.601667","46.02","CAPE TOWN INTERNATIONAL, SF","FM-15","99999","V020","160,1,N,0103,1","99999,9,9,N","009999,1,9,9","+0190,1","+0120,1","99999,9",,,,,"02,1,+01067,1,99,9",,,"9,AGL   ,+99999,+99999","99,99,9,02,1,99,9,01067,1,99,9,99,9",,,"10150,1,99999,9",,,,,,"MET057METAR FACT 250700Z 16020KT 9999 FEW035 19/12 Q1015 NOSIG=",
"68816099999","2022-03-25T07:24:00","4","-33.964806","18.601667","46.02","CAPE TOWN INTERNATIONAL, SF","FM-16","99999","V020","160,1,N,0098,1","99999,9,9,N","009999,1,9,9","+0190,1","+0120,1","99999,9",,,,,"02,1,+01067,1,99,9",,,"9,AGL   ,+99999,+99999","99,99,9,02,1,99,9,01067,1,99,9,99,9",,,"10160,1,99999,9",,,,"0149,1",,"MET060SPECI FACT 250724Z 16019G29KT 9999 FEW035 19/12 Q1016 NOSIG=",
"68816099999","2022-03-25T08:00:00","4","-33.964806","18.601667","46.02","CAPE TOWN INTERNATIONAL, SF","FM-15","99999","V020","160,1,N,0098,1","99999,9,9,N","009999,1,9,9","+0200,1","+0120,1","99999,9",,,,,"02,1,+00914,1,99,9",,,"9,AGL   ,+99999,+99999","99,99,9,02,1,99,9,00914,1,99,9,99,9",,,"10150,1,99999,9",,,,,,"MET057METAR FACT 250800Z 16019KT 9999 FEW030 20/12 Q1015 NOSIG=",
"68816099999","2022-03-25T09:00:00","4","-33.964806","18.601667","46.02","CAPE TOWN INTERNATIONAL, SF","FM-15","99999","V020","160,1,N,0113,1","99999,9,9,N","009999,1,9,9","+0210,1","+0120,1","99999,9",,,,,"02,1,+00762,1,99,9",,,"9,AGL   ,+99999,+99999","99,99,9,02,1,99,9,00762,1,99,9,99,9",,,"10150,1,99999,9",,,,,,"MET057METAR FACT 250900Z 16022KT 9999 FEW025 21/12 Q1015 NOSIG=",
"68816099999","2022-03-25T10:00:00","4","-33.964806","18.601667","46.02","CAPE TOWN INTERNATIONAL, SF","FM-15","99999","V020","160,1,N,0103,1","99999,9,9,N","009999,1,9,9","+0220,1","+0130,1","99999,9",,,,,"02,1,+00762,1,99,9",,,"9,AGL   ,+99999,+99999","99,99,9,02,1,99,9,00762,1,99,9,99,9",,,"10150,1,99999,9",,,,,,"MET057METAR FACT 251000Z 16020KT 9999 FEW025 22/13 Q1015 NOSIG=",
"68816099999","2022-03-25T10:30:00","4","-33.964806","18.601667","46.02","CAPE TOWN INTERNATIONAL, SF","FM-16","99999","V020","140,1,N,0067,1","99999,9,9,N","009999,1,9,9","+0240,1","+0120,1","99999,9",,,,,"02,1,+00762,1,99,9",,,"9,AGL   ,+99999,+99999","99,99,9,02,1,99,9,00762,1,99,9,99,9",,,"10140,1,99999,9",,,,,,"MET057SPECI FACT 251030Z 14013KT 9999 FEW025 24/12 Q1014 NOSIG=",
"68816099999","2022-03-25T11:00:00","4","-33.964806","18.601667","46.02","CAPE TOWN INTERNATIONAL, SF","FM-15","99999","V020","140,1,N,0077,1","99999,9,9,N","009999,1,9,9","+0240,1","+0120,1","99999,9",,,,,"02,1,+00762,1,99,9",,,"9,AGL   ,+99999,+99999","99,99,9,02,1,99,9,00762,1,99,9,99,9",,,"10140,1,99999,9",,,,,,"MET057METAR FACT 251100Z 14015KT 9999 FEW025 24/12 Q1014 NOSIG=",
"68816099999","2022-03-25T12:00:00","4","-33.964806","18.601667","46.02","CAPE TOWN INTERNATIONAL, SF","FM-12","99999","V020","140,1,N,0072,1","22000,1,9,N","030000,1,9,9","+0242,1","+0120,1","10141,1",,,,,"02,1,+01250,1,06,1",,,"9,AGL   ,+99999,+99999","02,99,1,02,1,99,9,01250,1,99,9,99,9","240,N,+0174,1",,"99999,9,10087,1","7,1,004,1,+999,9",,,,"4,99,0103,1,999","SYN08068816 32680 21414 10242 20120 30087 40141 57004 82500 333 20174 91020 555 91014=",
"68816099999","2022-03-25T12:00:00","4","-33.964806","18.601667","46.02","CAPE TOWN INTERNATIONAL, SF","FM-15","99999","V020","140,1,N,0082,1","99999,9,9,N","009999,1,9,9","+0240,1","+0120,1","99999,9",,,,,"02,1,+01067,1,99,9",,,"9,AGL   ,+99999,+99999","99,99,9,02,1,99,9,01067,1,99,9,99,9",,,"10140,1,99999,9",,,,,,"MET057METAR FACT 251200Z 14016KT 9999 FEW035 24/12 Q1014 NOSIG=",
"68816099999","2022-03-25T13:00:00","4","-33.964806","18.601667","46.02","CAPE TOWN INTERNATIONAL, SF","FM-15","99999","V020","140,1,N,0082,1","99999,9,9,N","009999,1,9,9","+0240,1","+0120,1","99999,9",,,,,"02,1,+01067,1,99,9",,,"9,AGL   ,+99999,+99999","99,99,9,02,1,99,9,01067,1,99,9,99,9",,,"10130,1,99999,9",,,,,,"MET057METAR FACT 251300Z 14016KT 9999 FEW035 24/12 Q1013 NOSIG=",
"68816099999","2022-03-25T14:00:00","4","-33.964806","18.601667","46.02","CAPE TOWN INTERNATIONAL, SF","FM-15","99999","V020","160,1,N,0103,1","99999,9,9,N","009999,1,9,9","+0230,1","+0110,1","99999,9",,,,,"02,1,+00914,1,99,9",,,"9,AGL   ,+99999,+99999","99,99,9,02,1,99,9,00914,1,99,9,99,9",,,"10130,1,99999,9",,,,,,"MET057METAR FACT 251400Z 16020KT 9999 FEW030 23/11 Q1013 NOSIG=",
"68816099999","2022-03-25T15:00:00","4","-33.964806","18.601667","46.02","CAPE TOWN INTERNATIONAL, SF","FM-15","99999","V020","150,1,N,0088,1","99999,9,9,N","009999,1,9,9","+0230,1","+0110,1","99999,9",,,,,"02,1,+00914,1,99,9",,,"9,AGL   ,+99999,+99999","99,99,9,02,1,99,9,00914,1,99,9,99,9",,,"10130,1,99999,9",,,,,,"MET057METAR FACT 251500Z 15017KT 9999 FEW030 23/11 Q1013 NOSIG=",
"68816099999","2022-03-25T15:54:00","4","-33.964806","18.601667","46.02","CAPE TOWN INTERNATIONAL, SF","FM-16","99999","V020","140,1,N,0077,1","99999,9,9,N","009999,1,9,9","+0220,1","+0090,1","99999,9",,,,,"02,1,+00914,1,99,9",,,"9,AGL   ,+99999,+99999","99,99,9,02,1,99,9,00914,1,99,9,99,9",,,"10130,1,99999,9",,,,"0134,1",,"MET060SPECI FACT 251554Z 14015G26KT 9999 FEW030 22/09 Q1013 NOSIG=",
"68816099999","2022-03-25T16:00:00","4","-33.964806","18.601667","46.02","CAPE TOWN INTERNATIONAL, SF","FM-15","99999","V020","140,1,N,0077,1","99999,9,9,N","009999,1,9,9","+0220,1","+0090,1","99999,9",,,,,"02,1,+00914,1,99,9",,,"9,AGL   ,+99999,+99999","99,99,9,02,1,99,9,00914,1,99,9,99,9",,,"10130,1,99999,9",,,,"0134,1",,"MET060METAR FACT 251600Z 14015G26KT 9999 FEW030 22/09 Q1013 NOSIG=",
"68816099999","2022-03-25T17:00:00","4","-33.964806","18.601667","46.02","CAPE TOWN INTERNATIONAL, SF","FM-15","99999","V020","140,1,N,0072,1","99999,9,9,N","009999,1,9,9","+0200,1","+0100,1","99999,9",,,,,"02,1,+00914,1,99,9",,,"9,AGL   ,+99999,+99999","99,99,9,02,1,99,9,00914,1,99,9,99,9",,,"10130,1,99999,9",,,,,,"MET057METAR FACT 251700Z 14014KT 9999 FEW030 20/10 Q1013 NOSIG=",
"68816099999","2022-03-25T18:00:00","4","-33.964806","18.601667","46.02","CAPE TOWN INTERNATIONAL, SF","FM-12","99999","V020","160,1,N,0082,1","22000,1,9,N","030000,1,9,9","+0187,1","+0094,1","10139,1",,,,,"02,1,+00800,1,06,1",,,"9,AGL   ,+99999,+99999","02,99,1,02,1,99,9,00800,1,99,9,99,9","120,M,+0248,1",,"99999,9,10084,1","7,1,004,1,+999,9",,,,"4,99,0103,1,999","SYN08068816 32580 21616 10187 20094 30084 40139 57004 82500 333 10248 91020 555 91013=",
"68816099999","2022-03-25T18:00:00","4","-33.964806","18.601667","46.02","CAPE TOWN INTERNATIONAL, SF","FM-15","99999","V020","160,1,N,0088,1","99999,9,9,N","009999,1,9,9","+0190,1","+0090,1","99999,9",,,,,"02,1,+00914,1,99,9",,,"9,AGL   ,+99999,+99999","99,99,9,02,1,99,9,00914,1,99,9,99,9",,,"10130,1,99999,9",,,,,,"MET057METAR FACT 251800Z 16017KT 9999 FEW030 19/09 Q1013 NOSIG=",
"68816099999","2022-03-25T19:00:00","4","-33.964806","18.601667","46.02","CAPE TOWN INTERNATIONAL, SF","FM-15","99999","V020","150,1,N,0082,1","99999,9,9,Y","009900,5,9,9","+0180,1","+0110,1","99999,9",,,,,,,,,,,,"10140,1,99999,9",,,,,,"MET051METAR FACT 251900Z 15016KT CAVOK 18/11 Q1014 NOSIG=",
"68816099999","2022-03-25T20:00:00","4","-33.964806","18.601667","46.02","CAPE TOWN INTERNATIONAL, SF","FM-15","99999","V020","150,1,N,0067,1","99999,9,9,Y","009900,5,9,9","+0180,1","+0110,1","99999,9",,,,,,,,,,,,"10140,1,99999,9",,,,,,"MET051METAR FACT 252000Z 15013KT CAVOK 18/11 Q1014 NOSIG=",
"68816099999","2022-03-25T21:00:00","4","-33.964806","18.601667","46.02","CAPE TOWN INTERNATIONAL, SF","FM-15","99999","V020","150,1,N,0051,1","99999,9,9,Y","009900,5,9,9","+0170,1","+0100,1","99999,9",,,,,,,,,,,,"10140,1,99999,9",,,,,,"MET051METAR FACT 252100Z 15010KT CAVOK 17/10 Q1014 NOSIG=",
"68816099999","2022-03-25T22:00:00","4","-33.964806","18.601667","46.02","CAPE TOWN INTERNATIONAL, SF","FM-15","99999","V020","150,1,N,0046,1","99999,9,9,Y","009900,5,9,9","+0170,1","+0090,1","99999,9",,,,,,,,,,,,"10140,1,99999,9",,,,,,"MET051METAR FACT 252200Z 15009KT CAVOK 17/09 Q1014 NOSIG=",
"68816099999","2022-03-25T23:00:00","4","-33.964806","18.601667","46.02","CAPE TOWN INTERNATIONAL, SF","FM-15","99999","V020","140,1,N,0041,1","99999,9,9,Y","009900,5,9,9","+0170,1","+0090,1","99999,9",,,,,,,,,,,,"10140,1,99999,9",,,,,,"MET051METAR FACT 252300Z 14008KT CAVOK 17/09 Q1014 NOSIG=",
"68816099999","2022-03-26T00:00:00","4","-33.964806","18.601667","46.02","CAPE TOWN INTERNATIONAL, SF","FM-12","99999","V020","170,1,N,0015,1","99999,9,9,N","030000,1,9,9","+0153,1","+0088,1","10140,1",,,,,,,,,,,,"99999,9,10085,1","7,1,004,1,+999,9",,,,"4,99,0021,1,999","SYN06868816 32980 01703 10153 20088 30085 40140 57004 333 91004 555 91014=",
"68816099999","2022-03-26T00:00:00","4","-33.964806","18.601667","46.02","CAPE TOWN INTERNATIONAL, SF","FM-15","99999","V020","170,1,N,0015,1","99999,9,9,Y","009900,5,9,9","+0150,1","+0090,1","99999,9",,,,,,,,,,,,"10130,1,99999,9",,,,,,"MET051METAR FACT 260000Z 17003KT CAVOK 15/09 Q1013 NOSIG=",
"68816099999","2022-03-26T01:00:00","4","-33.964806","18.601667","46.02","CAPE TOWN INTERNATIONAL, SF","FM-15","99999","V020","230,1,N,0031,1","99999,9,9,Y","009900,5,9,9","+0160,1","+0100,1","99999,9",,,,,,,,,,,,"10130,1,99999,9",,,,,,"MET051METAR FACT 260100Z 23006KT CAVOK 16/10 Q1013 NOSIG=",
"68816099999","2022-03-26T02:00:00","4","-33.964806","18.601667","46.02","CAPE TOWN INTERNATIONAL, SF","FM-15","99999","V020","230,1,N,0036,1","99999,9,9,Y","009900,5,9,9","+0160,1","+0100,1","99999,9",,,,,,,,,,,,"10130,1,99999,9",,,,,,"MET051METAR FACT 260200Z 23007KT CAVOK 16/10 Q1013 NOSIG=",
"68816099999","2022-03-26T03:00:00","4","-33.964806","18.601667","46.02","CAPE TOWN INTERNATIONAL, SF","FM-15","99999","V020","230,1,N,0041,1","99999,9,9,Y","009900,5,9,9","+0150,1","+0110,1","99999,9",,,,,,,,,,,,"10130,1,99999,9",,,,,,"MET051METAR FACT 260300Z 23008KT CAVOK 15/11 Q1013 NOSIG=",
"68816099999","2022-03-26T04:00:00","4","-33.964806","18.601667","46.02","CAPE TOWN INTERNATIONAL, SF","FM-15","99999","V020","230,1,N,0041,1","99999,9,9,Y","009900,5,9,9","+0150,1","+0110,1","99999,9",,,,,,,,,,,,"10130,1,99999,9",,,,,,"MET051METAR FACT 260400Z 23008KT CAVOK 15/11 Q1013 NOSIG=",
"68816099999","2022-03-26T05:00:00","4","-33.964806","18.601667","46.02","CAPE TOWN INTERNATIONAL, SF","FM-15","99999","V020","230,1,N,0041,1","99999,9,9,Y","009900,5,9,9","+0150,1","+0110,1","99999,9",,,,,,,,,,,,"10130,1,99999,9",,,,,,"MET051METAR FACT 260500Z 23008KT CAVOK 15/11 Q1013 NOSIG=",
"68816099999","2022-03-26T06:00:00","4","-33.964806","18.601667","46.02","CAPE TOWN INTERNATIONAL, SF","FM-15","99999","V020","240,1,N,0041,1","99999,9,9,Y","009900,5,9,9","+0160,1","+0120,1","99999,9",,,,,,,,,,,,"10130,1,99999,9",,,,,,"MET051METAR FACT 260600Z 24008KT CAVOK 16/12 Q1013 NOSIG=",
"68816099999","2022-03-26T07:00:00","4","-33.964806","18.601667","46.02","CAPE TOWN INTERNATIONAL, SF","FM-15","99999","V020","220,1,N,0046,1","99999,9,9,Y","009900,5,9,9","+0180,1","+0120,1","99999,9",,,,,,,,,,,,"10130,1,99999,9",,,,,,"MET051METAR FACT 260700Z 22009KT CAVOK 18/12 Q1013 NOSIG=",
"68816099999","2022-03-26T07:56:00","4","-33.964806","18.601667","46.02","CAPE TOWN INTERNATIONAL, SF","FM-16","99999","V020","200,1,V,0036,1","99999,9,9,Y","009900,5,9,9","+0210,1","+0120,1","99999,9",,,,,,,,,,,,"10140,1,99999,9",,,,,,"MET059SPECI FACT 260756Z 20007KT 170V230 CAVOK 21/12 Q1014 NOSIG=",
"68816099999","2022-03-26T08:00:00","4","-33.964806","18.601667","46.02","CAPE TOWN INTERNATIONAL, SF","FM-15","99999","V020","200,1,V,0036,1","99999,9,9,Y","009900,5,9,9","+0210,1","+0120,1","99999,9",,,,,,,,,,,,"10140,1,99999,9",,,,,,"MET059METAR FACT 260800Z 20007KT 170V230 CAVOK 21/12 Q1014 NOSIG=",
"68816099999","2022-03-26T09:00:00","4","-33.964806","18.601667","46.02","CAPE TOWN INTERNATIONAL, SF","FM-15","99999","V020","190,1,N,0072,1","99999,9,9,Y","009900,5,9,9","+0230,1","+0130,1","99999,9",,,,,,,,,,,,"10140,1,99999,9",,,,,,"MET051METAR FACT 260900Z 19014KT CAVOK 23/13 Q1014 NOSIG=",
"68816099999","2022-03-26T10:00:00","4","-33.964806","18.601667","46.02","CAPE TOWN INTERNATIONAL, SF","FM-15","99999","V020","170,1,N,0072,1","99999,9,9,Y","009900,5,9,9","+0240,1","+0130,1","99999,9",,,,,,,,,,,,"10140,1,99999,9",,,,,,"MET051METAR FACT 261000Z 17014KT CAVOK 24/13 Q1014 NOSIG=",
"68816099999","2022-03-26T11:00:00","4","-33.964806","18.601667","46.02","CAPE TOWN INTERNATIONAL, SF","FM-15","99999","V020","190,1,N,0072,1","99999,9,9,Y","009900,5,9,9","+0250,1","+0120,1","99999,9",,,,,,,,,,,,"10130,1,99999,9",,,,,,"MET051METAR FACT 261100Z 19014KT CAVOK 25/12 Q1013 NOSIG=",
"68816099999","2022-03-26T12:00:00","4","-33.964806","18.601667","46.02","CAPE TOWN INTERNATIONAL, SF","FM-12","99999","V020","210,1,N,0062,1","99999,9,9,N","030000,1,9,9","+0244,1","+0125,1","10133,1",,,,,,,,,,"240,N,+0152,1",,"99999,9,10080,1","7,1,010,1,+999,9",,,,"4,99,0088,1,999","SYN07468816 32980 02112 10244 20125 30080 40133 57010 333 20152 91017 555 91013=",
"68816099999","2022-03-26T12:00:00","4","-33.964806","18.601667","46.02","CAPE TOWN INTERNATIONAL, SF","FM-15","99999","V020","220,1,N,0062,1","99999,9,9,Y","009900,5,9,9","+0240,1","+0130,1","99999,9",,,,,,,,,,,,"10130,1,99999,9",,,,,,"MET051METAR FACT 261200Z 22012KT CAVOK 24/13 Q1013 NOSIG=",
"68816099999","2022-03-26T13:00:00","4","-33.964806","18.601667","46.02","CAPE TOWN INTERNATIONAL, SF","FM-15","99999","V020","220,1,N,0062,1","99999,9,9,N","009999,1,9,9","+0230,1","+0130,1","99999,9",,,,,"02,1,+01067,1,99,9",,,"9,AGL   ,+99999,+99999","99,99,9,02,1,99,9,01067,1,99,9,99,9",,,"10130,1,99999,9",,,,,,"MET057METAR FACT 261300Z 22012KT 9999 FEW035 23/13 Q1013 NOSIG=",
"68816099999","2022-03-26T14:00:00","4","-33.964806","18.601667","46.02","CAPE TOWN INTERNATIONAL, SF","FM-15","99999","V020","220,1,N,0067,1","99999,9,9,N","009999,1,9,9","+0240,1","+0130,1","99999,9",,,,,"02,1,+01067,1,99,9",,,"9,AGL   ,+99999,+99999","99,99,9,02,1,99,9,01067,1,99,9,99,9",,,"10130,1,99999,9",,,,,,"MET057METAR FACT 261400Z 22013KT 9999 FEW035 24/13 Q1013 NOSIG=",
"68816099999","2022-03-26T15:00:00","4","-33.964806","18.601667","46.02","CAPE TOWN INTERNATIONAL, SF","FM-15","99999","V020","200,1,N,0067,1","99999,9,9,N","009999,1,9,9","+0230,1","+0130,1","99999,9",,,,,"02,1,+01219,1,99,9",,,"9,AGL   ,+99999,+99999","99,99,9,02,1,99,9,01219,1,99,9,99,9",,,"10130,1,99999,9",,,,,,"MET057METAR FACT 261500Z 20013KT 9999 FEW040 23/13 Q1013 NOSIG=",
"68816099999","2022-03-26T16:00:00","4","-33.964806","18.601667","46.02","CAPE TOWN INTERNATIONAL, SF","FM-15","99999","V020","220,1,N,0067,1","99999,9,9,Y","009900,5,9,9","+0220,1","+0130,1","99999,9",,,,,,,,,,,,"10120,1,99999,9",,,,,,"MET051METAR FACT 261600Z 22013KT CAVOK 22/13 Q1012 NOSIG=",
"68816099999","2022-03-26T17:00:00","4","-33.964806","18.601667","46.02","CAPE TOWN INTERNATIONAL, SF","FM-15","99999","V020","240,1,N,0057,1","99999,9,9,Y","009900,5,9,9","+0200,1","+0130,1","99999,9",,,,,,,,,,,,"10120,1,99999,9",,,,,,"MET051METAR FACT 261700Z 24011KT CAVOK 20/13 Q1012 NOSIG=",
"68816099999","2022-03-26T18:00:00","4","-33.964806","18.601667","46.02","CAPE TOWN INTERNATIONAL, SF","FM-12","99999","V020","230,1,N,0051,1","22000,1,9,N","030000,1,9,9","+0205,1","+0124,1","10132,1",,,,,"99,9,+99999,9,00,1",,,"9,AGL   ,+99999,+99999","03,99,1,00,1,99,9,99999,9,99,9,99,9","120,M,+0257,1",,"99999,9,10078,1","3,1,005,1,+999,9",,,,"4,99,0072,1,999","SYN08068816 32980 32310 10205 20124 30078 40132 53005 80001 333 10257 91014 555 91013=","Q01    003SCCGA1"
"68816099999","2022-03-26T18:00:00","4","-33.964806","18.601667","46.02","CAPE TOWN INTERNATIONAL, SF","FM-15","99999","V020","230,1,N,0051,1","99999,9,9,Y","009900,5,9,9","+0200,1","+0120,1","99999,9",,,,,,,,,,,,"10130,1,99999,9",,,,,,"MET051METAR FACT 261800Z 23010KT CAVOK 20/12 Q1013 NOSIG=",
"68816099999","2022-03-26T19:00:00","4","-33.964806","18.601667","46.02","CAPE TOWN INTERNATIONAL, SF","FM-15","99999","V020","180,1,V,0036,1","99999,9,9,Y","009900,5,9,9","+0200,1","+0120,1","99999,9",,,,,,,,,,,,"10140,1,99999,9",,,,,,"MET059METAR FACT 261900Z 18007KT 140V240 CAVOK 20/12 Q1014 NOSIG=",
"68816099999","2022-03-26T20:00:00","4","-33.964806","18.601667","46.02","CAPE TOWN INTERNATIONAL, SF","FM-15","99999","V020","250,1,N,0046,1","99999,9,9,Y","009900,5,9,9","+0180,1","+0120,1","99999,9",,,,,,,,,,,,"10140,1,99999,9",,,,,,"MET051METAR FACT 262000Z 25009KT CAVOK 18/12 Q1014 NOSIG=",
"68816099999","2022-03-26T21:00:00","4","-33.964806","18.601667","46.02","CAPE TOWN INTERNATIONAL, SF","FM-15","99999","V020","200,1,N,0046,1","99999,9,9,Y","009900,5,9,9","+0190,1","+0120,1","99999,9",,,,,,,,,,,,"10130,1,99999,9",,,,,,"MET051METAR FACT 262100Z 20009KT CAVOK 19/12 Q1013 NOSIG=",
"68816099999","2022-03-26T22:00:00","4","-33.964806","18.601667","46.02","CAPE TOWN INTERNATIONAL, SF","FM-15","99999","V020","200,1,N,0041,1","99999,9,9,Y","009900,5,9,9","+0180,1","+0120,1","99999,9",,,,,,,,,,,,"10140,1,99999,9",,,,,,"MET051METAR FACT 262200Z 20008KT CAVOK 18/12 Q1014 NOSIG=",
"68816099999","2022-03-26T23:00:00","4","-33.964806","18.601667","46.02","CAPE TOWN INTERNATIONAL, SF","FM-15","99999","V020","200,1,N,0051,1","99999,9,9,Y","009900,5,9,9","+0180,1","+0120,1","99999,9",,,,,,,,,,,,"10140,1,99999,9",,,,,,"MET051METAR FACT 262300Z 20010KT CAVOK 18/12 Q1014 NOSIG=",
"68816099999","2022-03-27T00:00:00","4","-33.964806","18.601667","46.02","CAPE TOWN INTERNATIONAL, SF","FM-12","99999","V020","240,1,N,0031,1","99999,9,9,N","030000,1,9,9","+0166,1","+0114,1","10138,1",,,,,,,,,,"120,M,+0257,1","120,N,+0166,1","99999,9,10083,1","7,1,002,1,+999,9",,,,"4,99,0036,1,999","SYN08068816 32980 02406 10166 20114 30083 40138 57002 333 10257 20166 91007 555 91013=",
"68816099999","2022-03-27T00:00:00","4","-33.964806","18.601667","46.02","CAPE TOWN INTERNATIONAL, SF","FM-15","99999","V020","230,1,N,0031,1","99999,9,9,Y","009900,5,9,9","+0170,1","+0110,1","99999,9",,,,,,,,,,,,"10130,1,99999,9",,,,,,"MET051METAR FACT 270000Z 23006KT CAVOK 17/11 Q1013 NOSIG=",
"68816099999","2022-03-27T01:00:00","4","-33.964806","18.601667","46.02","CAPE TOWN INTERNATIONAL, SF","FM-15","99999","V020","240,1,N,0031,1","99999,9,9,Y","009900,5,9,9","+0160,1","+0120,1","99999,9",,,,,,,,,,,,"10130,1,99999,9",,,,,,"MET051METAR FACT 270100Z 24006KT CAVOK 16/12 Q1013 NOSIG=",
"68816099999","2022-03-27T02:00:00","4","-33.964806","18.601667","46.02","CAPE TOWN INTERNATIONAL, SF","FM-15","99999","V020","240,1,N,0021,1","99999,9,9,Y","009900,5,9,9","+0150,1","+0120,1","99999,9",,,,,,,,,,,,"10130,1,99999,9",,,,,,"MET051METAR FACT 270200Z 24004KT CAVOK 15/12 Q1013 NOSIG=",
"68816099999","2022-03-27T03:00:00","4","-33.964806","18.601667","46.02","CAPE TOWN INTERNATIONAL, SF","FM-15","99999","V020","190,1,N,0015,1","99999,9,9,Y","009900,5,9,9","+0140,1","+0110,1","99999,9",,,,,,,,,,,,"10120,1,99999,9",,,,,,"MET051METAR FACT 270300Z 19003KT CAVOK 14/11 Q1012 NOSIG=",
"68816099999","2022-03-27T04:00:00","4","-33.964806","18.601667","46.02","CAPE TOWN INTERNATIONAL, SF","FM-15","99999","V020","999,9,V,0005,1","99999,9,9,Y","009900,5,9,9","+0130,1","+0110,1","99999,9",,,,,,,,,,,,"10120,1,99999,9",,,,,,"MET051METAR FACT 270400Z VRB01KT CAVOK 13/11 Q1012 NOSIG=",
"68816099999","2022-03-27T05:00:00","4","-33.964806","18.601667","46.02","CAPE TOWN INTERNATIONAL, SF","FM-15","99999","V020","999,9,V,0005,1","99999,9,9,Y","009900,5,9,9","+0130,1","+0110,1","99999,9",,,,,,,,,,,,"10130,1,99999,9",,,,,,"MET051METAR FACT 270500Z VRB01KT CAVOK 13/11 Q1013 NOSIG=",
"68816099999","2022-03-27T05:55:00","4","-33.964806","18.601667","46.02","CAPE TOWN INTERNATIONAL, SF","FM-16","99999","V020","110,1,N,0010,1","99999,9,9,Y","009900,5,9,9","+0150,1","+0120,1","99999,9",,,,,,,,,,,,"10130,1,99999,9",,,,,,"MET051SPECI FACT 270555Z 11002KT CAVOK 15/12 Q1013 NOSIG=",
"68816099999","2022-03-27T06:00:00","4","-33.964806","18.601667","46.02","CAPE TOWN INTERNATIONAL, SF","FM-12","99999","V020","120,1,N,0010,1","22000,1,9,N","030000,1,9,9","+0153,1","+0123,1","10135,1",,,,,"99,9,+99999,9,00,1",,,"9,AGL   ,+99999,+99999","02,99,1,00,1,99,9,99999,9,99,9,99,9","240,N,+0117,1",,"99999,9,10079,1","7,1,010,1,+999,9",,,,"4,99,0051,1,999","SYN08668816 32980 21202 10153 20123 30079 40135 57010 80001 333 20117 91010 555 10257 91013=","Q01    003SCCGA1"
"68816099999","2022-03-27T06:00:00","4","-33.964806","18.601667","46.02","CAPE TOWN INTERNATIONAL, SF","FM-15","99999","V020","110,1,N,0010,1","99999,9,9,Y","009900,5,9,9","+0150,1","+0120,1","99999,9",,,,,,,,,,,,"10130,1,99999,9",,,,,,"MET051METAR FACT 270600Z 11002KT CAVOK 15/12 Q1013 NOSIG=",
"68816099999","2022-03-27T06:24:00","4","-33.964806","18.601667","46.02","CAPE TOWN INTERNATIONAL, SF","FM-16","99999","V020","999,9,V,0010,1","99999,9,9,Y","009900,5,9,9","+0170,1","+0130,1","99999,9",,,,,,,,,,,,"10130,1,99999,9",,,,,,"MET051SPECI FACT 270624Z VRB02KT CAVOK 17/13 Q1013 NOSIG=",
"68816099999","2022-03-27T06:47:00","4","-33.964806","18.601667","46.02","CAPE TOWN INTERNATIONAL, SF","FM-16","99999","V020","999,9,V,0010,1","99999,9,9,Y","009900,5,9,9","+0190,1","+0130,1","99999,9",,,,,,,,,,,,"10130,1,99999,9",,,,,,"MET051SPECI FACT 270647Z VRB02KT CAVOK 19/13 Q1013 NOSIG=",
"68816099999","2022-03-27T07:00:00","4","-33.964806","18.601667","46.02","CAPE TOWN INTERNATIONAL, SF","FM-15","99999","V020","999,9,V,0010,1","99999,9,9,Y","009900,5,9,9","+0190,1","+0130,1","99999,9",,,,,,,,,,,,"10130,1,99999,9",,,,,,"MET051METAR FACT 270700Z VRB02KT CAVOK 19/13 Q1013 NOSIG=",
"68816099999","2022-03-27T07:27:00","4","-33.964806","18.601667","46.02","CAPE TOWN INTERNATIONAL, SF","FM-16","99999","V020","150,1,V,0021,1","99999,9,9,Y","009900,5,9,9","+0210,1","+0120,1","99999,9",,,,,,,,,,,,"10130,1,99999,9",,,,,,"MET059SPECI FACT 270727Z 15004KT 130V190 CAVOK 21/12 Q1013 NOSIG=",
"68816099999","2022-03-27T07:47:00","4","-33.964806","18.601667","46.02","CAPE TOWN INTERNATIONAL, SF","FM-16","99999","V020","150,1,V,0026,1","99999,9,9,Y","009900,5,9,9","+0230,1","+0120,1","99999,9",,,,,,,,,,,,"10130,1,99999,9",,,,,,"MET059SPECI FACT 270747Z 15005KT 130V210 CAVOK 23/12 Q1013 NOSIG=",
"68816099999","2022-03-27T08:00:00","4","-33.964806","18.601667","46.02","CAPE TOWN INTERNATIONAL, SF","FM-15","99999","V020","140,1,V,0021,1","99999,9,9,Y","009900,5,9,9","+0230,1","+0120,1","99999,9",,,,,,,,,,,,"10130,1,99999,9",,,,,,"MET059METAR FACT 270800Z 14004KT 120V190 CAVOK 23/12 Q1013 NOSIG=",
"68816099999","2022-03-27T08:27:00","4","-33.964806","18.601667","46.02","CAPE TOWN INTERNATIONAL, SF","FM-16","99999","V020","999,9,V,0010,1","99999,9,9,Y","009900,5,9,9","+0250,1","+0120,1","99999,9",,,,,,,,,,,,"10130,1,99999,9",,,,,,"MET051SPECI FACT 270827Z VRB02KT CAVOK 25/12 Q1013 NOSIG=",
"68816099999","2022-03-27T09:00:00","4","-33.964806","18.601667","46.02","CAPE TOWN INTERNATIONAL, SF","FM-12","99999","V020","160,1,N,0026,1","22000,1,9,N","030000,1,9,9","+0271,1","+0114,1","10134,1",,,,,"99,9,+99999,9,00,1",,,"9,AGL   ,+99999,+99999","02,99,1,00,1,99,9,99999,9,99,9,99,9",,,"99999,9,10081,1","9,9,001,1,+999,9",,,,"4,99,0041,1,999","SYN06468816 42980 21605 10271 20114 30081 40134 50001 80001 333 91008=","Q01    003SCCGA1"
"68816099999","2022-03-27T09:00:00","4","-33.964806","18.601667","46.02","CAPE TOWN INTERNATIONAL, SF","FM-15","99999","V020","999,9,V,0015,1","99999,9,9,Y","009900,5,9,9","+0260,1","+0120,1","99999,9",,,,,,,,,,,,"10130,1,99999,9",,,,,,"MET051METAR FACT 270900Z VRB03KT CAVOK 26/12 Q1013 NOSIG=",
"68816099999","2022-03-27T10:00:00","4","-33.964806","18.601667","46.02","CAPE TOWN INTERNATIONAL, SF","FM-15","99999","V020","260,1,V,0026,1","99999,9,9,Y","009900,5,9,9","+0290,1","+0110,1","99999,9",,,,,,,,,,,,"10130,1,99999,9",,,,,,"MET059METAR FACT 271000Z 26005KT 220V360 CAVOK 29/11 Q1013 NOSIG=",
"68816099999","2022-03-27T10:01:00","4","-33.964806","18.601667","46.02","CAPE TOWN INTERNATIONAL, SF","FM-16","99999","V020","260,1,V,0026,1","99999,9,9,Y","009900,5,9,9","+0290,1","+0110,1","99999,9",,,,,,,,,,,,"10130,1,99999,9",,,,,,"MET059SPECI FACT 271001Z 26005KT 220V360 CAVOK 29/11 Q1013 NOSIG=",
"68816099999","2022-03-27T11:00:00","4","-33.964806","18.601667","46.02","CAPE TOWN INTERNATIONAL, SF","FM-15","99999","V020","190,1,V,0041,1","99999,9,9,Y","009900,5,9,9","+0290,1","+0120,1","99999,9",,,,,,,,,,,,"10120,1,99999,9",,,,,,"MET059METAR FACT 271100Z 19008KT 160V230 CAVOK 29/12 Q1012 NOSIG=",
"68816099999","2022-03-27T12:00:00","4","-33.964806","18.601667","46.02","CAPE TOWN INTERNATIONAL, SF","FM-12","99999","V020","220,1,N,0021,1","22000,1,9,N","030000,1,9,9","+0283,1","+0118,1","10118,1",,,,,"99,9,+99999,9,00,1",,,"9,AGL   ,+99999,+99999","03,99,1,00,1,99,9,99999,9,99,9,99,9","240,N,+0154,1",,"99999,9,10065,1","6,1,017,1,+999,9",,,,"4,99,0041,1,999","SYN08068816 32980 32204 10283 20118 30065 40118 56017 80004 333 20154 91008 555 91011=","Q01    003SCCGA1"
"68816099999","2022-03-27T12:00:00","4","-33.964806","18.601667","46.02","CAPE TOWN INTERNATIONAL, SF","FM-15","99999","V020","190,1,V,0031,1","99999,9,9,Y","009900,5,9,9","+0290,1","+0120,1","99999,9",,,,,,,,,,,,"10120,1,99999,9",,,,,,"MET059METAR FACT 271200Z 19006KT 120V220 CAVOK 29/12 Q1012 NOSIG=",
"68816099999","2022-03-27T13:00:00","4","-33.964806","18.601667","46.02","CAPE TOWN INTERNATIONAL, SF","FM-15","99999","V020","330,1,V,0041,1","99999,9,9,Y","009900,5,9,9","+0290,1","+0110,1","99999,9",,,,,,,,,,,,"10110,1,99999,9",,,,,,"MET059METAR FACT 271300Z 33008KT 290V010 CAVOK 29/11 Q1011 NOSIG=",
"68816099999","2022-03-27T14:00:00","4","-33.964806","18.601667","46.02","CAPE TOWN INTERNATIONAL, SF","FM-15","99999","V020","170,1,V,0041,1","99999,9,9,Y","009900,5,9,9","+0280,1","+0110,1","99999,9",,,,,,,,,,,,"10110,1,99999,9",,,,,,"MET059METAR FACT 271400Z 17008KT 140V200 CAVOK 28/11 Q1011 NOSIG=",
"68816099999","2022-03-27T15:00:00","4","-33.964806","18.601667","46.02","CAPE TOWN INTERNATIONAL, SF","FM-15","99999","V020","160,1,N,0041,1","99999,9,9,Y","009900,5,9,9","+0270,1","+0100,1","99999,9",,,,,,,,,,,,"10100,1,99999,9",,,,,,"MET051METAR FACT 271500Z 16008KT CAVOK 27/10 Q1010 NOSIG=",
"68816099999","2022-03-27T16:00:00","4","-33.964806","18.601667","46.02","CAPE TOWN INTERNATIONAL, SF","FM-15","99999","V020","170,1,N,0036,1","99999,9,9,Y","009900,5,9,9","+0260,1","+0100,1","99999,9",,,,,,,,,,,,"10100,1,99999,9",,,,,,"MET051METAR FACT 271600Z 17007KT CAVOK 26/10 Q1010 NOSIG=",
"68816099999","2022-03-27T17:00:00","4","-33.964806","18.601667","46.02","CAPE TOWN INTERNATIONAL, SF","FM-15","99999","V020","160,1,N,0021,1","99999,9,9,Y","009900,5,9,9","+0230,1","+0100,1","99999,9",,,,,,,,,,,,"10110,1,99999,9",,,,,,"MET051METAR FACT 271700Z 16004KT CAVOK 23/10 Q1011 NOSIG=",
"68816099999","2022-03-27T18:00:00","4","-33.964806","18.601667","46.02","CAPE TOWN INTERNATIONAL, SF","FM-15","99999","V020","120,1,N,0010,1","99999,9,9,Y","009900,5,9,9","+0200,1","+0110,1","99999,9",,,,,,,,,,,,"10110,1,99999,9",,,,,,"MET051METAR FACT 271800Z 12002KT CAVOK 20/11 Q1011 NOSIG=",
"68816099999","2022-03-27T19:00:00","4","-33.964806","18.601667","46.02","CAPE TOWN INTERNATIONAL, SF","FM-15","99999","V020","070,1,N,0010,1","99999,9,9,Y","009900,5,9,9","+0190,1","+0100,1","99999,9",,,,,,,,,,,,"10110,1,99999,9",,,,,,"MET051METAR FACT 271900Z 07002KT CAVOK 19/10 Q1011 NOSIG=",
"68816099999","2022-03-27T20:00:00","4","-33.964806","18.601667","46.02","CAPE TOWN INTERNATIONAL, SF","FM-15","99999","V020","320,1,N,0015,1","99999,9,9,Y","009900,5,9,9","+0200,1","+0110,1","99999,9",,,,,,,,,,,,"10110,1,99999,9",,,,,,"MET051METAR FACT 272000Z 32003KT CAVOK 20/11 Q1011 NOSIG=",
"68816099999","2022-03-27T21:00:00","4","-33.964806","18.601667","46.02","CAPE TOWN INTERNATIONAL, SF","FM-12","99999","V020","040,1,N,0021,1","99999,9,9,N","030000,1,9,9","+0176,1","+0103,1","10113,1",,,,,,,,,,"240,M,+0304,1",,"99999,9,10058,1","7,1,004,1,+999,9",,,,"4,99,0057,1,999","SYN06468816 32980 00404 10176 20103 30058 40113 57004 333 10304 91011=",
"68816099999","2022-03-27T21:00:00","4","-33.964806","18.601667","46.02","CAPE TOWN INTERNATIONAL, SF","FM-15","99999","V020","050,1,N,0026,1","99999,9,9,Y","009900,5,9,9","+0170,1","+0100,1","99999,9",,,,,,,,,,,,"10110,1,99999,9",,,,,,"MET051METAR FACT 272100Z 05005KT CAVOK 17/10 Q1011 NOSIG=",
